<?xml version="1.0" encoding="UTF-8"?>
<kml xmlns="http://www.opengis.net/kml/2.2">
  <Document>
    <name>北海道 白老 浜厚真 むかわ</name>
    <description/>
    <Style id="icon-1899-FF5252-labelson-nodesc">
      <IconStyle>
        <color>ff5252ff</color>
        <scale>1</scale>
        <Icon>
          <href>https://www.gstatic.com/mapspro/images/stock/503-wht-blank_maps.png</href>
        </Icon>
        <hotSpot x="32" xunits="pixels" y="64" yunits="insetPixels"/>
      </IconStyle>
      <BalloonStyle>
        <text><![CDATA[<h3>$[name]</h3>]]></text>
      </BalloonStyle>
    </Style>
    <Folder>
      <name>無題のレイヤ</name>
      <Placemark>
        <name>白老駅</name>
        <styleUrl>#icon-1899-FF5252-labelson-nodesc</styleUrl>
        <Point>
          <coordinates>
            141.3601138,42.5547078,0
          </coordinates>
        </Point>
      </Placemark>
      <Placemark>
        <name>リブマックスリゾート ウポポイ白老温泉</name>
        <styleUrl>#icon-1899-FF5252-labelson-nodesc</styleUrl>
        <Point>
          <coordinates>
            141.366793,42.5554764,0
          </coordinates>
        </Point>
      </Placemark>
      <Placemark>
        <name>ブーランジェリーニシオ</name>
        <styleUrl>#icon-1899-FF5252-labelson-nodesc</styleUrl>
        <Point>
          <coordinates>
            141.3496153,42.5553414,0
          </coordinates>
        </Point>
      </Placemark>
      <Placemark>
        <name>cafe 結</name>
        <styleUrl>#icon-1899-FF5252-labelson-nodesc</styleUrl>
        <Point>
          <coordinates>
            141.3600841,42.55387,0
          </coordinates>
        </Point>
      </Placemark>
      <Placemark>
        <name>ウポポイ</name>
        <styleUrl>#icon-1899-FF5252-labelson-nodesc</styleUrl>
        <Point>
          <coordinates>
            141.3635063,42.5577892,0
          </coordinates>
        </Point>
      </Placemark>
      <Placemark>
        <name>ヨコスト湿原</name>
        <styleUrl>#icon-1899-FF5252-labelson-nodesc</styleUrl>
        <Point>
          <coordinates>
            141.3807161,42.5595067,0
          </coordinates>
        </Point>
      </Placemark>
      <Placemark>
        <name>萩の里自然公園</name>
        <styleUrl>#icon-1899-FF5252-labelson-nodesc</styleUrl>
        <Point>
          <coordinates>
            141.3010645,42.531945,0
          </coordinates>
        </Point>
      </Placemark>
      <Placemark>
        <name>萩野駅</name>
        <styleUrl>#icon-1899-FF5252-labelson-nodesc</styleUrl>
        <Point>
          <coordinates>
            141.3060027,42.5211307,0
          </coordinates>
        </Point>
      </Placemark>
      <Placemark>
        <name>苫小牧駅</name>
        <styleUrl>#icon-1899-FF5252-labelson-nodesc</styleUrl>
        <Point>
          <coordinates>
            141.5967886,42.6397391,0
          </coordinates>
        </Point>
      </Placemark>
      <Placemark>
        <name>むかわ温泉 四季の湯</name>
        <styleUrl>#icon-1899-FF5252-labelson-nodesc</styleUrl>
        <Point>
          <coordinates>
            141.9246037,42.5737834,0
          </coordinates>
        </Point>
      </Placemark>
      <Placemark>
        <name>鵡川駅</name>
        <styleUrl>#icon-1899-FF5252-labelson-nodesc</styleUrl>
        <Point>
          <coordinates>
            141.9236767,42.5788174,0
          </coordinates>
        </Point>
      </Placemark>
      <Placemark>
        <name>浜厚真駅</name>
        <styleUrl>#icon-1899-FF5252-labelson-nodesc</styleUrl>
        <Point>
          <coordinates>
            141.8369911,42.6069102,0
          </coordinates>
        </Point>
      </Placemark>
      <Placemark>
        <name>浜厚真</name>
        <styleUrl>#icon-1899-FF5252-labelson-nodesc</styleUrl>
        <Point>
          <coordinates>
            141.840312,42.607569,0
          </coordinates>
        </Point>
      </Placemark>
      <Placemark>
        <name>浜厚真</name>
        <styleUrl>#icon-1899-FF5252-labelson-nodesc</styleUrl>
        <Point>
          <coordinates>
            141.8415727,42.6072353,0
          </coordinates>
        </Point>
      </Placemark>
      <Placemark>
        <name>浜厚真海浜公園</name>
        <styleUrl>#icon-1899-FF5252-labelson-nodesc</styleUrl>
        <Point>
          <coordinates>
            141.8310114,42.6038738,0
          </coordinates>
        </Point>
      </Placemark>
      <Placemark>
        <name>萩野石山</name>
        <styleUrl>#icon-1899-FF5252-labelson-nodesc</styleUrl>
        <Point>
          <coordinates>
            141.3109406,42.5279617,0
          </coordinates>
        </Point>
      </Placemark>
      <Placemark>
        <name>東白老（バス）（新千歳空港線・上り）</name>
        <styleUrl>#icon-1899-FF5252-labelson-nodesc</styleUrl>
        <Point>
          <coordinates>
            141.3797,42.56345,0
          </coordinates>
        </Point>
      </Placemark>
      <Placemark>
        <name>白老コタン前（バス）（新千歳空港線・上り）</name>
        <styleUrl>#icon-1899-FF5252-labelson-nodesc</styleUrl>
        <Point>
          <coordinates>
            141.3669467,42.5579876,0
          </coordinates>
        </Point>
      </Placemark>
      <Placemark>
        <name>ヨコスト（バス）（新千歳空港線・上り）</name>
        <styleUrl>#icon-1899-FF5252-labelson-nodesc</styleUrl>
        <Point>
          <coordinates>
            141.3854515,42.5650793,0
          </coordinates>
        </Point>
      </Placemark>
      <Placemark>
        <name>社台駅</name>
        <styleUrl>#icon-1899-FF5252-labelson-nodesc</styleUrl>
        <Point>
          <coordinates>
            141.4175291,42.5787081,0
          </coordinates>
        </Point>
      </Placemark>
      <Placemark>
        <name>道の駅 ウトナイ湖</name>
        <styleUrl>#icon-1899-FF5252-labelson-nodesc</styleUrl>
        <Point>
          <coordinates>
            141.6946488,42.6999513,0
          </coordinates>
        </Point>
      </Placemark>
    </Folder>
  </Document>
</kml>
