<?xml version='1.0' encoding='UTF-8' standalone='yes' ?>
<gpx xmlns="http://www.topografix.com/GPX/1/1" xmlns:geotracker="http://ilyabogdanovich.com/gpx/extensions/geotracker" xmlns:xsi="http://www.w3.org/2001/XMLSchema-instance" xsi:schemaLocation="http://www.topografix.com/GPX/1/1 http://www.topografix.com/GPX/1/1/gpx.xsd" version="1.1" creator="Recorded in Geo Tracker for Android from Ilya Bogdanovich">
  <metadata>
    <name>2026/09/24 10:39:06</name>
    <author>
      <name>Recorded in Geo Tracker for Android from Ilya Bogdanovich</name>
      <link href="https://play.google.com/store/apps/details?id=com.ilyabogdanovich.geotracker" />
    </author>
    <link href="https://play.google.com/store/apps/details?id=com.ilyabogdanovich.geotracker" />
    <time>2026-09-24T01:39:06Z</time>
  </metadata>
  <wpt lat="34.07998383" lon="134.5773579">
    <ele>46.32</ele>
    <time>2026-09-24T01:41:22Z</time>
    <name>Stop for ~2 min</name>
    <desc>Elevation: 46 m
Time from start: 00:02:15
Distance from start: 95 m</desc>
    <extensions>
      <geotracker:meta emoji="⏱️" />
    </extensions>
  </wpt>
  <trk>
    <name>2026/09/24 10:39:06</name>
    <src>Recorded in Geo Tracker for Android from Ilya Bogdanovich</src>
    <link href="https://play.google.com/store/apps/details?id=com.ilyabogdanovich.geotracker" />
    <extensions>
      <geotracker:meta>
        <geotracker:length>3615.49</geotracker:length>
        <geotracker:duration>4842338</geotracker:duration>
        <geotracker:creationtime>2026-09-24T01:39:06Z</geotracker:creationtime>
        <geotracker:activity>0</geotracker:activity>
      </geotracker:meta>
    </extensions>
    <trkseg>
      <trkpt lat="34.07935407" lon="134.57674377">
        <ele>30.98</ele>
        <time>2026-09-24T01:39:13Z</time>
      </trkpt>
      <trkpt lat="34.07943793" lon="134.57678951">
        <ele>40.09</ele>
        <time>2026-09-24T01:39:30Z</time>
      </trkpt>
      <trkpt lat="34.07951614" lon="134.57685064">
        <ele>43.26</ele>
        <time>2026-09-24T01:39:42Z</time>
      </trkpt>
      <trkpt lat="34.07954123" lon="134.57696821">
        <ele>44.02</ele>
        <time>2026-09-24T01:39:52Z</time>
      </trkpt>
      <trkpt lat="34.07958917" lon="134.5770601">
        <ele>42.98</ele>
        <time>2026-09-24T01:40:00Z</time>
      </trkpt>
      <trkpt lat="34.07968008" lon="134.57709542">
        <ele>42.6</ele>
        <time>2026-09-24T01:40:08Z</time>
      </trkpt>
      <trkpt lat="34.07972886" lon="134.57718663">
        <ele>42.87</ele>
        <time>2026-09-24T01:40:51Z</time>
      </trkpt>
      <trkpt lat="34.07982215" lon="134.57725537">
        <ele>42.74</ele>
        <time>2026-09-24T01:41:00Z</time>
      </trkpt>
      <trkpt lat="34.07990395" lon="134.57730117">
        <ele>43.03</ele>
        <time>2026-09-24T01:41:08Z</time>
      </trkpt>
      <trkpt lat="34.07998383" lon="134.5773579">
        <ele>46.32</ele>
        <time>2026-09-24T01:41:22Z</time>
      </trkpt>
      <trkpt lat="34.07998329" lon="134.57746255">
        <ele>46.86</ele>
        <time>2026-09-24T01:43:36Z</time>
      </trkpt>
      <trkpt lat="34.079942" lon="134.57757048">
        <ele>50.21</ele>
        <time>2026-09-24T01:43:47Z</time>
      </trkpt>
      <trkpt lat="34.07990028" lon="134.57766759">
        <ele>51.06</ele>
        <time>2026-09-24T01:43:57Z</time>
      </trkpt>
      <trkpt lat="34.07985864" lon="134.5777666">
        <ele>51.66</ele>
        <time>2026-09-24T01:44:07Z</time>
      </trkpt>
      <trkpt lat="34.0798133" lon="134.57786064">
        <ele>51.72</ele>
        <time>2026-09-24T01:44:16Z</time>
      </trkpt>
      <trkpt lat="34.07977105" lon="134.57796881">
        <ele>51.1</ele>
        <time>2026-09-24T01:44:51Z</time>
      </trkpt>
      <trkpt lat="34.07972925" lon="134.57807503">
        <ele>51.86</ele>
        <time>2026-09-24T01:45:00Z</time>
      </trkpt>
      <trkpt lat="34.07969069" lon="134.57817726">
        <ele>53.1</ele>
        <time>2026-09-24T01:45:10Z</time>
      </trkpt>
      <trkpt lat="34.07962938" lon="134.57826053">
        <ele>53.96</ele>
        <time>2026-09-24T01:45:24Z</time>
      </trkpt>
      <trkpt lat="34.07960203" lon="134.57836394">
        <ele>54.43</ele>
        <time>2026-09-24T01:46:00Z</time>
      </trkpt>
      <trkpt lat="34.07956601" lon="134.57846794">
        <ele>54.18</ele>
        <time>2026-09-24T01:46:08Z</time>
      </trkpt>
      <trkpt lat="34.07953462" lon="134.57857219">
        <ele>53.26</ele>
        <time>2026-09-24T01:46:16Z</time>
      </trkpt>
      <trkpt lat="34.07947515" lon="134.57866957">
        <ele>52.26</ele>
        <time>2026-09-24T01:46:29Z</time>
      </trkpt>
      <trkpt lat="34.07943363" lon="134.57877265">
        <ele>52.26</ele>
        <time>2026-09-24T01:46:37Z</time>
      </trkpt>
      <trkpt lat="34.07939896" lon="134.57887278">
        <ele>51.85</ele>
        <time>2026-09-24T01:46:45Z</time>
      </trkpt>
      <trkpt lat="34.07935279" lon="134.57897948">
        <ele>52.82</ele>
        <time>2026-09-24T01:46:54Z</time>
      </trkpt>
      <trkpt lat="34.07931503" lon="134.57909098">
        <ele>51.54</ele>
        <time>2026-09-24T01:47:07Z</time>
      </trkpt>
      <trkpt lat="34.07924926" lon="134.57917969">
        <ele>54.72</ele>
        <time>2026-09-24T01:47:16Z</time>
      </trkpt>
      <trkpt lat="34.07918912" lon="134.57926746">
        <ele>50.38</ele>
        <time>2026-09-24T01:47:24Z</time>
      </trkpt>
      <trkpt lat="34.07914495" lon="134.57936235">
        <ele>43.67</ele>
        <time>2026-09-24T01:47:32Z</time>
      </trkpt>
      <trkpt lat="34.07911738" lon="134.57947371">
        <ele>46.85</ele>
        <time>2026-09-24T01:47:42Z</time>
      </trkpt>
      <trkpt lat="34.07907426" lon="134.57959534">
        <ele>51.85</ele>
        <time>2026-09-24T01:47:55Z</time>
      </trkpt>
      <trkpt lat="34.07904754" lon="134.57969941">
        <ele>52.77</ele>
        <time>2026-09-24T01:48:04Z</time>
      </trkpt>
      <trkpt lat="34.07901014" lon="134.57980608">
        <ele>52.92</ele>
        <time>2026-09-24T01:48:14Z</time>
      </trkpt>
      <trkpt lat="34.07896907" lon="134.5799107">
        <ele>53.65</ele>
        <time>2026-09-24T01:48:23Z</time>
      </trkpt>
      <trkpt lat="34.07892732" lon="134.58001535">
        <ele>54.17</ele>
        <time>2026-09-24T01:48:32Z</time>
      </trkpt>
      <trkpt lat="34.07889121" lon="134.58012071">
        <ele>54.55</ele>
        <time>2026-09-24T01:48:41Z</time>
      </trkpt>
      <trkpt lat="34.07885588" lon="134.58024771">
        <ele>55.59</ele>
        <time>2026-09-24T01:48:52Z</time>
      </trkpt>
      <trkpt lat="34.07880933" lon="134.5803518">
        <ele>56.67</ele>
        <time>2026-09-24T01:49:02Z</time>
      </trkpt>
      <trkpt lat="34.07875614" lon="134.58045326">
        <ele>56.49</ele>
        <time>2026-09-24T01:49:11Z</time>
      </trkpt>
      <trkpt lat="34.07871229" lon="134.58055844">
        <ele>55.87</ele>
        <time>2026-09-24T01:49:20Z</time>
      </trkpt>
      <trkpt lat="34.07866781" lon="134.58066302">
        <ele>54.8</ele>
        <time>2026-09-24T01:49:29Z</time>
      </trkpt>
      <trkpt lat="34.07861675" lon="134.58076595">
        <ele>54.6</ele>
        <time>2026-09-24T01:49:38Z</time>
      </trkpt>
      <trkpt lat="34.07858518" lon="134.58086784">
        <ele>55.11</ele>
        <time>2026-09-24T01:49:47Z</time>
      </trkpt>
      <trkpt lat="34.0785358" lon="134.58097431">
        <ele>54.81</ele>
        <time>2026-09-24T01:49:57Z</time>
      </trkpt>
      <trkpt lat="34.07849406" lon="134.58107658">
        <ele>55.6</ele>
        <time>2026-09-24T01:50:07Z</time>
      </trkpt>
      <trkpt lat="34.07843385" lon="134.58117445">
        <ele>54.3</ele>
        <time>2026-09-24T01:50:26Z</time>
      </trkpt>
      <trkpt lat="34.07839172" lon="134.58127226">
        <ele>54.36</ele>
        <time>2026-09-24T01:50:34Z</time>
      </trkpt>
      <trkpt lat="34.07833991" lon="134.58136636">
        <ele>54.37</ele>
        <time>2026-09-24T01:50:43Z</time>
      </trkpt>
      <trkpt lat="34.0782825" lon="134.58147812">
        <ele>53.11</ele>
        <time>2026-09-24T01:50:54Z</time>
      </trkpt>
      <trkpt lat="34.07823976" lon="134.58157791">
        <ele>53.22</ele>
        <time>2026-09-24T01:51:17Z</time>
      </trkpt>
      <trkpt lat="34.07820054" lon="134.58168334">
        <ele>53.87</ele>
        <time>2026-09-24T01:51:29Z</time>
      </trkpt>
      <trkpt lat="34.0781595" lon="134.5817811">
        <ele>52.73</ele>
        <time>2026-09-24T01:51:56Z</time>
      </trkpt>
      <trkpt lat="34.07810854" lon="134.58187881">
        <ele>52.12</ele>
        <time>2026-09-24T01:52:08Z</time>
      </trkpt>
      <trkpt lat="34.07805802" lon="134.58197263">
        <ele>52.73</ele>
        <time>2026-09-24T01:52:21Z</time>
      </trkpt>
      <trkpt lat="34.07801271" lon="134.58207005">
        <ele>53.67</ele>
        <time>2026-09-24T01:52:31Z</time>
      </trkpt>
      <trkpt lat="34.07796681" lon="134.58216812">
        <ele>54.05</ele>
        <time>2026-09-24T01:52:41Z</time>
      </trkpt>
      <trkpt lat="34.07791603" lon="134.58226995">
        <ele>54.48</ele>
        <time>2026-09-24T01:52:53Z</time>
      </trkpt>
      <trkpt lat="34.07786829" lon="134.58237262">
        <ele>54.02</ele>
        <time>2026-09-24T01:53:04Z</time>
      </trkpt>
      <trkpt lat="34.07782307" lon="134.58247192">
        <ele>54.42</ele>
        <time>2026-09-24T01:53:14Z</time>
      </trkpt>
      <trkpt lat="34.07777295" lon="134.58256426">
        <ele>54.08</ele>
        <time>2026-09-24T01:53:23Z</time>
      </trkpt>
      <trkpt lat="34.07771909" lon="134.58265609">
        <ele>54.34</ele>
        <time>2026-09-24T01:53:32Z</time>
      </trkpt>
      <trkpt lat="34.07767287" lon="134.58275476">
        <ele>54.16</ele>
        <time>2026-09-24T01:53:42Z</time>
      </trkpt>
      <trkpt lat="34.07763648" lon="134.58285462">
        <ele>54.22</ele>
        <time>2026-09-24T01:53:55Z</time>
      </trkpt>
      <trkpt lat="34.07758703" lon="134.58295608">
        <ele>54.01</ele>
        <time>2026-09-24T01:54:08Z</time>
      </trkpt>
      <trkpt lat="34.07753993" lon="134.58304985">
        <ele>54.35</ele>
        <time>2026-09-24T01:54:18Z</time>
      </trkpt>
      <trkpt lat="34.0774934" lon="134.58314367">
        <ele>54.09</ele>
        <time>2026-09-24T01:54:28Z</time>
      </trkpt>
      <trkpt lat="34.07744235" lon="134.58324287">
        <ele>53.47</ele>
        <time>2026-09-24T01:54:39Z</time>
      </trkpt>
      <trkpt lat="34.07738775" lon="134.58335575">
        <ele>53.83</ele>
        <time>2026-09-24T01:54:55Z</time>
      </trkpt>
      <trkpt lat="34.07734399" lon="134.58345521">
        <ele>53.45</ele>
        <time>2026-09-24T01:55:05Z</time>
      </trkpt>
      <trkpt lat="34.07729815" lon="134.58355124">
        <ele>54</ele>
        <time>2026-09-24T01:55:15Z</time>
      </trkpt>
      <trkpt lat="34.07724955" lon="134.58364763">
        <ele>54.2</ele>
        <time>2026-09-24T01:55:25Z</time>
      </trkpt>
      <trkpt lat="34.07720325" lon="134.58376575">
        <ele>53.92</ele>
        <time>2026-09-24T01:55:52Z</time>
      </trkpt>
      <trkpt lat="34.0771575" lon="134.58386208">
        <ele>52.77</ele>
        <time>2026-09-24T01:56:05Z</time>
      </trkpt>
      <trkpt lat="34.07711571" lon="134.58395948">
        <ele>52.45</ele>
        <time>2026-09-24T01:56:15Z</time>
      </trkpt>
      <trkpt lat="34.07707933" lon="134.58406335">
        <ele>52.43</ele>
        <time>2026-09-24T01:56:24Z</time>
      </trkpt>
      <trkpt lat="34.07704113" lon="134.58416353">
        <ele>53.11</ele>
        <time>2026-09-24T01:56:40Z</time>
      </trkpt>
      <trkpt lat="34.07700011" lon="134.58426459">
        <ele>52.83</ele>
        <time>2026-09-24T01:56:50Z</time>
      </trkpt>
      <trkpt lat="34.07696748" lon="134.58436858">
        <ele>51.2</ele>
        <time>2026-09-24T01:57:21Z</time>
      </trkpt>
      <trkpt lat="34.07693078" lon="134.58447686">
        <ele>50</ele>
        <time>2026-09-24T01:57:32Z</time>
      </trkpt>
      <trkpt lat="34.07689787" lon="134.58458438">
        <ele>49.48</ele>
        <time>2026-09-24T01:57:42Z</time>
      </trkpt>
      <trkpt lat="34.07686799" lon="134.58469101">
        <ele>49.32</ele>
        <time>2026-09-24T01:57:52Z</time>
      </trkpt>
      <trkpt lat="34.07683532" lon="134.58480506">
        <ele>48.25</ele>
        <time>2026-09-24T01:58:03Z</time>
      </trkpt>
      <trkpt lat="34.07680518" lon="134.58491327">
        <ele>47.62</ele>
        <time>2026-09-24T01:58:13Z</time>
      </trkpt>
      <trkpt lat="34.076774" lon="134.58501915">
        <ele>47.12</ele>
        <time>2026-09-24T01:58:24Z</time>
      </trkpt>
      <trkpt lat="34.07674677" lon="134.58512391">
        <ele>47.32</ele>
        <time>2026-09-24T01:58:35Z</time>
      </trkpt>
      <trkpt lat="34.07671207" lon="134.58523207">
        <ele>48.59</ele>
        <time>2026-09-24T01:58:45Z</time>
      </trkpt>
      <trkpt lat="34.07668255" lon="134.58535108">
        <ele>48.47</ele>
        <time>2026-09-24T01:58:55Z</time>
      </trkpt>
      <trkpt lat="34.07664953" lon="134.58546211">
        <ele>47.7</ele>
        <time>2026-09-24T01:59:05Z</time>
      </trkpt>
      <trkpt lat="34.07662356" lon="134.58556891">
        <ele>48.04</ele>
        <time>2026-09-24T01:59:14Z</time>
      </trkpt>
      <trkpt lat="34.07659831" lon="134.58567505">
        <ele>47.67</ele>
        <time>2026-09-24T01:59:23Z</time>
      </trkpt>
      <trkpt lat="34.07657049" lon="134.58578233">
        <ele>48.51</ele>
        <time>2026-09-24T01:59:34Z</time>
      </trkpt>
      <trkpt lat="34.07653213" lon="134.58588175">
        <ele>49.47</ele>
        <time>2026-09-24T01:59:43Z</time>
      </trkpt>
      <trkpt lat="34.07650207" lon="134.58598991">
        <ele>49.44</ele>
        <time>2026-09-24T02:01:38Z</time>
      </trkpt>
      <trkpt lat="34.07647895" lon="134.58609692">
        <ele>50.54</ele>
        <time>2026-09-24T02:01:47Z</time>
      </trkpt>
      <trkpt lat="34.07646115" lon="134.58620618">
        <ele>50.48</ele>
        <time>2026-09-24T02:01:56Z</time>
      </trkpt>
      <trkpt lat="34.07643067" lon="134.58631321">
        <ele>50.77</ele>
        <time>2026-09-24T02:02:05Z</time>
      </trkpt>
      <trkpt lat="34.07639421" lon="134.58641851">
        <ele>51.02</ele>
        <time>2026-09-24T02:02:14Z</time>
      </trkpt>
      <trkpt lat="34.07636794" lon="134.586524">
        <ele>51.53</ele>
        <time>2026-09-24T02:02:23Z</time>
      </trkpt>
      <trkpt lat="34.07635523" lon="134.58663645">
        <ele>52.33</ele>
        <time>2026-09-24T02:02:32Z</time>
      </trkpt>
      <trkpt lat="34.07632137" lon="134.58674481">
        <ele>52.23</ele>
        <time>2026-09-24T02:02:42Z</time>
      </trkpt>
      <trkpt lat="34.07629139" lon="134.58685363">
        <ele>51.53</ele>
        <time>2026-09-24T02:02:52Z</time>
      </trkpt>
      <trkpt lat="34.07625189" lon="134.58696282">
        <ele>52.9</ele>
        <time>2026-09-24T02:03:03Z</time>
      </trkpt>
      <trkpt lat="34.07622657" lon="134.58707323">
        <ele>53.82</ele>
        <time>2026-09-24T02:03:13Z</time>
      </trkpt>
      <trkpt lat="34.0761889" lon="134.58717175">
        <ele>53.31</ele>
        <time>2026-09-24T02:03:24Z</time>
      </trkpt>
      <trkpt lat="34.07615675" lon="134.5872784">
        <ele>52.83</ele>
        <time>2026-09-24T02:03:35Z</time>
      </trkpt>
      <trkpt lat="34.07612111" lon="134.58738338">
        <ele>53.5</ele>
        <time>2026-09-24T02:03:46Z</time>
      </trkpt>
      <trkpt lat="34.07608746" lon="134.5874898">
        <ele>52.65</ele>
        <time>2026-09-24T02:03:57Z</time>
      </trkpt>
      <trkpt lat="34.0760589" lon="134.58759874">
        <ele>51.02</ele>
        <time>2026-09-24T02:04:08Z</time>
      </trkpt>
      <trkpt lat="34.07602681" lon="134.58770519">
        <ele>49.92</ele>
        <time>2026-09-24T02:04:19Z</time>
      </trkpt>
      <trkpt lat="34.07599188" lon="134.58782842">
        <ele>48.85</ele>
        <time>2026-09-24T02:04:31Z</time>
      </trkpt>
      <trkpt lat="34.07596279" lon="134.58793588">
        <ele>48.8</ele>
        <time>2026-09-24T02:04:41Z</time>
      </trkpt>
      <trkpt lat="34.07592579" lon="134.58803722">
        <ele>47.77</ele>
        <time>2026-09-24T02:04:51Z</time>
      </trkpt>
      <trkpt lat="34.07590246" lon="134.5881508">
        <ele>46.81</ele>
        <time>2026-09-24T02:05:03Z</time>
      </trkpt>
      <trkpt lat="34.07586704" lon="134.58825822">
        <ele>46.06</ele>
        <time>2026-09-24T02:05:14Z</time>
      </trkpt>
      <trkpt lat="34.07583212" lon="134.58836791">
        <ele>45.07</ele>
        <time>2026-09-24T02:05:24Z</time>
      </trkpt>
      <trkpt lat="34.0757974" lon="134.58848927">
        <ele>44.33</ele>
        <time>2026-09-24T02:05:35Z</time>
      </trkpt>
      <trkpt lat="34.07576285" lon="134.58859333">
        <ele>44.37</ele>
        <time>2026-09-24T02:05:45Z</time>
      </trkpt>
      <trkpt lat="34.07573129" lon="134.58869608">
        <ele>44.14</ele>
        <time>2026-09-24T02:05:55Z</time>
      </trkpt>
      <trkpt lat="34.07569566" lon="134.58881874">
        <ele>44.25</ele>
        <time>2026-09-24T02:06:07Z</time>
      </trkpt>
      <trkpt lat="34.07566071" lon="134.58892573">
        <ele>44.4</ele>
        <time>2026-09-24T02:06:18Z</time>
      </trkpt>
      <trkpt lat="34.07561567" lon="134.58902022">
        <ele>45.63</ele>
        <time>2026-09-24T02:06:30Z</time>
      </trkpt>
      <trkpt lat="34.07558323" lon="134.58912314">
        <ele>44.91</ele>
        <time>2026-09-24T02:06:43Z</time>
      </trkpt>
      <trkpt lat="34.07553943" lon="134.58921839">
        <ele>46.69</ele>
        <time>2026-09-24T02:06:58Z</time>
      </trkpt>
      <trkpt lat="34.07550938" lon="134.58932569">
        <ele>46.72</ele>
        <time>2026-09-24T02:07:08Z</time>
      </trkpt>
      <trkpt lat="34.07547463" lon="134.58942687">
        <ele>46.65</ele>
        <time>2026-09-24T02:07:19Z</time>
      </trkpt>
      <trkpt lat="34.07544218" lon="134.58953486">
        <ele>46.03</ele>
        <time>2026-09-24T02:07:31Z</time>
      </trkpt>
      <trkpt lat="34.0754111" lon="134.58964326">
        <ele>45.53</ele>
        <time>2026-09-24T02:07:41Z</time>
      </trkpt>
      <trkpt lat="34.07537332" lon="134.58975285">
        <ele>45.86</ele>
        <time>2026-09-24T02:08:01Z</time>
      </trkpt>
      <trkpt lat="34.07532761" lon="134.58985523">
        <ele>49.62</ele>
        <time>2026-09-24T02:08:20Z</time>
      </trkpt>
      <trkpt lat="34.07528434" lon="134.58995947">
        <ele>48.7</ele>
        <time>2026-09-24T02:08:30Z</time>
      </trkpt>
      <trkpt lat="34.0752439" lon="134.59006654">
        <ele>48.41</ele>
        <time>2026-09-24T02:08:41Z</time>
      </trkpt>
      <trkpt lat="34.0752149" lon="134.59017402">
        <ele>49.2</ele>
        <time>2026-09-24T02:08:51Z</time>
      </trkpt>
      <trkpt lat="34.07517811" lon="134.59028303">
        <ele>49.42</ele>
        <time>2026-09-24T02:09:02Z</time>
      </trkpt>
      <trkpt lat="34.07514082" lon="134.59038777">
        <ele>48.28</ele>
        <time>2026-09-24T02:09:13Z</time>
      </trkpt>
      <trkpt lat="34.07510539" lon="134.59049648">
        <ele>47.98</ele>
        <time>2026-09-24T02:09:24Z</time>
      </trkpt>
      <trkpt lat="34.07506733" lon="134.59060588">
        <ele>48.84</ele>
        <time>2026-09-24T02:09:38Z</time>
      </trkpt>
      <trkpt lat="34.07503121" lon="134.5907284">
        <ele>48.7</ele>
        <time>2026-09-24T02:09:50Z</time>
      </trkpt>
      <trkpt lat="34.07499472" lon="134.59083232">
        <ele>48.27</ele>
        <time>2026-09-24T02:10:01Z</time>
      </trkpt>
      <trkpt lat="34.07495641" lon="134.59093756">
        <ele>46.98</ele>
        <time>2026-09-24T02:10:12Z</time>
      </trkpt>
      <trkpt lat="34.07491654" lon="134.59103723">
        <ele>46.99</ele>
        <time>2026-09-24T02:10:51Z</time>
      </trkpt>
      <trkpt lat="34.07486591" lon="134.59116529">
        <ele>47.87</ele>
        <time>2026-09-24T02:11:03Z</time>
      </trkpt>
      <trkpt lat="34.07484057" lon="134.5912748">
        <ele>49.18</ele>
        <time>2026-09-24T02:11:23Z</time>
      </trkpt>
      <trkpt lat="34.07479936" lon="134.59138218">
        <ele>48.51</ele>
        <time>2026-09-24T02:11:35Z</time>
      </trkpt>
      <trkpt lat="34.0747574" lon="134.59148095">
        <ele>47.76</ele>
        <time>2026-09-24T02:11:45Z</time>
      </trkpt>
      <trkpt lat="34.07473387" lon="134.59159701">
        <ele>48.19</ele>
        <time>2026-09-24T02:12:04Z</time>
      </trkpt>
      <trkpt lat="34.07469946" lon="134.59169726">
        <ele>49.16</ele>
        <time>2026-09-24T02:12:25Z</time>
      </trkpt>
      <trkpt lat="34.07464608" lon="134.59179384">
        <ele>49.58</ele>
        <time>2026-09-24T02:12:37Z</time>
      </trkpt>
      <trkpt lat="34.07461276" lon="134.59189765">
        <ele>48.53</ele>
        <time>2026-09-24T02:12:46Z</time>
      </trkpt>
      <trkpt lat="34.07458696" lon="134.59200867">
        <ele>47.75</ele>
        <time>2026-09-24T02:12:55Z</time>
      </trkpt>
      <trkpt lat="34.07455086" lon="134.59210964">
        <ele>47.37</ele>
        <time>2026-09-24T02:13:04Z</time>
      </trkpt>
      <trkpt lat="34.07451869" lon="134.5922154">
        <ele>47.14</ele>
        <time>2026-09-24T02:13:13Z</time>
      </trkpt>
      <trkpt lat="34.07448041" lon="134.59232286">
        <ele>46.75</ele>
        <time>2026-09-24T02:13:23Z</time>
      </trkpt>
      <trkpt lat="34.07444368" lon="134.59242303">
        <ele>46.37</ele>
        <time>2026-09-24T02:13:32Z</time>
      </trkpt>
      <trkpt lat="34.07441068" lon="134.59253269">
        <ele>46.36</ele>
        <time>2026-09-24T02:13:42Z</time>
      </trkpt>
      <trkpt lat="34.07437294" lon="134.59264527">
        <ele>46.68</ele>
        <time>2026-09-24T02:13:52Z</time>
      </trkpt>
      <trkpt lat="34.07433661" lon="134.59274516">
        <ele>46.65</ele>
        <time>2026-09-24T02:14:01Z</time>
      </trkpt>
      <trkpt lat="34.07430288" lon="134.59285088">
        <ele>47.43</ele>
        <time>2026-09-24T02:14:40Z</time>
      </trkpt>
      <trkpt lat="34.0742599" lon="134.5929565">
        <ele>47.82</ele>
        <time>2026-09-24T02:14:49Z</time>
      </trkpt>
      <trkpt lat="34.07422254" lon="134.59305644">
        <ele>48.57</ele>
        <time>2026-09-24T02:14:58Z</time>
      </trkpt>
      <trkpt lat="34.0741953" lon="134.59316148">
        <ele>48.82</ele>
        <time>2026-09-24T02:15:42Z</time>
      </trkpt>
      <trkpt lat="34.07415459" lon="134.59325973">
        <ele>48.5</ele>
        <time>2026-09-24T02:16:11Z</time>
      </trkpt>
      <trkpt lat="34.07412144" lon="134.59336686">
        <ele>49.06</ele>
        <time>2026-09-24T02:16:43Z</time>
      </trkpt>
      <trkpt lat="34.07407432" lon="134.59345998">
        <ele>48.95</ele>
        <time>2026-09-24T02:16:54Z</time>
      </trkpt>
      <trkpt lat="34.07403478" lon="134.59357491">
        <ele>47.31</ele>
        <time>2026-09-24T02:17:29Z</time>
      </trkpt>
      <trkpt lat="34.07399234" lon="134.59367552">
        <ele>47.28</ele>
        <time>2026-09-24T02:17:41Z</time>
      </trkpt>
      <trkpt lat="34.07395677" lon="134.59378098">
        <ele>47.67</ele>
        <time>2026-09-24T02:17:53Z</time>
      </trkpt>
      <trkpt lat="34.07392524" lon="134.59388856">
        <ele>47.21</ele>
        <time>2026-09-24T02:18:07Z</time>
      </trkpt>
      <trkpt lat="34.07389215" lon="134.5939948">
        <ele>47.16</ele>
        <time>2026-09-24T02:18:49Z</time>
      </trkpt>
      <trkpt lat="34.07385435" lon="134.59410075">
        <ele>48.32</ele>
        <time>2026-09-24T02:19:01Z</time>
      </trkpt>
      <trkpt lat="34.0738258" lon="134.59420371">
        <ele>49.43</ele>
        <time>2026-09-24T02:19:22Z</time>
      </trkpt>
      <trkpt lat="34.07379247" lon="134.59430757">
        <ele>49.37</ele>
        <time>2026-09-24T02:19:56Z</time>
      </trkpt>
      <trkpt lat="34.07375055" lon="134.59440595">
        <ele>49.21</ele>
        <time>2026-09-24T02:20:13Z</time>
      </trkpt>
      <trkpt lat="34.0737088" lon="134.594518">
        <ele>48.24</ele>
        <time>2026-09-24T02:21:36Z</time>
      </trkpt>
      <trkpt lat="34.07366307" lon="134.59461663">
        <ele>47.43</ele>
        <time>2026-09-24T02:21:48Z</time>
      </trkpt>
      <trkpt lat="34.07362681" lon="134.59472546">
        <ele>46.89</ele>
        <time>2026-09-24T02:22:00Z</time>
      </trkpt>
      <trkpt lat="34.073589" lon="134.59483176">
        <ele>46.1</ele>
        <time>2026-09-24T02:22:10Z</time>
      </trkpt>
      <trkpt lat="34.07356491" lon="134.59493944">
        <ele>45.49</ele>
        <time>2026-09-24T02:22:21Z</time>
      </trkpt>
      <trkpt lat="34.07352593" lon="134.59504191">
        <ele>44.66</ele>
        <time>2026-09-24T02:22:31Z</time>
      </trkpt>
      <trkpt lat="34.0734855" lon="134.59517424">
        <ele>43.96</ele>
        <time>2026-09-24T02:22:44Z</time>
      </trkpt>
      <trkpt lat="34.07344678" lon="134.59528067">
        <ele>43.94</ele>
        <time>2026-09-24T02:22:55Z</time>
      </trkpt>
      <trkpt lat="34.07340697" lon="134.59538744">
        <ele>44.34</ele>
        <time>2026-09-24T02:23:07Z</time>
      </trkpt>
      <trkpt lat="34.0733718" lon="134.59549021">
        <ele>44.53</ele>
        <time>2026-09-24T02:23:17Z</time>
      </trkpt>
      <trkpt lat="34.07333292" lon="134.59558846">
        <ele>44.13</ele>
        <time>2026-09-24T02:23:32Z</time>
      </trkpt>
      <trkpt lat="34.07329787" lon="134.59569122">
        <ele>46.78</ele>
        <time>2026-09-24T02:24:21Z</time>
      </trkpt>
      <trkpt lat="34.07327276" lon="134.59576191">
        <ele>48.18</ele>
        <time>2026-09-24T02:26:23Z</time>
      </trkpt>
      <trkpt lat="34.07322607" lon="134.5958893">
        <ele>48.1</ele>
        <time>2026-09-24T02:27:00Z</time>
      </trkpt>
      <trkpt lat="34.07318909" lon="134.59599668">
        <ele>48.5</ele>
        <time>2026-09-24T02:27:10Z</time>
      </trkpt>
      <trkpt lat="34.07315185" lon="134.59609952">
        <ele>48.42</ele>
        <time>2026-09-24T02:27:20Z</time>
      </trkpt>
      <trkpt lat="34.07311559" lon="134.59620981">
        <ele>48.74</ele>
        <time>2026-09-24T02:27:31Z</time>
      </trkpt>
      <trkpt lat="34.07307612" lon="134.59630906">
        <ele>49.7</ele>
        <time>2026-09-24T02:27:53Z</time>
      </trkpt>
      <trkpt lat="34.07303193" lon="134.59642587">
        <ele>50.16</ele>
        <time>2026-09-24T02:28:04Z</time>
      </trkpt>
      <trkpt lat="34.07300495" lon="134.59653076">
        <ele>49.93</ele>
        <time>2026-09-24T02:28:27Z</time>
      </trkpt>
      <trkpt lat="34.07296225" lon="134.59662783">
        <ele>48.66</ele>
        <time>2026-09-24T02:28:57Z</time>
      </trkpt>
      <trkpt lat="34.07293759" lon="134.59674262">
        <ele>48.62</ele>
        <time>2026-09-24T02:29:17Z</time>
      </trkpt>
      <trkpt lat="34.07290088" lon="134.59684487">
        <ele>49.32</ele>
        <time>2026-09-24T02:29:26Z</time>
      </trkpt>
      <trkpt lat="34.07286498" lon="134.59695498">
        <ele>49.51</ele>
        <time>2026-09-24T02:29:36Z</time>
      </trkpt>
      <trkpt lat="34.07282673" lon="134.59705903">
        <ele>50.21</ele>
        <time>2026-09-24T02:29:48Z</time>
      </trkpt>
      <trkpt lat="34.07279436" lon="134.5971605">
        <ele>50.05</ele>
        <time>2026-09-24T02:29:57Z</time>
      </trkpt>
      <trkpt lat="34.07274545" lon="134.59728212">
        <ele>49.8</ele>
        <time>2026-09-24T02:30:09Z</time>
      </trkpt>
      <trkpt lat="34.07267193" lon="134.59734487">
        <ele>48.32</ele>
        <time>2026-09-24T02:30:18Z</time>
      </trkpt>
      <trkpt lat="34.07257322" lon="134.5973518">
        <ele>47.6</ele>
        <time>2026-09-24T02:30:28Z</time>
      </trkpt>
      <trkpt lat="34.07248352" lon="134.59737712">
        <ele>47.33</ele>
        <time>2026-09-24T02:30:41Z</time>
      </trkpt>
      <trkpt lat="34.07241506" lon="134.59745173">
        <ele>45.94</ele>
        <time>2026-09-24T02:30:52Z</time>
      </trkpt>
      <trkpt lat="34.07234064" lon="134.59751987">
        <ele>45.85</ele>
        <time>2026-09-24T02:31:03Z</time>
      </trkpt>
      <trkpt lat="34.07226257" lon="134.59758744">
        <ele>45.91</ele>
        <time>2026-09-24T02:31:14Z</time>
      </trkpt>
      <trkpt lat="34.07218418" lon="134.59764342">
        <ele>45.5</ele>
        <time>2026-09-24T02:31:24Z</time>
      </trkpt>
      <trkpt lat="34.07209759" lon="134.59769812">
        <ele>44.85</ele>
        <time>2026-09-24T02:31:35Z</time>
      </trkpt>
      <trkpt lat="34.07201324" lon="134.59775025">
        <ele>44.4</ele>
        <time>2026-09-24T02:31:45Z</time>
      </trkpt>
      <trkpt lat="34.07192896" lon="134.59778997">
        <ele>44.56</ele>
        <time>2026-09-24T02:31:55Z</time>
      </trkpt>
      <trkpt lat="34.07182911" lon="134.59783597">
        <ele>46.13</ele>
        <time>2026-09-24T02:32:06Z</time>
      </trkpt>
      <trkpt lat="34.0717361" lon="134.59785242">
        <ele>48.51</ele>
        <time>2026-09-24T02:32:16Z</time>
      </trkpt>
      <trkpt lat="34.07164606" lon="134.59788468">
        <ele>49.58</ele>
        <time>2026-09-24T02:32:27Z</time>
      </trkpt>
      <trkpt lat="34.07153902" lon="134.5979209">
        <ele>48.21</ele>
        <time>2026-09-24T02:33:38Z</time>
      </trkpt>
      <trkpt lat="34.07144572" lon="134.59794315">
        <ele>49.04</ele>
        <time>2026-09-24T02:33:47Z</time>
      </trkpt>
      <trkpt lat="34.07135257" lon="134.59795572">
        <ele>48.85</ele>
        <time>2026-09-24T02:33:56Z</time>
      </trkpt>
      <trkpt lat="34.07125092" lon="134.59801658">
        <ele>47.28</ele>
        <time>2026-09-24T02:34:06Z</time>
      </trkpt>
      <trkpt lat="34.07115853" lon="134.59803978">
        <ele>47.5</ele>
        <time>2026-09-24T02:34:15Z</time>
      </trkpt>
      <trkpt lat="34.07107155" lon="134.5979943">
        <ele>44.86</ele>
        <time>2026-09-24T02:34:32Z</time>
      </trkpt>
      <trkpt lat="34.07098022" lon="134.597995">
        <ele>44.68</ele>
        <time>2026-09-24T02:34:41Z</time>
      </trkpt>
      <trkpt lat="34.07092197" lon="134.59809069">
        <ele>45.63</ele>
        <time>2026-09-24T02:35:22Z</time>
      </trkpt>
      <trkpt lat="34.07085441" lon="134.59816426">
        <ele>46.31</ele>
        <time>2026-09-24T02:35:32Z</time>
      </trkpt>
      <trkpt lat="34.07077775" lon="134.59823177">
        <ele>45.57</ele>
        <time>2026-09-24T02:35:42Z</time>
      </trkpt>
      <trkpt lat="34.07069758" lon="134.59830723">
        <ele>44.91</ele>
        <time>2026-09-24T02:35:54Z</time>
      </trkpt>
      <trkpt lat="34.07062647" lon="134.59838776">
        <ele>44.5</ele>
        <time>2026-09-24T02:36:05Z</time>
      </trkpt>
      <trkpt lat="34.07055467" lon="134.59846296">
        <ele>44.11</ele>
        <time>2026-09-24T02:36:17Z</time>
      </trkpt>
      <trkpt lat="34.07047679" lon="134.59853375">
        <ele>43.41</ele>
        <time>2026-09-24T02:36:31Z</time>
      </trkpt>
      <trkpt lat="34.07056009" lon="134.59848752">
        <ele>44.57</ele>
        <time>2026-09-24T02:37:16Z</time>
      </trkpt>
      <trkpt lat="34.07062649" lon="134.59840326">
        <ele>45.15</ele>
        <time>2026-09-24T02:37:28Z</time>
      </trkpt>
      <trkpt lat="34.0706956" lon="134.5983295">
        <ele>44.77</ele>
        <time>2026-09-24T02:37:41Z</time>
      </trkpt>
      <trkpt lat="34.07076864" lon="134.59825643">
        <ele>44.11</ele>
        <time>2026-09-24T02:37:53Z</time>
      </trkpt>
      <trkpt lat="34.07085475" lon="134.59820646">
        <ele>43.75</ele>
        <time>2026-09-24T02:38:04Z</time>
      </trkpt>
      <trkpt lat="34.07092591" lon="134.5981388">
        <ele>44.03</ele>
        <time>2026-09-24T02:38:15Z</time>
      </trkpt>
      <trkpt lat="34.07092204" lon="134.5980234">
        <ele>44.95</ele>
        <time>2026-09-24T02:38:33Z</time>
      </trkpt>
      <trkpt lat="34.07101835" lon="134.59799602">
        <ele>43.15</ele>
        <time>2026-09-24T02:39:36Z</time>
      </trkpt>
      <trkpt lat="34.07111195" lon="134.59798658">
        <ele>45.28</ele>
        <time>2026-09-24T02:39:45Z</time>
      </trkpt>
      <trkpt lat="34.07120841" lon="134.59799336">
        <ele>44.72</ele>
        <time>2026-09-24T02:39:57Z</time>
      </trkpt>
      <trkpt lat="34.0713033" lon="134.59797573">
        <ele>45.53</ele>
        <time>2026-09-24T02:40:07Z</time>
      </trkpt>
      <trkpt lat="34.07138875" lon="134.59793269">
        <ele>43.2</ele>
        <time>2026-09-24T02:40:17Z</time>
      </trkpt>
      <trkpt lat="34.07148117" lon="134.59792393">
        <ele>44.32</ele>
        <time>2026-09-24T02:40:27Z</time>
      </trkpt>
      <trkpt lat="34.0715766" lon="134.59790267">
        <ele>46.13</ele>
        <time>2026-09-24T02:41:06Z</time>
      </trkpt>
      <trkpt lat="34.07166454" lon="134.59787775">
        <ele>46.97</ele>
        <time>2026-09-24T02:41:15Z</time>
      </trkpt>
      <trkpt lat="34.07176654" lon="134.59784256">
        <ele>49.84</ele>
        <time>2026-09-24T02:41:26Z</time>
      </trkpt>
      <trkpt lat="34.0718595" lon="134.59781221">
        <ele>50.3</ele>
        <time>2026-09-24T02:41:35Z</time>
      </trkpt>
      <trkpt lat="34.07195877" lon="134.59776564">
        <ele>49.44</ele>
        <time>2026-09-24T02:41:46Z</time>
      </trkpt>
      <trkpt lat="34.07204348" lon="134.59772716">
        <ele>50.11</ele>
        <time>2026-09-24T02:41:55Z</time>
      </trkpt>
      <trkpt lat="34.07212899" lon="134.59767435">
        <ele>48.87</ele>
        <time>2026-09-24T02:42:07Z</time>
      </trkpt>
      <trkpt lat="34.07219834" lon="134.59759759">
        <ele>50.34</ele>
        <time>2026-09-24T02:42:18Z</time>
      </trkpt>
      <trkpt lat="34.07221141" lon="134.59747801">
        <ele>49.89</ele>
        <time>2026-09-24T02:42:32Z</time>
      </trkpt>
      <trkpt lat="34.07216763" lon="134.5973824">
        <ele>49.74</ele>
        <time>2026-09-24T02:42:40Z</time>
      </trkpt>
      <trkpt lat="34.0721046" lon="134.59728992">
        <ele>48.47</ele>
        <time>2026-09-24T02:42:49Z</time>
      </trkpt>
      <trkpt lat="34.07214118" lon="134.59718444">
        <ele>47.87</ele>
        <time>2026-09-24T02:42:59Z</time>
      </trkpt>
      <trkpt lat="34.07221856" lon="134.59712845">
        <ele>46.7</ele>
        <time>2026-09-24T02:43:07Z</time>
      </trkpt>
      <trkpt lat="34.07229966" lon="134.59707429">
        <ele>47.53</ele>
        <time>2026-09-24T02:43:19Z</time>
      </trkpt>
      <trkpt lat="34.07238267" lon="134.59713344">
        <ele>47.16</ele>
        <time>2026-09-24T02:43:34Z</time>
      </trkpt>
      <trkpt lat="34.07246869" lon="134.5970851">
        <ele>47.72</ele>
        <time>2026-09-24T02:43:42Z</time>
      </trkpt>
      <trkpt lat="34.07255972" lon="134.59705473">
        <ele>47.34</ele>
        <time>2026-09-24T02:43:51Z</time>
      </trkpt>
      <trkpt lat="34.07263377" lon="134.59699224">
        <ele>47.53</ele>
        <time>2026-09-24T02:43:59Z</time>
      </trkpt>
      <trkpt lat="34.07271535" lon="134.59692617">
        <ele>48.09</ele>
        <time>2026-09-24T02:44:09Z</time>
      </trkpt>
      <trkpt lat="34.07278827" lon="134.59685854">
        <ele>48.46</ele>
        <time>2026-09-24T02:44:17Z</time>
      </trkpt>
      <trkpt lat="34.0728418" lon="134.59677085">
        <ele>47.93</ele>
        <time>2026-09-24T02:44:26Z</time>
      </trkpt>
      <trkpt lat="34.07292736" lon="134.59673331">
        <ele>48.78</ele>
        <time>2026-09-24T02:44:38Z</time>
      </trkpt>
      <trkpt lat="34.07299654" lon="134.59665789">
        <ele>48.64</ele>
        <time>2026-09-24T02:44:50Z</time>
      </trkpt>
      <trkpt lat="34.07302529" lon="134.59654608">
        <ele>49.97</ele>
        <time>2026-09-24T02:45:02Z</time>
      </trkpt>
      <trkpt lat="34.07304449" lon="134.59643621">
        <ele>52.17</ele>
        <time>2026-09-24T02:45:13Z</time>
      </trkpt>
      <trkpt lat="34.07308815" lon="134.59633028">
        <ele>51.31</ele>
        <time>2026-09-24T02:45:34Z</time>
      </trkpt>
      <trkpt lat="34.07312333" lon="134.59622891">
        <ele>51.15</ele>
        <time>2026-09-24T02:45:46Z</time>
      </trkpt>
      <trkpt lat="34.0731579" lon="134.59612287">
        <ele>49.45</ele>
        <time>2026-09-24T02:45:57Z</time>
      </trkpt>
      <trkpt lat="34.07319206" lon="134.59601429">
        <ele>48.7</ele>
        <time>2026-09-24T02:46:08Z</time>
      </trkpt>
      <trkpt lat="34.07323158" lon="134.59590893">
        <ele>48.95</ele>
        <time>2026-09-24T02:46:19Z</time>
      </trkpt>
      <trkpt lat="34.07327146" lon="134.59580323">
        <ele>48.95</ele>
        <time>2026-09-24T02:46:30Z</time>
      </trkpt>
      <trkpt lat="34.07331439" lon="134.59570081">
        <ele>48.52</ele>
        <time>2026-09-24T02:46:55Z</time>
      </trkpt>
      <trkpt lat="34.07335565" lon="134.59560132">
        <ele>45.45</ele>
        <time>2026-09-24T02:47:10Z</time>
      </trkpt>
      <trkpt lat="34.07339294" lon="134.59549282">
        <ele>46.12</ele>
        <time>2026-09-24T02:47:22Z</time>
      </trkpt>
      <trkpt lat="34.07342616" lon="134.59538808">
        <ele>47.35</ele>
        <time>2026-09-24T02:47:33Z</time>
      </trkpt>
      <trkpt lat="34.07347288" lon="134.59529514">
        <ele>46.54</ele>
        <time>2026-09-24T02:48:02Z</time>
      </trkpt>
      <trkpt lat="34.07349526" lon="134.59517677">
        <ele>47.98</ele>
        <time>2026-09-24T02:48:14Z</time>
      </trkpt>
      <trkpt lat="34.07351755" lon="134.59506375">
        <ele>48.18</ele>
        <time>2026-09-24T02:48:23Z</time>
      </trkpt>
      <trkpt lat="34.07356267" lon="134.59496699">
        <ele>48.41</ele>
        <time>2026-09-24T02:48:32Z</time>
      </trkpt>
      <trkpt lat="34.07359618" lon="134.59485878">
        <ele>48.14</ele>
        <time>2026-09-24T02:48:43Z</time>
      </trkpt>
      <trkpt lat="34.07363485" lon="134.59475212">
        <ele>48.81</ele>
        <time>2026-09-24T02:48:54Z</time>
      </trkpt>
      <trkpt lat="34.073663" lon="134.59464651">
        <ele>48.63</ele>
        <time>2026-09-24T02:49:05Z</time>
      </trkpt>
      <trkpt lat="34.07370319" lon="134.59454407">
        <ele>48.45</ele>
        <time>2026-09-24T02:49:15Z</time>
      </trkpt>
      <trkpt lat="34.07375353" lon="134.59444987">
        <ele>47.14</ele>
        <time>2026-09-24T02:49:29Z</time>
      </trkpt>
      <trkpt lat="34.07378074" lon="134.59434182">
        <ele>47.04</ele>
        <time>2026-09-24T02:49:41Z</time>
      </trkpt>
      <trkpt lat="34.07378423" lon="134.59423291">
        <ele>45.74</ele>
        <time>2026-09-24T02:49:51Z</time>
      </trkpt>
      <trkpt lat="34.07377961" lon="134.59411964">
        <ele>44.44</ele>
        <time>2026-09-24T02:50:02Z</time>
      </trkpt>
      <trkpt lat="34.07380015" lon="134.59400753">
        <ele>45.23</ele>
        <time>2026-09-24T02:50:13Z</time>
      </trkpt>
      <trkpt lat="34.07380129" lon="134.5938905">
        <ele>47.98</ele>
        <time>2026-09-24T02:50:24Z</time>
      </trkpt>
      <trkpt lat="34.07374252" lon="134.59380514">
        <ele>48.6</ele>
        <time>2026-09-24T02:51:15Z</time>
      </trkpt>
      <trkpt lat="34.07365632" lon="134.59374839">
        <ele>48.58</ele>
        <time>2026-09-24T02:51:23Z</time>
      </trkpt>
      <trkpt lat="34.0735936" lon="134.59365541">
        <ele>48.8</ele>
        <time>2026-09-24T02:51:32Z</time>
      </trkpt>
      <trkpt lat="34.07354999" lon="134.59354667">
        <ele>48.68</ele>
        <time>2026-09-24T02:51:41Z</time>
      </trkpt>
      <trkpt lat="34.07347062" lon="134.59349304">
        <ele>49.37</ele>
        <time>2026-09-24T02:51:49Z</time>
      </trkpt>
      <trkpt lat="34.07337514" lon="134.59344101">
        <ele>49.02</ele>
        <time>2026-09-24T02:51:58Z</time>
      </trkpt>
      <trkpt lat="34.07329424" lon="134.59339204">
        <ele>48.54</ele>
        <time>2026-09-24T02:52:06Z</time>
      </trkpt>
      <trkpt lat="34.07319373" lon="134.59333644">
        <ele>48.68</ele>
        <time>2026-09-24T02:52:16Z</time>
      </trkpt>
      <trkpt lat="34.07309883" lon="134.59329416">
        <ele>49.69</ele>
        <time>2026-09-24T02:52:25Z</time>
      </trkpt>
      <trkpt lat="34.07300823" lon="134.5932586">
        <ele>50.09</ele>
        <time>2026-09-24T02:52:33Z</time>
      </trkpt>
      <trkpt lat="34.07291894" lon="134.59320953">
        <ele>49.97</ele>
        <time>2026-09-24T02:52:41Z</time>
      </trkpt>
      <trkpt lat="34.07283518" lon="134.59316321">
        <ele>50</ele>
        <time>2026-09-24T02:52:49Z</time>
      </trkpt>
      <trkpt lat="34.07274751" lon="134.59311081">
        <ele>50.31</ele>
        <time>2026-09-24T02:52:58Z</time>
      </trkpt>
      <trkpt lat="34.07265937" lon="134.59305618">
        <ele>50.36</ele>
        <time>2026-09-24T02:53:07Z</time>
      </trkpt>
      <trkpt lat="34.07257651" lon="134.59300892">
        <ele>49.44</ele>
        <time>2026-09-24T02:53:19Z</time>
      </trkpt>
      <trkpt lat="34.07250797" lon="134.59293232">
        <ele>50.26</ele>
        <time>2026-09-24T02:53:28Z</time>
      </trkpt>
      <trkpt lat="34.07241275" lon="134.59289666">
        <ele>51.5</ele>
        <time>2026-09-24T02:53:38Z</time>
      </trkpt>
      <trkpt lat="34.07233591" lon="134.59283349">
        <ele>50.26</ele>
        <time>2026-09-24T02:53:46Z</time>
      </trkpt>
      <trkpt lat="34.0722516" lon="134.59279102">
        <ele>48.96</ele>
        <time>2026-09-24T02:53:54Z</time>
      </trkpt>
      <trkpt lat="34.07216473" lon="134.59275081">
        <ele>48.53</ele>
        <time>2026-09-24T02:54:02Z</time>
      </trkpt>
      <trkpt lat="34.07208143" lon="134.59270418">
        <ele>48.92</ele>
        <time>2026-09-24T02:54:10Z</time>
      </trkpt>
      <trkpt lat="34.07199425" lon="134.59265127">
        <ele>48.39</ele>
        <time>2026-09-24T02:54:19Z</time>
      </trkpt>
      <trkpt lat="34.07190942" lon="134.59260112">
        <ele>49.59</ele>
        <time>2026-09-24T02:54:27Z</time>
      </trkpt>
      <trkpt lat="34.07182089" lon="134.59255293">
        <ele>50.09</ele>
        <time>2026-09-24T02:54:36Z</time>
      </trkpt>
      <trkpt lat="34.07173278" lon="134.59250247">
        <ele>50.91</ele>
        <time>2026-09-24T02:54:45Z</time>
      </trkpt>
      <trkpt lat="34.07164695" lon="134.59245262">
        <ele>52.62</ele>
        <time>2026-09-24T02:54:54Z</time>
      </trkpt>
      <trkpt lat="34.07155908" lon="134.59239894">
        <ele>52.35</ele>
        <time>2026-09-24T02:55:05Z</time>
      </trkpt>
      <trkpt lat="34.07147254" lon="134.59235144">
        <ele>52.28</ele>
        <time>2026-09-24T02:55:15Z</time>
      </trkpt>
      <trkpt lat="34.07138649" lon="134.59230393">
        <ele>51.95</ele>
        <time>2026-09-24T02:55:24Z</time>
      </trkpt>
      <trkpt lat="34.07129594" lon="134.59226274">
        <ele>51.03</ele>
        <time>2026-09-24T02:55:34Z</time>
      </trkpt>
      <trkpt lat="34.07119876" lon="134.59223002">
        <ele>50.56</ele>
        <time>2026-09-24T02:55:44Z</time>
      </trkpt>
      <trkpt lat="34.07110838" lon="134.59218102">
        <ele>51.4</ele>
        <time>2026-09-24T02:55:53Z</time>
      </trkpt>
      <trkpt lat="34.07102562" lon="134.59213267">
        <ele>50.62</ele>
        <time>2026-09-24T02:56:02Z</time>
      </trkpt>
      <trkpt lat="34.07094382" lon="134.59207752">
        <ele>48.59</ele>
        <time>2026-09-24T02:56:12Z</time>
      </trkpt>
      <trkpt lat="34.07085707" lon="134.59203214">
        <ele>48.99</ele>
        <time>2026-09-24T02:56:21Z</time>
      </trkpt>
      <trkpt lat="34.07076428" lon="134.59198115">
        <ele>49.89</ele>
        <time>2026-09-24T02:56:30Z</time>
      </trkpt>
      <trkpt lat="34.07067617" lon="134.59194683">
        <ele>51.31</ele>
        <time>2026-09-24T02:56:38Z</time>
      </trkpt>
      <trkpt lat="34.07058939" lon="134.59190633">
        <ele>51.14</ele>
        <time>2026-09-24T02:56:47Z</time>
      </trkpt>
      <trkpt lat="34.07050746" lon="134.59185272">
        <ele>51.7</ele>
        <time>2026-09-24T02:56:58Z</time>
      </trkpt>
      <trkpt lat="34.07042102" lon="134.59181106">
        <ele>50.49</ele>
        <time>2026-09-24T02:57:07Z</time>
      </trkpt>
      <trkpt lat="34.07033317" lon="134.59175874">
        <ele>52.35</ele>
        <time>2026-09-24T02:57:16Z</time>
      </trkpt>
      <trkpt lat="34.07024993" lon="134.59171538">
        <ele>49.06</ele>
        <time>2026-09-24T02:57:25Z</time>
      </trkpt>
      <trkpt lat="34.07017053" lon="134.5916547">
        <ele>48.49</ele>
        <time>2026-09-24T02:57:35Z</time>
      </trkpt>
      <trkpt lat="34.07007955" lon="134.59161137">
        <ele>48.36</ele>
        <time>2026-09-24T02:57:44Z</time>
      </trkpt>
      <trkpt lat="34.07000944" lon="134.59154259">
        <ele>46.46</ele>
        <time>2026-09-24T02:58:01Z</time>
      </trkpt>
      <trkpt lat="34.0700446" lon="134.5914425">
        <ele>46.51</ele>
        <time>2026-09-24T02:58:09Z</time>
      </trkpt>
      <trkpt lat="34.07006773" lon="134.5913309">
        <ele>48.21</ele>
        <time>2026-09-24T02:58:17Z</time>
      </trkpt>
      <trkpt lat="34.07010903" lon="134.59123434">
        <ele>46.34</ele>
        <time>2026-09-24T02:58:27Z</time>
      </trkpt>
      <trkpt lat="34.07014715" lon="134.59112562">
        <ele>44.73</ele>
        <time>2026-09-24T02:58:36Z</time>
      </trkpt>
      <trkpt lat="34.07017084" lon="134.5910188">
        <ele>47.25</ele>
        <time>2026-09-24T02:58:44Z</time>
      </trkpt>
      <trkpt lat="34.0702015" lon="134.59090391">
        <ele>47.48</ele>
        <time>2026-09-24T02:58:52Z</time>
      </trkpt>
      <trkpt lat="34.07020113" lon="134.59079362">
        <ele>48.2</ele>
        <time>2026-09-24T02:59:12Z</time>
      </trkpt>
      <trkpt lat="34.07011133" lon="134.59075994">
        <ele>48.47</ele>
        <time>2026-09-24T02:59:21Z</time>
      </trkpt>
    </trkseg>
  </trk>
</gpx>