<?xml version='1.0' encoding='UTF-8' standalone='yes' ?>
<gpx xmlns="http://www.topografix.com/GPX/1/1" xmlns:geotracker="http://ilyabogdanovich.com/gpx/extensions/geotracker" xmlns:xsi="http://www.w3.org/2001/XMLSchema-instance" xsi:schemaLocation="http://www.topografix.com/GPX/1/1 http://www.topografix.com/GPX/1/1/gpx.xsd" version="1.1" creator="Recorded in Geo Tracker for Android from Ilya Bogdanovich">
  <metadata>
    <name>2026/09/18 10:14:28</name>
    <author>
      <name>Recorded in Geo Tracker for Android from Ilya Bogdanovich</name>
      <link href="https://play.google.com/store/apps/details?id=com.ilyabogdanovich.geotracker" />
    </author>
    <link href="https://play.google.com/store/apps/details?id=com.ilyabogdanovich.geotracker" />
    <time>2026-09-18T01:14:28Z</time>
  </metadata>
  <wpt lat="34.74346615" lon="135.17905688">
    <ele>496.7</ele>
    <time>2026-09-18T01:24:14Z</time>
    <name>Stop for ~3 min</name>
    <desc>Elevation: 497 m
Time from start: 00:09:45
Distance from start: 391 m</desc>
    <extensions>
      <geotracker:meta emoji="$23F1$FE0F" />
    </extensions>
  </wpt>
  <wpt lat="34.73751218" lon="135.1825384">
    <ele>464.35</ele>
    <time>2026-09-18T02:10:15Z</time>
    <name>Stop for ~7 min</name>
    <desc>Elevation: 464 m
Time from start: 00:55:46
Distance from start: 2.07 km</desc>
    <extensions>
      <geotracker:meta emoji="$23F1$FE0F" />
    </extensions>
  </wpt>
  <wpt lat="34.73594764" lon="135.17462804">
    <ele>475.63</ele>
    <time>2026-09-18T03:13:08Z</time>
    <name>Stop for ~13 min</name>
    <desc>Elevation: 476 m
Time from start: 01:58:39
Distance from start: 3.75 km</desc>
    <extensions>
      <geotracker:meta emoji="$23F1$FE0F" />
    </extensions>
  </wpt>
  <wpt lat="34.73912784" lon="135.17845857">
    <ele>469.27</ele>
    <time>2026-09-18T03:47:30Z</time>
    <name>Stop for ~5 min</name>
    <desc>Elevation: 469 m
Time from start: 02:33:01
Distance from start: 4.51 km</desc>
    <extensions>
      <geotracker:meta emoji="$23F1$FE0F" />
    </extensions>
  </wpt>
  <wpt lat="34.73933387" lon="135.17879682">
    <ele>488.88</ele>
    <time>2026-09-18T04:17:35Z</time>
    <name>Stop for ~3 min</name>
    <desc>Elevation: 489 m
Time from start: 03:03:06
Distance from start: 4.67 km</desc>
    <extensions>
      <geotracker:meta emoji="$23F1$FE0F" />
    </extensions>
  </wpt>
  <wpt lat="34.74062463" lon="135.17792916">
    <ele>489.39</ele>
    <time>2026-09-18T04:28:41Z</time>
    <name>Stop for ~5 min</name>
    <desc>Elevation: 489 m
Time from start: 03:14:12
Distance from start: 4.93 km</desc>
    <extensions>
      <geotracker:meta emoji="$23F1$FE0F" />
    </extensions>
  </wpt>
  <wpt lat="34.74191869" lon="135.17702333">
    <ele>480.18</ele>
    <time>2026-09-18T04:45:40Z</time>
    <name>Stop for ~5 min</name>
    <desc>Elevation: 480 m
Time from start: 03:31:11
Distance from start: 5.19 km</desc>
    <extensions>
      <geotracker:meta emoji="$23F1$FE0F" />
    </extensions>
  </wpt>
  <trk>
    <name>2026/09/18 10:14:28</name>
    <src>Recorded in Geo Tracker for Android from Ilya Bogdanovich</src>
    <link href="https://play.google.com/store/apps/details?id=com.ilyabogdanovich.geotracker" />
    <extensions>
      <geotracker:meta>
        <geotracker:length>8606.38</geotracker:length>
        <geotracker:duration>13743750</geotracker:duration>
        <geotracker:creationtime>2026-09-18T01:14:28Z</geotracker:creationtime>
        <geotracker:activity>0</geotracker:activity>
      </geotracker:meta>
    </extensions>
    <trkseg>
      <trkpt lat="34.74212493" lon="135.17700456">
        <ele>479.77</ele>
        <time>2026-09-18T01:14:39Z</time>
      </trkpt>
      <trkpt lat="34.74209206" lon="135.17711562">
        <ele>484.77</ele>
        <time>2026-09-18T01:14:47Z</time>
      </trkpt>
      <trkpt lat="34.74209345" lon="135.17725001">
        <ele>485.9</ele>
        <time>2026-09-18T01:14:57Z</time>
      </trkpt>
      <trkpt lat="34.74213851" lon="135.17736879">
        <ele>485.14</ele>
        <time>2026-09-18T01:15:08Z</time>
      </trkpt>
      <trkpt lat="34.74222612" lon="135.17739782">
        <ele>482.41</ele>
        <time>2026-09-18T01:16:16Z</time>
      </trkpt>
      <trkpt lat="34.74228061" lon="135.1775075">
        <ele>479.42</ele>
        <time>2026-09-18T01:16:36Z</time>
      </trkpt>
      <trkpt lat="34.74239102" lon="135.17753515">
        <ele>479.57</ele>
        <time>2026-09-18T01:16:51Z</time>
      </trkpt>
      <trkpt lat="34.7424844" lon="135.17759043">
        <ele>476.77</ele>
        <time>2026-09-18T01:17:03Z</time>
      </trkpt>
      <trkpt lat="34.7425803" lon="135.17761888">
        <ele>477.83</ele>
        <time>2026-09-18T01:17:15Z</time>
      </trkpt>
      <trkpt lat="34.74267277" lon="135.17764068">
        <ele>478.88</ele>
        <time>2026-09-18T01:17:26Z</time>
      </trkpt>
      <trkpt lat="34.74277287" lon="135.17765327">
        <ele>479.58</ele>
        <time>2026-09-18T01:17:37Z</time>
      </trkpt>
      <trkpt lat="34.74286543" lon="135.17764989">
        <ele>479.66</ele>
        <time>2026-09-18T01:17:47Z</time>
      </trkpt>
      <trkpt lat="34.74295843" lon="135.1776422">
        <ele>479.84</ele>
        <time>2026-09-18T01:17:57Z</time>
      </trkpt>
      <trkpt lat="34.74305026" lon="135.17763787">
        <ele>479.27</ele>
        <time>2026-09-18T01:18:07Z</time>
      </trkpt>
      <trkpt lat="34.74314472" lon="135.1776225">
        <ele>478.26</ele>
        <time>2026-09-18T01:18:18Z</time>
      </trkpt>
      <trkpt lat="34.74323515" lon="135.17761338">
        <ele>477.56</ele>
        <time>2026-09-18T01:18:28Z</time>
      </trkpt>
      <trkpt lat="34.74332855" lon="135.17761327">
        <ele>476.48</ele>
        <time>2026-09-18T01:18:38Z</time>
      </trkpt>
      <trkpt lat="34.74342474" lon="135.17759801">
        <ele>478.7</ele>
        <time>2026-09-18T01:18:48Z</time>
      </trkpt>
      <trkpt lat="34.74351894" lon="135.17758745">
        <ele>481.64</ele>
        <time>2026-09-18T01:18:58Z</time>
      </trkpt>
      <trkpt lat="34.74360968" lon="135.17758877">
        <ele>483.64</ele>
        <time>2026-09-18T01:19:09Z</time>
      </trkpt>
      <trkpt lat="34.74359752" lon="135.17769804">
        <ele>485.34</ele>
        <time>2026-09-18T01:19:29Z</time>
      </trkpt>
      <trkpt lat="34.74353255" lon="135.1777844">
        <ele>486.01</ele>
        <time>2026-09-18T01:19:40Z</time>
      </trkpt>
      <trkpt lat="34.74345227" lon="135.17785204">
        <ele>485.31</ele>
        <time>2026-09-18T01:19:51Z</time>
      </trkpt>
      <trkpt lat="34.74338775" lon="135.1779341">
        <ele>485.74</ele>
        <time>2026-09-18T01:20:00Z</time>
      </trkpt>
      <trkpt lat="34.7433193" lon="135.17803396">
        <ele>485.8</ele>
        <time>2026-09-18T01:20:11Z</time>
      </trkpt>
      <trkpt lat="34.74326331" lon="135.17812067">
        <ele>487.47</ele>
        <time>2026-09-18T01:20:21Z</time>
      </trkpt>
      <trkpt lat="34.74331215" lon="135.17821774">
        <ele>487.09</ele>
        <time>2026-09-18T01:20:34Z</time>
      </trkpt>
      <trkpt lat="34.74339333" lon="135.17826623">
        <ele>486.8</ele>
        <time>2026-09-18T01:20:44Z</time>
      </trkpt>
      <trkpt lat="34.7434747" lon="135.17833157">
        <ele>487.05</ele>
        <time>2026-09-18T01:20:54Z</time>
      </trkpt>
      <trkpt lat="34.74354381" lon="135.17840734">
        <ele>487.23</ele>
        <time>2026-09-18T01:21:03Z</time>
      </trkpt>
      <trkpt lat="34.74360518" lon="135.17850132">
        <ele>485.99</ele>
        <time>2026-09-18T01:21:41Z</time>
      </trkpt>
      <trkpt lat="34.74364881" lon="135.17860515">
        <ele>486.99</ele>
        <time>2026-09-18T01:21:51Z</time>
      </trkpt>
      <trkpt lat="34.74360809" lon="135.17870841">
        <ele>490.89</ele>
        <time>2026-09-18T01:22:04Z</time>
      </trkpt>
      <trkpt lat="34.74351774" lon="135.17874425">
        <ele>491.49</ele>
        <time>2026-09-18T01:22:18Z</time>
      </trkpt>
      <trkpt lat="34.74344258" lon="135.17881066">
        <ele>492.5</ele>
        <time>2026-09-18T01:22:39Z</time>
      </trkpt>
      <trkpt lat="34.7433963" lon="135.17890986">
        <ele>495.37</ele>
        <time>2026-09-18T01:23:15Z</time>
      </trkpt>
      <trkpt lat="34.74346615" lon="135.17905688">
        <ele>496.7</ele>
        <time>2026-09-18T01:24:14Z</time>
      </trkpt>
      <trkpt lat="34.74355578" lon="135.17915678">
        <ele>495.38</ele>
        <time>2026-09-18T01:26:25Z</time>
      </trkpt>
      <trkpt lat="34.74364063" lon="135.17919933">
        <ele>497.09</ele>
        <time>2026-09-18T01:27:55Z</time>
      </trkpt>
      <trkpt lat="34.74364373" lon="135.17931163">
        <ele>497.46</ele>
        <time>2026-09-18T01:29:23Z</time>
      </trkpt>
      <trkpt lat="34.74357065" lon="135.1793897">
        <ele>497.26</ele>
        <time>2026-09-18T01:29:50Z</time>
      </trkpt>
      <trkpt lat="34.74350426" lon="135.17947534">
        <ele>498.18</ele>
        <time>2026-09-18T01:30:03Z</time>
      </trkpt>
      <trkpt lat="34.74342833" lon="135.17954994">
        <ele>498.42</ele>
        <time>2026-09-18T01:30:14Z</time>
      </trkpt>
      <trkpt lat="34.74336483" lon="135.17963579">
        <ele>498.07</ele>
        <time>2026-09-18T01:30:26Z</time>
      </trkpt>
      <trkpt lat="34.74330765" lon="135.1797212">
        <ele>498.21</ele>
        <time>2026-09-18T01:30:37Z</time>
      </trkpt>
      <trkpt lat="34.74324795" lon="135.17981284">
        <ele>498.2</ele>
        <time>2026-09-18T01:30:50Z</time>
      </trkpt>
      <trkpt lat="34.74320824" lon="135.1799175">
        <ele>499.71</ele>
        <time>2026-09-18T01:31:18Z</time>
      </trkpt>
      <trkpt lat="34.74318502" lon="135.18002837">
        <ele>498.66</ele>
        <time>2026-09-18T01:31:58Z</time>
      </trkpt>
      <trkpt lat="34.74313986" lon="135.18013776">
        <ele>498.02</ele>
        <time>2026-09-18T01:32:10Z</time>
      </trkpt>
      <trkpt lat="34.74311773" lon="135.18025036">
        <ele>499.58</ele>
        <time>2026-09-18T01:32:20Z</time>
      </trkpt>
      <trkpt lat="34.74309257" lon="135.18035544">
        <ele>501.41</ele>
        <time>2026-09-18T01:32:31Z</time>
      </trkpt>
      <trkpt lat="34.74305748" lon="135.18047478">
        <ele>502</ele>
        <time>2026-09-18T01:32:44Z</time>
      </trkpt>
      <trkpt lat="34.74299429" lon="135.18055331">
        <ele>502.21</ele>
        <time>2026-09-18T01:32:55Z</time>
      </trkpt>
      <trkpt lat="34.74293618" lon="135.18063945">
        <ele>502.98</ele>
        <time>2026-09-18T01:33:05Z</time>
      </trkpt>
      <trkpt lat="34.74286182" lon="135.18072406">
        <ele>503.52</ele>
        <time>2026-09-18T01:33:16Z</time>
      </trkpt>
      <trkpt lat="34.74280536" lon="135.18081006">
        <ele>504.68</ele>
        <time>2026-09-18T01:33:26Z</time>
      </trkpt>
      <trkpt lat="34.74275295" lon="135.18090078">
        <ele>506.14</ele>
        <time>2026-09-18T01:33:40Z</time>
      </trkpt>
      <trkpt lat="34.74270815" lon="135.18099803">
        <ele>506.65</ele>
        <time>2026-09-18T01:33:51Z</time>
      </trkpt>
      <trkpt lat="34.74263771" lon="135.18106937">
        <ele>503.08</ele>
        <time>2026-09-18T01:34:03Z</time>
      </trkpt>
      <trkpt lat="34.74253212" lon="135.18111325">
        <ele>494.86</ele>
        <time>2026-09-18T01:34:17Z</time>
      </trkpt>
      <trkpt lat="34.74243446" lon="135.18113148">
        <ele>492.05</ele>
        <time>2026-09-18T01:34:28Z</time>
      </trkpt>
      <trkpt lat="34.74233801" lon="135.18113657">
        <ele>493.65</ele>
        <time>2026-09-18T01:34:37Z</time>
      </trkpt>
      <trkpt lat="34.74224467" lon="135.18110714">
        <ele>492.26</ele>
        <time>2026-09-18T01:34:47Z</time>
      </trkpt>
      <trkpt lat="34.74216809" lon="135.18104807">
        <ele>493.03</ele>
        <time>2026-09-18T01:34:57Z</time>
      </trkpt>
      <trkpt lat="34.74209981" lon="135.1809585">
        <ele>492.71</ele>
        <time>2026-09-18T01:35:07Z</time>
      </trkpt>
      <trkpt lat="34.7420481" lon="135.18083735">
        <ele>492.25</ele>
        <time>2026-09-18T01:35:19Z</time>
      </trkpt>
      <trkpt lat="34.74204545" lon="135.18071811">
        <ele>491.28</ele>
        <time>2026-09-18T01:35:31Z</time>
      </trkpt>
      <trkpt lat="34.742047" lon="135.18060797">
        <ele>490.99</ele>
        <time>2026-09-18T01:35:42Z</time>
      </trkpt>
      <trkpt lat="34.74202773" lon="135.18049521">
        <ele>490</ele>
        <time>2026-09-18T01:35:53Z</time>
      </trkpt>
      <trkpt lat="34.74201268" lon="135.18037738">
        <ele>491.58</ele>
        <time>2026-09-18T01:36:05Z</time>
      </trkpt>
      <trkpt lat="34.7419935" lon="135.1802685">
        <ele>492.35</ele>
        <time>2026-09-18T01:36:15Z</time>
      </trkpt>
      <trkpt lat="34.74197564" lon="135.18015902">
        <ele>492.85</ele>
        <time>2026-09-18T01:36:25Z</time>
      </trkpt>
      <trkpt lat="34.74196282" lon="135.18004929">
        <ele>492.74</ele>
        <time>2026-09-18T01:36:36Z</time>
      </trkpt>
      <trkpt lat="34.74195469" lon="135.17992579">
        <ele>491.89</ele>
        <time>2026-09-18T01:36:46Z</time>
      </trkpt>
      <trkpt lat="34.74195044" lon="135.17980615">
        <ele>492.39</ele>
        <time>2026-09-18T01:36:57Z</time>
      </trkpt>
      <trkpt lat="34.74196807" lon="135.17969355">
        <ele>494.02</ele>
        <time>2026-09-18T01:37:07Z</time>
      </trkpt>
      <trkpt lat="34.74196301" lon="135.17957644">
        <ele>493.69</ele>
        <time>2026-09-18T01:37:19Z</time>
      </trkpt>
      <trkpt lat="34.74197394" lon="135.17946563">
        <ele>492.75</ele>
        <time>2026-09-18T01:37:29Z</time>
      </trkpt>
      <trkpt lat="34.74199503" lon="135.17935404">
        <ele>491.19</ele>
        <time>2026-09-18T01:37:40Z</time>
      </trkpt>
      <trkpt lat="34.74200101" lon="135.17924461">
        <ele>492.06</ele>
        <time>2026-09-18T01:37:50Z</time>
      </trkpt>
      <trkpt lat="34.742014" lon="135.1791248">
        <ele>490.79</ele>
        <time>2026-09-18T01:38:02Z</time>
      </trkpt>
      <trkpt lat="34.74203044" lon="135.1790113">
        <ele>491.88</ele>
        <time>2026-09-18T01:38:11Z</time>
      </trkpt>
      <trkpt lat="34.74205158" lon="135.17889467">
        <ele>491.5</ele>
        <time>2026-09-18T01:38:22Z</time>
      </trkpt>
      <trkpt lat="34.74208093" lon="135.17878513">
        <ele>491.71</ele>
        <time>2026-09-18T01:38:34Z</time>
      </trkpt>
      <trkpt lat="34.7421209" lon="135.17868713">
        <ele>487.77</ele>
        <time>2026-09-18T01:38:46Z</time>
      </trkpt>
      <trkpt lat="34.74214734" lon="135.17857857">
        <ele>485.99</ele>
        <time>2026-09-18T01:38:56Z</time>
      </trkpt>
      <trkpt lat="34.74220099" lon="135.17848486">
        <ele>486.71</ele>
        <time>2026-09-18T01:39:06Z</time>
      </trkpt>
      <trkpt lat="34.74225845" lon="135.17837272">
        <ele>487.7</ele>
        <time>2026-09-18T01:39:17Z</time>
      </trkpt>
      <trkpt lat="34.74230576" lon="135.17827406">
        <ele>487.23</ele>
        <time>2026-09-18T01:39:27Z</time>
      </trkpt>
      <trkpt lat="34.74235565" lon="135.17817597">
        <ele>486.99</ele>
        <time>2026-09-18T01:39:38Z</time>
      </trkpt>
      <trkpt lat="34.74239294" lon="135.17806952">
        <ele>486.71</ele>
        <time>2026-09-18T01:39:49Z</time>
      </trkpt>
      <trkpt lat="34.74232285" lon="135.1779771">
        <ele>484.01</ele>
        <time>2026-09-18T01:40:01Z</time>
      </trkpt>
      <trkpt lat="34.74225899" lon="135.17789105">
        <ele>483.75</ele>
        <time>2026-09-18T01:40:12Z</time>
      </trkpt>
      <trkpt lat="34.74219197" lon="135.17779522">
        <ele>483.43</ele>
        <time>2026-09-18T01:40:23Z</time>
      </trkpt>
      <trkpt lat="34.74212882" lon="135.17770527">
        <ele>482.05</ele>
        <time>2026-09-18T01:40:34Z</time>
      </trkpt>
      <trkpt lat="34.7420662" lon="135.17761686">
        <ele>481.71</ele>
        <time>2026-09-18T01:40:45Z</time>
      </trkpt>
      <trkpt lat="34.74201268" lon="135.17752781">
        <ele>480.45</ele>
        <time>2026-09-18T01:40:55Z</time>
      </trkpt>
      <trkpt lat="34.74195315" lon="135.17743009">
        <ele>479.99</ele>
        <time>2026-09-18T01:41:05Z</time>
      </trkpt>
      <trkpt lat="34.74189572" lon="135.17733998">
        <ele>479.55</ele>
        <time>2026-09-18T01:41:15Z</time>
      </trkpt>
      <trkpt lat="34.74183755" lon="135.17725307">
        <ele>478.39</ele>
        <time>2026-09-18T01:41:25Z</time>
      </trkpt>
      <trkpt lat="34.74175325" lon="135.17720064">
        <ele>476.41</ele>
        <time>2026-09-18T01:41:36Z</time>
      </trkpt>
      <trkpt lat="34.74168172" lon="135.17727474">
        <ele>475.44</ele>
        <time>2026-09-18T01:41:48Z</time>
      </trkpt>
      <trkpt lat="34.74162553" lon="135.17737044">
        <ele>477.34</ele>
        <time>2026-09-18T01:41:59Z</time>
      </trkpt>
      <trkpt lat="34.74153401" lon="135.17740499">
        <ele>476.46</ele>
        <time>2026-09-18T01:42:19Z</time>
      </trkpt>
      <trkpt lat="34.74145224" lon="135.17746691">
        <ele>475.3</ele>
        <time>2026-09-18T01:42:29Z</time>
      </trkpt>
      <trkpt lat="34.74137546" lon="135.17754185">
        <ele>473.18</ele>
        <time>2026-09-18T01:42:39Z</time>
      </trkpt>
      <trkpt lat="34.74132307" lon="135.17764362">
        <ele>471.67</ele>
        <time>2026-09-18T01:42:51Z</time>
      </trkpt>
      <trkpt lat="34.74126621" lon="135.17773501">
        <ele>469.02</ele>
        <time>2026-09-18T01:43:00Z</time>
      </trkpt>
      <trkpt lat="34.74116631" lon="135.17775047">
        <ele>469.29</ele>
        <time>2026-09-18T01:43:08Z</time>
      </trkpt>
      <trkpt lat="34.7410736" lon="135.1777749">
        <ele>473.26</ele>
        <time>2026-09-18T01:43:15Z</time>
      </trkpt>
      <trkpt lat="34.74098286" lon="135.17780463">
        <ele>471.98</ele>
        <time>2026-09-18T01:43:24Z</time>
      </trkpt>
      <trkpt lat="34.74089567" lon="135.17785015">
        <ele>472.08</ele>
        <time>2026-09-18T01:43:34Z</time>
      </trkpt>
      <trkpt lat="34.74080732" lon="135.17788443">
        <ele>471.54</ele>
        <time>2026-09-18T01:43:44Z</time>
      </trkpt>
      <trkpt lat="34.74071266" lon="135.17784561">
        <ele>471.57</ele>
        <time>2026-09-18T01:43:54Z</time>
      </trkpt>
      <trkpt lat="34.74062667" lon="135.17780727">
        <ele>475.99</ele>
        <time>2026-09-18T01:44:06Z</time>
      </trkpt>
      <trkpt lat="34.74053127" lon="135.17776795">
        <ele>475.94</ele>
        <time>2026-09-18T01:44:18Z</time>
      </trkpt>
      <trkpt lat="34.74044458" lon="135.17772927">
        <ele>474.93</ele>
        <time>2026-09-18T01:44:31Z</time>
      </trkpt>
      <trkpt lat="34.74035125" lon="135.17770671">
        <ele>475.46</ele>
        <time>2026-09-18T01:44:41Z</time>
      </trkpt>
      <trkpt lat="34.74026209" lon="135.17773493">
        <ele>476.11</ele>
        <time>2026-09-18T01:44:54Z</time>
      </trkpt>
      <trkpt lat="34.74017256" lon="135.17774895">
        <ele>476.56</ele>
        <time>2026-09-18T01:45:04Z</time>
      </trkpt>
      <trkpt lat="34.74007909" lon="135.17774511">
        <ele>477.31</ele>
        <time>2026-09-18T01:45:14Z</time>
      </trkpt>
      <trkpt lat="34.73997816" lon="135.1777432">
        <ele>476.13</ele>
        <time>2026-09-18T01:45:27Z</time>
      </trkpt>
      <trkpt lat="34.73988864" lon="135.17778332">
        <ele>472.85</ele>
        <time>2026-09-18T01:45:39Z</time>
      </trkpt>
      <trkpt lat="34.73979597" lon="135.17777549">
        <ele>472.39</ele>
        <time>2026-09-18T01:45:50Z</time>
      </trkpt>
      <trkpt lat="34.73969792" lon="135.1777803">
        <ele>471.4</ele>
        <time>2026-09-18T01:46:02Z</time>
      </trkpt>
      <trkpt lat="34.73960704" lon="135.17781295">
        <ele>468.05</ele>
        <time>2026-09-18T01:46:12Z</time>
      </trkpt>
      <trkpt lat="34.73952331" lon="135.17787018">
        <ele>469.38</ele>
        <time>2026-09-18T01:46:24Z</time>
      </trkpt>
      <trkpt lat="34.73944726" lon="135.17792894">
        <ele>469.69</ele>
        <time>2026-09-18T01:46:34Z</time>
      </trkpt>
      <trkpt lat="34.73936118" lon="135.17797875">
        <ele>465.62</ele>
        <time>2026-09-18T01:46:50Z</time>
      </trkpt>
      <trkpt lat="34.73929475" lon="135.17806287">
        <ele>464.4</ele>
        <time>2026-09-18T01:47:03Z</time>
      </trkpt>
      <trkpt lat="34.73924708" lon="135.17816246">
        <ele>463.07</ele>
        <time>2026-09-18T01:47:15Z</time>
      </trkpt>
      <trkpt lat="34.73920321" lon="135.17828963">
        <ele>461.45</ele>
        <time>2026-09-18T01:47:26Z</time>
      </trkpt>
      <trkpt lat="34.73916236" lon="135.17839115">
        <ele>460.38</ele>
        <time>2026-09-18T01:47:36Z</time>
      </trkpt>
      <trkpt lat="34.73909613" lon="135.17846526">
        <ele>462.19</ele>
        <time>2026-09-18T01:47:47Z</time>
      </trkpt>
      <trkpt lat="34.73901087" lon="135.17851055">
        <ele>464.14</ele>
        <time>2026-09-18T01:47:57Z</time>
      </trkpt>
      <trkpt lat="34.7389271" lon="135.17855318">
        <ele>464.13</ele>
        <time>2026-09-18T01:48:07Z</time>
      </trkpt>
      <trkpt lat="34.73883785" lon="135.17858179">
        <ele>463.48</ele>
        <time>2026-09-18T01:48:17Z</time>
      </trkpt>
      <trkpt lat="34.73874625" lon="135.17861376">
        <ele>463.95</ele>
        <time>2026-09-18T01:48:32Z</time>
      </trkpt>
      <trkpt lat="34.7386485" lon="135.17866201">
        <ele>462.88</ele>
        <time>2026-09-18T01:48:46Z</time>
      </trkpt>
      <trkpt lat="34.73856215" lon="135.17869554">
        <ele>462.64</ele>
        <time>2026-09-18T01:49:03Z</time>
      </trkpt>
      <trkpt lat="34.73848175" lon="135.17874986">
        <ele>461.47</ele>
        <time>2026-09-18T01:49:34Z</time>
      </trkpt>
      <trkpt lat="34.73839263" lon="135.17877341">
        <ele>464.31</ele>
        <time>2026-09-18T01:49:47Z</time>
      </trkpt>
      <trkpt lat="34.73830236" lon="135.17879423">
        <ele>463.9</ele>
        <time>2026-09-18T01:49:58Z</time>
      </trkpt>
      <trkpt lat="34.73827668" lon="135.17876255">
        <ele>461.83</ele>
        <time>2026-09-18T01:51:59Z</time>
      </trkpt>
      <trkpt lat="34.7382709" lon="135.17887234">
        <ele>463.37</ele>
        <time>2026-09-18T01:53:01Z</time>
      </trkpt>
      <trkpt lat="34.73826655" lon="135.17900986">
        <ele>462.46</ele>
        <time>2026-09-18T01:53:12Z</time>
      </trkpt>
      <trkpt lat="34.73824059" lon="135.17911473">
        <ele>463.7</ele>
        <time>2026-09-18T01:53:22Z</time>
      </trkpt>
      <trkpt lat="34.73821249" lon="135.17922084">
        <ele>461.77</ele>
        <time>2026-09-18T01:53:33Z</time>
      </trkpt>
      <trkpt lat="34.73814939" lon="135.17931465">
        <ele>461.72</ele>
        <time>2026-09-18T01:53:50Z</time>
      </trkpt>
      <trkpt lat="34.7380898" lon="135.17940153">
        <ele>465.6</ele>
        <time>2026-09-18T01:53:58Z</time>
      </trkpt>
      <trkpt lat="34.73801287" lon="135.17946549">
        <ele>464.87</ele>
        <time>2026-09-18T01:54:20Z</time>
      </trkpt>
      <trkpt lat="34.73793553" lon="135.17953308">
        <ele>465.53</ele>
        <time>2026-09-18T01:54:40Z</time>
      </trkpt>
      <trkpt lat="34.73784908" lon="135.17957992">
        <ele>460.33</ele>
        <time>2026-09-18T01:54:58Z</time>
      </trkpt>
      <trkpt lat="34.73775684" lon="135.17956307">
        <ele>459.89</ele>
        <time>2026-09-18T01:56:13Z</time>
      </trkpt>
      <trkpt lat="34.73766429" lon="135.17951368">
        <ele>460.51</ele>
        <time>2026-09-18T01:56:25Z</time>
      </trkpt>
      <trkpt lat="34.73762623" lon="135.17940836">
        <ele>462.88</ele>
        <time>2026-09-18T01:56:44Z</time>
      </trkpt>
      <trkpt lat="34.73753677" lon="135.17939478">
        <ele>465.07</ele>
        <time>2026-09-18T01:57:41Z</time>
      </trkpt>
      <trkpt lat="34.73744633" lon="135.17935741">
        <ele>464.12</ele>
        <time>2026-09-18T01:57:51Z</time>
      </trkpt>
      <trkpt lat="34.73736401" lon="135.17930854">
        <ele>464.2</ele>
        <time>2026-09-18T01:58:00Z</time>
      </trkpt>
      <trkpt lat="34.73727183" lon="135.17927625">
        <ele>467.97</ele>
        <time>2026-09-18T01:58:09Z</time>
      </trkpt>
      <trkpt lat="34.73717438" lon="135.17927727">
        <ele>467.56</ele>
        <time>2026-09-18T01:58:19Z</time>
      </trkpt>
      <trkpt lat="34.73708883" lon="135.1793173">
        <ele>466.19</ele>
        <time>2026-09-18T01:58:28Z</time>
      </trkpt>
      <trkpt lat="34.73705449" lon="135.17942484">
        <ele>468.75</ele>
        <time>2026-09-18T01:58:38Z</time>
      </trkpt>
      <trkpt lat="34.7370574" lon="135.17953864">
        <ele>468.43</ele>
        <time>2026-09-18T01:58:47Z</time>
      </trkpt>
      <trkpt lat="34.7370741" lon="135.17965689">
        <ele>473.19</ele>
        <time>2026-09-18T01:58:58Z</time>
      </trkpt>
      <trkpt lat="34.73710497" lon="135.17976086">
        <ele>476.45</ele>
        <time>2026-09-18T01:59:08Z</time>
      </trkpt>
      <trkpt lat="34.73712637" lon="135.17986744">
        <ele>477.06</ele>
        <time>2026-09-18T01:59:22Z</time>
      </trkpt>
      <trkpt lat="34.73714316" lon="135.17998099">
        <ele>479.76</ele>
        <time>2026-09-18T01:59:32Z</time>
      </trkpt>
      <trkpt lat="34.73717219" lon="135.18009371">
        <ele>479.63</ele>
        <time>2026-09-18T01:59:43Z</time>
      </trkpt>
      <trkpt lat="34.73720314" lon="135.18020211">
        <ele>481.85</ele>
        <time>2026-09-18T01:59:54Z</time>
      </trkpt>
      <trkpt lat="34.73724142" lon="135.18030845">
        <ele>477.43</ele>
        <time>2026-09-18T02:00:05Z</time>
      </trkpt>
      <trkpt lat="34.73727066" lon="135.18042199">
        <ele>478.75</ele>
        <time>2026-09-18T02:00:16Z</time>
      </trkpt>
      <trkpt lat="34.73729471" lon="135.18053481">
        <ele>478.23</ele>
        <time>2026-09-18T02:00:27Z</time>
      </trkpt>
      <trkpt lat="34.73730585" lon="135.18064651">
        <ele>480.43</ele>
        <time>2026-09-18T02:00:37Z</time>
      </trkpt>
      <trkpt lat="34.73732107" lon="135.18075498">
        <ele>479.47</ele>
        <time>2026-09-18T02:00:47Z</time>
      </trkpt>
      <trkpt lat="34.73734517" lon="135.18086811">
        <ele>481.07</ele>
        <time>2026-09-18T02:00:57Z</time>
      </trkpt>
      <trkpt lat="34.73736399" lon="135.18098614">
        <ele>479.34</ele>
        <time>2026-09-18T02:01:07Z</time>
      </trkpt>
      <trkpt lat="34.73741103" lon="135.18108524">
        <ele>479.38</ele>
        <time>2026-09-18T02:01:17Z</time>
      </trkpt>
      <trkpt lat="34.73750407" lon="135.1811024">
        <ele>472.67</ele>
        <time>2026-09-18T02:01:30Z</time>
      </trkpt>
      <trkpt lat="34.73758445" lon="135.18115197">
        <ele>469.68</ele>
        <time>2026-09-18T02:02:43Z</time>
      </trkpt>
      <trkpt lat="34.73761898" lon="135.1812628">
        <ele>468.82</ele>
        <time>2026-09-18T02:04:02Z</time>
      </trkpt>
      <trkpt lat="34.7376658" lon="135.18135815">
        <ele>469.42</ele>
        <time>2026-09-18T02:04:12Z</time>
      </trkpt>
      <trkpt lat="34.73770972" lon="135.18146254">
        <ele>469.97</ele>
        <time>2026-09-18T02:04:22Z</time>
      </trkpt>
      <trkpt lat="34.73774253" lon="135.18157441">
        <ele>470.93</ele>
        <time>2026-09-18T02:04:32Z</time>
      </trkpt>
      <trkpt lat="34.73775045" lon="135.18168839">
        <ele>471.73</ele>
        <time>2026-09-18T02:04:42Z</time>
      </trkpt>
      <trkpt lat="34.73775711" lon="135.18180284">
        <ele>472.87</ele>
        <time>2026-09-18T02:04:51Z</time>
      </trkpt>
      <trkpt lat="34.73778246" lon="135.18191849">
        <ele>475.15</ele>
        <time>2026-09-18T02:05:01Z</time>
      </trkpt>
      <trkpt lat="34.73783378" lon="135.18201496">
        <ele>476.53</ele>
        <time>2026-09-18T02:05:11Z</time>
      </trkpt>
      <trkpt lat="34.73788579" lon="135.18210862">
        <ele>476.45</ele>
        <time>2026-09-18T02:05:23Z</time>
      </trkpt>
      <trkpt lat="34.73791516" lon="135.18222067">
        <ele>475.49</ele>
        <time>2026-09-18T02:05:49Z</time>
      </trkpt>
      <trkpt lat="34.73792168" lon="135.18233266">
        <ele>468.94</ele>
        <time>2026-09-18T02:06:11Z</time>
      </trkpt>
      <trkpt lat="34.737834" lon="135.18237916">
        <ele>465.85</ele>
        <time>2026-09-18T02:06:21Z</time>
      </trkpt>
      <trkpt lat="34.73774367" lon="135.18235315">
        <ele>464.19</ele>
        <time>2026-09-18T02:06:32Z</time>
      </trkpt>
      <trkpt lat="34.7376555" lon="135.18239171">
        <ele>461.71</ele>
        <time>2026-09-18T02:06:45Z</time>
      </trkpt>
      <trkpt lat="34.73757575" lon="135.18244771">
        <ele>461.12</ele>
        <time>2026-09-18T02:06:58Z</time>
      </trkpt>
      <trkpt lat="34.73750985" lon="135.18252333">
        <ele>463.96</ele>
        <time>2026-09-18T02:08:14Z</time>
      </trkpt>
      <trkpt lat="34.73751218" lon="135.1825384">
        <ele>464.35</ele>
        <time>2026-09-18T02:10:15Z</time>
      </trkpt>
      <trkpt lat="34.73749468" lon="135.18251316">
        <ele>466.03</ele>
        <time>2026-09-18T02:13:04Z</time>
      </trkpt>
      <trkpt lat="34.73748633" lon="135.18251589">
        <ele>466.03</ele>
        <time>2026-09-18T02:15:57Z</time>
      </trkpt>
      <trkpt lat="34.73748937" lon="135.18249332">
        <ele>464.96</ele>
        <time>2026-09-18T02:17:58Z</time>
      </trkpt>
      <trkpt lat="34.73749834" lon="135.18249795">
        <ele>466.04</ele>
        <time>2026-09-18T02:19:59Z</time>
      </trkpt>
      <trkpt lat="34.73749351" lon="135.18250374">
        <ele>465.95</ele>
        <time>2026-09-18T02:22:00Z</time>
      </trkpt>
      <trkpt lat="34.73748873" lon="135.18251647">
        <ele>466</ele>
        <time>2026-09-18T02:24:01Z</time>
      </trkpt>
      <trkpt lat="34.73749156" lon="135.18251645">
        <ele>465.62</ele>
        <time>2026-09-18T02:26:02Z</time>
      </trkpt>
      <trkpt lat="34.73749514" lon="135.1825046">
        <ele>465.25</ele>
        <time>2026-09-18T02:28:03Z</time>
      </trkpt>
      <trkpt lat="34.73754962" lon="135.18240892">
        <ele>463.5</ele>
        <time>2026-09-18T02:29:13Z</time>
      </trkpt>
      <trkpt lat="34.73755859" lon="135.18229789">
        <ele>465.11</ele>
        <time>2026-09-18T02:29:24Z</time>
      </trkpt>
      <trkpt lat="34.73754673" lon="135.18218657">
        <ele>463.93</ele>
        <time>2026-09-18T02:29:37Z</time>
      </trkpt>
      <trkpt lat="34.73755703" lon="135.18207306">
        <ele>464.22</ele>
        <time>2026-09-18T02:29:51Z</time>
      </trkpt>
      <trkpt lat="34.73758469" lon="135.18196288">
        <ele>469.69</ele>
        <time>2026-09-18T02:30:02Z</time>
      </trkpt>
      <trkpt lat="34.73756162" lon="135.18185189">
        <ele>464.29</ele>
        <time>2026-09-18T02:30:14Z</time>
      </trkpt>
      <trkpt lat="34.73746798" lon="135.18184934">
        <ele>463.69</ele>
        <time>2026-09-18T02:30:25Z</time>
      </trkpt>
      <trkpt lat="34.7373988" lon="135.18192035">
        <ele>464.58</ele>
        <time>2026-09-18T02:30:37Z</time>
      </trkpt>
      <trkpt lat="34.73734225" lon="135.18200728">
        <ele>465.27</ele>
        <time>2026-09-18T02:30:50Z</time>
      </trkpt>
      <trkpt lat="34.73728922" lon="135.18211476">
        <ele>464.98</ele>
        <time>2026-09-18T02:31:05Z</time>
      </trkpt>
      <trkpt lat="34.73727294" lon="135.18222711">
        <ele>466.32</ele>
        <time>2026-09-18T02:31:18Z</time>
      </trkpt>
      <trkpt lat="34.73725649" lon="135.18233913">
        <ele>466.54</ele>
        <time>2026-09-18T02:31:30Z</time>
      </trkpt>
      <trkpt lat="34.73723475" lon="135.18244555">
        <ele>465.97</ele>
        <time>2026-09-18T02:31:43Z</time>
      </trkpt>
      <trkpt lat="34.73722821" lon="135.18255513">
        <ele>463.23</ele>
        <time>2026-09-18T02:32:05Z</time>
      </trkpt>
      <trkpt lat="34.73722199" lon="135.18267066">
        <ele>464.49</ele>
        <time>2026-09-18T02:32:18Z</time>
      </trkpt>
      <trkpt lat="34.73724903" lon="135.18277756">
        <ele>459.16</ele>
        <time>2026-09-18T02:32:36Z</time>
      </trkpt>
      <trkpt lat="34.73723843" lon="135.18289333">
        <ele>458.23</ele>
        <time>2026-09-18T02:32:51Z</time>
      </trkpt>
      <trkpt lat="34.73716401" lon="135.18281941">
        <ele>453.61</ele>
        <time>2026-09-18T02:33:16Z</time>
      </trkpt>
      <trkpt lat="34.73711993" lon="135.18271746">
        <ele>450.52</ele>
        <time>2026-09-18T02:33:28Z</time>
      </trkpt>
      <trkpt lat="34.73707438" lon="135.18261541">
        <ele>449.47</ele>
        <time>2026-09-18T02:33:42Z</time>
      </trkpt>
      <trkpt lat="34.73703243" lon="135.18251292">
        <ele>447.1</ele>
        <time>2026-09-18T02:33:55Z</time>
      </trkpt>
      <trkpt lat="34.73696769" lon="135.18242495">
        <ele>443.36</ele>
        <time>2026-09-18T02:34:08Z</time>
      </trkpt>
      <trkpt lat="34.73690053" lon="135.18233971">
        <ele>443.31</ele>
        <time>2026-09-18T02:34:20Z</time>
      </trkpt>
      <trkpt lat="34.73685848" lon="135.1822347">
        <ele>441.39</ele>
        <time>2026-09-18T02:34:31Z</time>
      </trkpt>
      <trkpt lat="34.73677122" lon="135.1821609">
        <ele>442.15</ele>
        <time>2026-09-18T02:34:45Z</time>
      </trkpt>
      <trkpt lat="34.73667267" lon="135.18219653">
        <ele>442.8</ele>
        <time>2026-09-18T02:34:58Z</time>
      </trkpt>
      <trkpt lat="34.73658524" lon="135.18224809">
        <ele>442.03</ele>
        <time>2026-09-18T02:35:11Z</time>
      </trkpt>
      <trkpt lat="34.73650063" lon="135.18220312">
        <ele>437.03</ele>
        <time>2026-09-18T02:35:22Z</time>
      </trkpt>
      <trkpt lat="34.73644081" lon="135.18211752">
        <ele>442.18</ele>
        <time>2026-09-18T02:35:35Z</time>
      </trkpt>
      <trkpt lat="34.73639783" lon="135.18202071">
        <ele>443.63</ele>
        <time>2026-09-18T02:35:48Z</time>
      </trkpt>
      <trkpt lat="34.7363679" lon="135.18191462">
        <ele>442.14</ele>
        <time>2026-09-18T02:36:00Z</time>
      </trkpt>
      <trkpt lat="34.73635289" lon="135.18179933">
        <ele>442.72</ele>
        <time>2026-09-18T02:36:13Z</time>
      </trkpt>
      <trkpt lat="34.73640507" lon="135.18170261">
        <ele>444.18</ele>
        <time>2026-09-18T02:36:25Z</time>
      </trkpt>
      <trkpt lat="34.73643146" lon="135.18159562">
        <ele>443.46</ele>
        <time>2026-09-18T02:36:37Z</time>
      </trkpt>
      <trkpt lat="34.73644529" lon="135.18147965">
        <ele>441.94</ele>
        <time>2026-09-18T02:36:50Z</time>
      </trkpt>
      <trkpt lat="34.73653159" lon="135.18141591">
        <ele>444.82</ele>
        <time>2026-09-18T02:37:08Z</time>
      </trkpt>
      <trkpt lat="34.73662876" lon="135.18141823">
        <ele>442.61</ele>
        <time>2026-09-18T02:37:25Z</time>
      </trkpt>
      <trkpt lat="34.73671154" lon="135.18135802">
        <ele>444.18</ele>
        <time>2026-09-18T02:37:42Z</time>
      </trkpt>
      <trkpt lat="34.73674847" lon="135.18125419">
        <ele>441.4</ele>
        <time>2026-09-18T02:37:54Z</time>
      </trkpt>
      <trkpt lat="34.73669818" lon="135.18115564">
        <ele>442.69</ele>
        <time>2026-09-18T02:38:05Z</time>
      </trkpt>
      <trkpt lat="34.73663233" lon="135.1810737">
        <ele>442.4</ele>
        <time>2026-09-18T02:38:17Z</time>
      </trkpt>
      <trkpt lat="34.73657101" lon="135.18098391">
        <ele>445.11</ele>
        <time>2026-09-18T02:38:28Z</time>
      </trkpt>
      <trkpt lat="34.73649833" lon="135.18091083">
        <ele>444.28</ele>
        <time>2026-09-18T02:38:40Z</time>
      </trkpt>
      <trkpt lat="34.73641798" lon="135.18083095">
        <ele>447.13</ele>
        <time>2026-09-18T02:38:55Z</time>
      </trkpt>
      <trkpt lat="34.73635951" lon="135.18073577">
        <ele>446.32</ele>
        <time>2026-09-18T02:39:07Z</time>
      </trkpt>
      <trkpt lat="34.73626644" lon="135.18072407">
        <ele>445.58</ele>
        <time>2026-09-18T02:39:18Z</time>
      </trkpt>
      <trkpt lat="34.73621589" lon="135.18082164">
        <ele>445.21</ele>
        <time>2026-09-18T02:39:31Z</time>
      </trkpt>
      <trkpt lat="34.73612464" lon="135.1808383">
        <ele>445.03</ele>
        <time>2026-09-18T02:39:44Z</time>
      </trkpt>
      <trkpt lat="34.7360401" lon="135.18077735">
        <ele>447.53</ele>
        <time>2026-09-18T02:40:07Z</time>
      </trkpt>
      <trkpt lat="34.73606335" lon="135.18067096">
        <ele>445.58</ele>
        <time>2026-09-18T02:40:41Z</time>
      </trkpt>
      <trkpt lat="34.73609177" lon="135.18055854">
        <ele>444.23</ele>
        <time>2026-09-18T02:40:53Z</time>
      </trkpt>
      <trkpt lat="34.7360227" lon="135.18045817">
        <ele>445.23</ele>
        <time>2026-09-18T02:41:04Z</time>
      </trkpt>
      <trkpt lat="34.73594567" lon="135.18037274">
        <ele>446.79</ele>
        <time>2026-09-18T02:41:15Z</time>
      </trkpt>
      <trkpt lat="34.73586749" lon="135.18030937">
        <ele>447.81</ele>
        <time>2026-09-18T02:41:26Z</time>
      </trkpt>
      <trkpt lat="34.73580324" lon="135.18022577">
        <ele>445.79</ele>
        <time>2026-09-18T02:41:39Z</time>
      </trkpt>
      <trkpt lat="34.73577039" lon="135.18011842">
        <ele>444.45</ele>
        <time>2026-09-18T02:41:52Z</time>
      </trkpt>
      <trkpt lat="34.73578248" lon="135.17998995">
        <ele>445.55</ele>
        <time>2026-09-18T02:42:07Z</time>
      </trkpt>
      <trkpt lat="34.73584075" lon="135.17989053">
        <ele>444.52</ele>
        <time>2026-09-18T02:42:20Z</time>
      </trkpt>
      <trkpt lat="34.73590902" lon="135.1798112">
        <ele>446.1</ele>
        <time>2026-09-18T02:42:31Z</time>
      </trkpt>
      <trkpt lat="34.73597076" lon="135.17972718">
        <ele>445.96</ele>
        <time>2026-09-18T02:42:42Z</time>
      </trkpt>
      <trkpt lat="34.73600902" lon="135.17962309">
        <ele>445.63</ele>
        <time>2026-09-18T02:42:55Z</time>
      </trkpt>
      <trkpt lat="34.73596827" lon="135.17952531">
        <ele>446.56</ele>
        <time>2026-09-18T02:43:07Z</time>
      </trkpt>
      <trkpt lat="34.73588589" lon="135.17948063">
        <ele>447.4</ele>
        <time>2026-09-18T02:43:19Z</time>
      </trkpt>
      <trkpt lat="34.7357909" lon="135.17947821">
        <ele>452.35</ele>
        <time>2026-09-18T02:43:46Z</time>
      </trkpt>
      <trkpt lat="34.73572527" lon="135.17940146">
        <ele>451.27</ele>
        <time>2026-09-18T02:43:55Z</time>
      </trkpt>
      <trkpt lat="34.73566132" lon="135.17932318">
        <ele>451.46</ele>
        <time>2026-09-18T02:44:05Z</time>
      </trkpt>
      <trkpt lat="34.73561544" lon="135.17921289">
        <ele>450.62</ele>
        <time>2026-09-18T02:44:34Z</time>
      </trkpt>
      <trkpt lat="34.73561235" lon="135.17909618">
        <ele>448.99</ele>
        <time>2026-09-18T02:44:52Z</time>
      </trkpt>
      <trkpt lat="34.73564745" lon="135.1789866">
        <ele>450.03</ele>
        <time>2026-09-18T02:45:06Z</time>
      </trkpt>
      <trkpt lat="34.73567258" lon="135.17887175">
        <ele>451.92</ele>
        <time>2026-09-18T02:45:21Z</time>
      </trkpt>
      <trkpt lat="34.73558364" lon="135.17884876">
        <ele>447.02</ele>
        <time>2026-09-18T02:45:41Z</time>
      </trkpt>
      <trkpt lat="34.73548912" lon="135.17885544">
        <ele>449.98</ele>
        <time>2026-09-18T02:45:53Z</time>
      </trkpt>
      <trkpt lat="34.73542868" lon="135.17876706">
        <ele>450.46</ele>
        <time>2026-09-18T02:46:14Z</time>
      </trkpt>
      <trkpt lat="34.73541853" lon="135.17865744">
        <ele>452.68</ele>
        <time>2026-09-18T02:46:30Z</time>
      </trkpt>
      <trkpt lat="34.73538976" lon="135.1785465">
        <ele>451.95</ele>
        <time>2026-09-18T02:46:43Z</time>
      </trkpt>
      <trkpt lat="34.73535398" lon="135.17843741">
        <ele>450.95</ele>
        <time>2026-09-18T02:46:56Z</time>
      </trkpt>
      <trkpt lat="34.73527837" lon="135.17837772">
        <ele>453.81</ele>
        <time>2026-09-18T02:47:09Z</time>
      </trkpt>
      <trkpt lat="34.73519812" lon="135.17832442">
        <ele>456.35</ele>
        <time>2026-09-18T02:47:22Z</time>
      </trkpt>
      <trkpt lat="34.73510175" lon="135.17831229">
        <ele>456.46</ele>
        <time>2026-09-18T02:47:37Z</time>
      </trkpt>
      <trkpt lat="34.7350057" lon="135.17831616">
        <ele>463.93</ele>
        <time>2026-09-18T02:47:46Z</time>
      </trkpt>
      <trkpt lat="34.73493776" lon="135.17823973">
        <ele>464.25</ele>
        <time>2026-09-18T02:48:10Z</time>
      </trkpt>
      <trkpt lat="34.73484231" lon="135.17822807">
        <ele>463.27</ele>
        <time>2026-09-18T02:48:21Z</time>
      </trkpt>
      <trkpt lat="34.73473967" lon="135.17816868">
        <ele>469.06</ele>
        <time>2026-09-18T02:48:36Z</time>
      </trkpt>
      <trkpt lat="34.73465261" lon="135.1781283">
        <ele>465.44</ele>
        <time>2026-09-18T02:48:53Z</time>
      </trkpt>
      <trkpt lat="34.7345674" lon="135.1780725">
        <ele>460.97</ele>
        <time>2026-09-18T02:49:06Z</time>
      </trkpt>
      <trkpt lat="34.73448374" lon="135.17802771">
        <ele>461.87</ele>
        <time>2026-09-18T02:49:20Z</time>
      </trkpt>
      <trkpt lat="34.73439764" lon="135.17798932">
        <ele>461.23</ele>
        <time>2026-09-18T02:49:37Z</time>
      </trkpt>
      <trkpt lat="34.73431124" lon="135.17795672">
        <ele>460.02</ele>
        <time>2026-09-18T02:49:52Z</time>
      </trkpt>
      <trkpt lat="34.73423202" lon="135.17789753">
        <ele>466.34</ele>
        <time>2026-09-18T02:50:06Z</time>
      </trkpt>
      <trkpt lat="34.73416723" lon="135.17781994">
        <ele>465.21</ele>
        <time>2026-09-18T02:50:20Z</time>
      </trkpt>
      <trkpt lat="34.73411878" lon="135.17770816">
        <ele>468.07</ele>
        <time>2026-09-18T02:50:38Z</time>
      </trkpt>
      <trkpt lat="34.73403815" lon="135.17764243">
        <ele>467.06</ele>
        <time>2026-09-18T02:50:49Z</time>
      </trkpt>
      <trkpt lat="34.73396932" lon="135.17756864">
        <ele>472.36</ele>
        <time>2026-09-18T02:51:00Z</time>
      </trkpt>
      <trkpt lat="34.73389039" lon="135.17751195">
        <ele>473.67</ele>
        <time>2026-09-18T02:51:16Z</time>
      </trkpt>
      <trkpt lat="34.73392937" lon="135.17740996">
        <ele>478.87</ele>
        <time>2026-09-18T02:51:23Z</time>
      </trkpt>
      <trkpt lat="34.73391707" lon="135.17730141">
        <ele>479.11</ele>
        <time>2026-09-18T02:51:33Z</time>
      </trkpt>
      <trkpt lat="34.73384308" lon="135.17723793">
        <ele>476.98</ele>
        <time>2026-09-18T02:51:52Z</time>
      </trkpt>
      <trkpt lat="34.73375122" lon="135.17720958">
        <ele>483.73</ele>
        <time>2026-09-18T02:52:03Z</time>
      </trkpt>
      <trkpt lat="34.73367685" lon="135.17713381">
        <ele>481.85</ele>
        <time>2026-09-18T02:52:16Z</time>
      </trkpt>
      <trkpt lat="34.73351993" lon="135.17618488">
        <ele>477.88</ele>
        <time>2026-09-18T02:53:56Z</time>
      </trkpt>
      <trkpt lat="34.73355185" lon="135.17607078">
        <ele>479.05</ele>
        <time>2026-09-18T02:54:15Z</time>
      </trkpt>
      <trkpt lat="34.73356485" lon="135.17595436">
        <ele>487.65</ele>
        <time>2026-09-18T02:54:24Z</time>
      </trkpt>
      <trkpt lat="34.73360458" lon="135.17584881">
        <ele>483.43</ele>
        <time>2026-09-18T02:54:39Z</time>
      </trkpt>
      <trkpt lat="34.73365209" lon="135.17575051">
        <ele>482.33</ele>
        <time>2026-09-18T02:54:53Z</time>
      </trkpt>
      <trkpt lat="34.73367345" lon="135.17563442">
        <ele>479.04</ele>
        <time>2026-09-18T02:55:26Z</time>
      </trkpt>
      <trkpt lat="34.73372822" lon="135.17554526">
        <ele>477.77</ele>
        <time>2026-09-18T02:55:38Z</time>
      </trkpt>
      <trkpt lat="34.73378646" lon="135.17546106">
        <ele>475.31</ele>
        <time>2026-09-18T02:55:52Z</time>
      </trkpt>
      <trkpt lat="34.73382807" lon="135.17536177">
        <ele>473.47</ele>
        <time>2026-09-18T02:56:06Z</time>
      </trkpt>
      <trkpt lat="34.73383827" lon="135.17524907">
        <ele>469.72</ele>
        <time>2026-09-18T02:56:20Z</time>
      </trkpt>
      <trkpt lat="34.73384007" lon="135.17513381">
        <ele>464.83</ele>
        <time>2026-09-18T02:56:37Z</time>
      </trkpt>
      <trkpt lat="34.73385816" lon="135.17502149">
        <ele>466.05</ele>
        <time>2026-09-18T02:56:49Z</time>
      </trkpt>
      <trkpt lat="34.73387646" lon="135.17491205">
        <ele>465.89</ele>
        <time>2026-09-18T02:57:02Z</time>
      </trkpt>
      <trkpt lat="34.7339014" lon="135.17480658">
        <ele>468.6</ele>
        <time>2026-09-18T02:57:14Z</time>
      </trkpt>
      <trkpt lat="34.73390242" lon="135.17469596">
        <ele>470.14</ele>
        <time>2026-09-18T02:57:28Z</time>
      </trkpt>
      <trkpt lat="34.73389812" lon="135.17458124">
        <ele>470.76</ele>
        <time>2026-09-18T02:57:42Z</time>
      </trkpt>
      <trkpt lat="34.73393958" lon="135.17448008">
        <ele>467.32</ele>
        <time>2026-09-18T02:57:59Z</time>
      </trkpt>
      <trkpt lat="34.73399563" lon="135.17438969">
        <ele>467.66</ele>
        <time>2026-09-18T02:58:12Z</time>
      </trkpt>
      <trkpt lat="34.73404686" lon="135.17429288">
        <ele>466.68</ele>
        <time>2026-09-18T02:58:28Z</time>
      </trkpt>
      <trkpt lat="34.73410875" lon="135.17420224">
        <ele>466.48</ele>
        <time>2026-09-18T02:58:42Z</time>
      </trkpt>
      <trkpt lat="34.73412104" lon="135.17409033">
        <ele>468.15</ele>
        <time>2026-09-18T02:58:55Z</time>
      </trkpt>
      <trkpt lat="34.73410402" lon="135.17398261">
        <ele>467.96</ele>
        <time>2026-09-18T02:59:07Z</time>
      </trkpt>
      <trkpt lat="34.73412673" lon="135.17385725">
        <ele>467.99</ele>
        <time>2026-09-18T02:59:22Z</time>
      </trkpt>
      <trkpt lat="34.7341584" lon="135.17375042">
        <ele>465.15</ele>
        <time>2026-09-18T02:59:36Z</time>
      </trkpt>
      <trkpt lat="34.73416532" lon="135.17363326">
        <ele>466.29</ele>
        <time>2026-09-18T02:59:47Z</time>
      </trkpt>
      <trkpt lat="34.73422311" lon="135.17354369">
        <ele>461.74</ele>
        <time>2026-09-18T03:00:00Z</time>
      </trkpt>
      <trkpt lat="34.73428859" lon="135.17346442">
        <ele>463.34</ele>
        <time>2026-09-18T03:00:13Z</time>
      </trkpt>
      <trkpt lat="34.73436772" lon="135.17340013">
        <ele>462.21</ele>
        <time>2026-09-18T03:00:23Z</time>
      </trkpt>
      <trkpt lat="34.73446277" lon="135.17341389">
        <ele>457.38</ele>
        <time>2026-09-18T03:00:35Z</time>
      </trkpt>
      <trkpt lat="34.73453839" lon="135.17348174">
        <ele>456.3</ele>
        <time>2026-09-18T03:00:46Z</time>
      </trkpt>
      <trkpt lat="34.73461444" lon="135.17354887">
        <ele>456.07</ele>
        <time>2026-09-18T03:00:58Z</time>
      </trkpt>
      <trkpt lat="34.73470361" lon="135.17359224">
        <ele>457.31</ele>
        <time>2026-09-18T03:01:10Z</time>
      </trkpt>
      <trkpt lat="34.73478608" lon="135.17364064">
        <ele>462.67</ele>
        <time>2026-09-18T03:01:23Z</time>
      </trkpt>
      <trkpt lat="34.73487144" lon="135.17368973">
        <ele>465.12</ele>
        <time>2026-09-18T03:01:36Z</time>
      </trkpt>
      <trkpt lat="34.7349551" lon="135.1737476">
        <ele>466.63</ele>
        <time>2026-09-18T03:01:49Z</time>
      </trkpt>
      <trkpt lat="34.73503449" lon="135.17380766">
        <ele>464.51</ele>
        <time>2026-09-18T03:02:01Z</time>
      </trkpt>
      <trkpt lat="34.73511613" lon="135.17386226">
        <ele>463.12</ele>
        <time>2026-09-18T03:02:14Z</time>
      </trkpt>
      <trkpt lat="34.73519813" lon="135.17392659">
        <ele>462.43</ele>
        <time>2026-09-18T03:02:29Z</time>
      </trkpt>
      <trkpt lat="34.73528415" lon="135.17396317">
        <ele>464.09</ele>
        <time>2026-09-18T03:02:40Z</time>
      </trkpt>
      <trkpt lat="34.73536754" lon="135.17400637">
        <ele>463.25</ele>
        <time>2026-09-18T03:02:52Z</time>
      </trkpt>
      <trkpt lat="34.73545547" lon="135.17404512">
        <ele>462.45</ele>
        <time>2026-09-18T03:03:04Z</time>
      </trkpt>
      <trkpt lat="34.73554206" lon="135.17408841">
        <ele>464.68</ele>
        <time>2026-09-18T03:03:16Z</time>
      </trkpt>
      <trkpt lat="34.73563126" lon="135.17413125">
        <ele>462.54</ele>
        <time>2026-09-18T03:03:44Z</time>
      </trkpt>
      <trkpt lat="34.73572616" lon="135.17412426">
        <ele>465.29</ele>
        <time>2026-09-18T03:04:26Z</time>
      </trkpt>
      <trkpt lat="34.73582584" lon="135.1741457">
        <ele>465.39</ele>
        <time>2026-09-18T03:04:40Z</time>
      </trkpt>
      <trkpt lat="34.73582943" lon="135.17416569">
        <ele>468.6</ele>
        <time>2026-09-18T03:06:42Z</time>
      </trkpt>
      <trkpt lat="34.73591574" lon="135.17422313">
        <ele>468.33</ele>
        <time>2026-09-18T03:07:35Z</time>
      </trkpt>
      <trkpt lat="34.7360044" lon="135.17426701">
        <ele>466.57</ele>
        <time>2026-09-18T03:07:55Z</time>
      </trkpt>
      <trkpt lat="34.736081" lon="135.17433551">
        <ele>465.07</ele>
        <time>2026-09-18T03:08:27Z</time>
      </trkpt>
      <trkpt lat="34.73602504" lon="135.17443041">
        <ele>463.81</ele>
        <time>2026-09-18T03:09:21Z</time>
      </trkpt>
      <trkpt lat="34.73600545" lon="135.1745415">
        <ele>467.7</ele>
        <time>2026-09-18T03:09:33Z</time>
      </trkpt>
      <trkpt lat="34.73599146" lon="135.17464953">
        <ele>472.74</ele>
        <time>2026-09-18T03:11:06Z</time>
      </trkpt>
      <trkpt lat="34.73594764" lon="135.17462804">
        <ele>475.63</ele>
        <time>2026-09-18T03:13:08Z</time>
      </trkpt>
      <trkpt lat="34.73599427" lon="135.17468313">
        <ele>477.4</ele>
        <time>2026-09-18T03:15:15Z</time>
      </trkpt>
      <trkpt lat="34.73605011" lon="135.17477522">
        <ele>484.46</ele>
        <time>2026-09-18T03:16:04Z</time>
      </trkpt>
      <trkpt lat="34.73613839" lon="135.1747355">
        <ele>481.44</ele>
        <time>2026-09-18T03:16:28Z</time>
      </trkpt>
      <trkpt lat="34.73621805" lon="135.17478977">
        <ele>479.46</ele>
        <time>2026-09-18T03:16:58Z</time>
      </trkpt>
      <trkpt lat="34.73617466" lon="135.17488829">
        <ele>479.53</ele>
        <time>2026-09-18T03:17:16Z</time>
      </trkpt>
      <trkpt lat="34.73613345" lon="135.1747887">
        <ele>474.68</ele>
        <time>2026-09-18T03:18:37Z</time>
      </trkpt>
      <trkpt lat="34.73616355" lon="135.17465861">
        <ele>474.19</ele>
        <time>2026-09-18T03:18:53Z</time>
      </trkpt>
      <trkpt lat="34.73611367" lon="135.17475269">
        <ele>473.94</ele>
        <time>2026-09-18T03:19:25Z</time>
      </trkpt>
      <trkpt lat="34.73611104" lon="135.1747371">
        <ele>472.78</ele>
        <time>2026-09-18T03:21:51Z</time>
      </trkpt>
      <trkpt lat="34.73612718" lon="135.17473704">
        <ele>472.86</ele>
        <time>2026-09-18T03:24:12Z</time>
      </trkpt>
      <trkpt lat="34.7361782" lon="135.17463962">
        <ele>478.18</ele>
        <time>2026-09-18T03:25:45Z</time>
      </trkpt>
      <trkpt lat="34.73623188" lon="135.17454889">
        <ele>476.9</ele>
        <time>2026-09-18T03:26:11Z</time>
      </trkpt>
      <trkpt lat="34.73628789" lon="135.17444658">
        <ele>473.83</ele>
        <time>2026-09-18T03:26:25Z</time>
      </trkpt>
      <trkpt lat="34.7363773" lon="135.17442424">
        <ele>473.87</ele>
        <time>2026-09-18T03:27:20Z</time>
      </trkpt>
      <trkpt lat="34.73646323" lon="135.17447953">
        <ele>475.42</ele>
        <time>2026-09-18T03:27:30Z</time>
      </trkpt>
      <trkpt lat="34.73654576" lon="135.17454664">
        <ele>474.49</ele>
        <time>2026-09-18T03:27:40Z</time>
      </trkpt>
      <trkpt lat="34.73662363" lon="135.17461376">
        <ele>480.51</ele>
        <time>2026-09-18T03:27:52Z</time>
      </trkpt>
      <trkpt lat="34.73668984" lon="135.17469983">
        <ele>481.92</ele>
        <time>2026-09-18T03:28:04Z</time>
      </trkpt>
      <trkpt lat="34.73677135" lon="135.17475237">
        <ele>480.74</ele>
        <time>2026-09-18T03:28:21Z</time>
      </trkpt>
      <trkpt lat="34.7368575" lon="135.1748097">
        <ele>483.78</ele>
        <time>2026-09-18T03:28:33Z</time>
      </trkpt>
      <trkpt lat="34.73693821" lon="135.17486692">
        <ele>488.08</ele>
        <time>2026-09-18T03:28:46Z</time>
      </trkpt>
      <trkpt lat="34.73701829" lon="135.17491846">
        <ele>489.25</ele>
        <time>2026-09-18T03:28:57Z</time>
      </trkpt>
      <trkpt lat="34.73710946" lon="135.17494038">
        <ele>486.39</ele>
        <time>2026-09-18T03:29:16Z</time>
      </trkpt>
      <trkpt lat="34.73719409" lon="135.17489661">
        <ele>483.63</ele>
        <time>2026-09-18T03:29:33Z</time>
      </trkpt>
      <trkpt lat="34.7372833" lon="135.17485835">
        <ele>484.11</ele>
        <time>2026-09-18T03:29:46Z</time>
      </trkpt>
      <trkpt lat="34.73737317" lon="135.17483923">
        <ele>482.9</ele>
        <time>2026-09-18T03:30:00Z</time>
      </trkpt>
      <trkpt lat="34.73746446" lon="135.17483669">
        <ele>483.51</ele>
        <time>2026-09-18T03:30:14Z</time>
      </trkpt>
      <trkpt lat="34.7375582" lon="135.17485451">
        <ele>483.58</ele>
        <time>2026-09-18T03:30:28Z</time>
      </trkpt>
      <trkpt lat="34.73764318" lon="135.17490158">
        <ele>485.53</ele>
        <time>2026-09-18T03:30:42Z</time>
      </trkpt>
      <trkpt lat="34.73770748" lon="135.17498236">
        <ele>485.63</ele>
        <time>2026-09-18T03:31:19Z</time>
      </trkpt>
      <trkpt lat="34.7377826" lon="135.17505312">
        <ele>483.12</ele>
        <time>2026-09-18T03:31:48Z</time>
      </trkpt>
      <trkpt lat="34.73787243" lon="135.17509642">
        <ele>483.55</ele>
        <time>2026-09-18T03:32:01Z</time>
      </trkpt>
      <trkpt lat="34.73796232" lon="135.17513516">
        <ele>484.47</ele>
        <time>2026-09-18T03:32:14Z</time>
      </trkpt>
      <trkpt lat="34.73805259" lon="135.17517369">
        <ele>485.99</ele>
        <time>2026-09-18T03:32:25Z</time>
      </trkpt>
      <trkpt lat="34.73811677" lon="135.1752553">
        <ele>483.49</ele>
        <time>2026-09-18T03:32:37Z</time>
      </trkpt>
      <trkpt lat="34.73816346" lon="135.17535293">
        <ele>481.35</ele>
        <time>2026-09-18T03:32:50Z</time>
      </trkpt>
      <trkpt lat="34.73820637" lon="135.17545214">
        <ele>482.38</ele>
        <time>2026-09-18T03:33:03Z</time>
      </trkpt>
      <trkpt lat="34.73823293" lon="135.17556998">
        <ele>484.45</ele>
        <time>2026-09-18T03:33:15Z</time>
      </trkpt>
      <trkpt lat="34.7382411" lon="135.1756804">
        <ele>484.72</ele>
        <time>2026-09-18T03:33:26Z</time>
      </trkpt>
      <trkpt lat="34.73821975" lon="135.1757947">
        <ele>484.15</ele>
        <time>2026-09-18T03:33:38Z</time>
      </trkpt>
      <trkpt lat="34.7381681" lon="135.17588934">
        <ele>481.04</ele>
        <time>2026-09-18T03:33:50Z</time>
      </trkpt>
      <trkpt lat="34.73809587" lon="135.17596988">
        <ele>481.4</ele>
        <time>2026-09-18T03:34:02Z</time>
      </trkpt>
      <trkpt lat="34.73803315" lon="135.17605681">
        <ele>481.27</ele>
        <time>2026-09-18T03:34:13Z</time>
      </trkpt>
      <trkpt lat="34.73803139" lon="135.17616612">
        <ele>482.52</ele>
        <time>2026-09-18T03:34:23Z</time>
      </trkpt>
      <trkpt lat="34.73810835" lon="135.17623893">
        <ele>481.56</ele>
        <time>2026-09-18T03:34:33Z</time>
      </trkpt>
      <trkpt lat="34.73819515" lon="135.17628638">
        <ele>481.29</ele>
        <time>2026-09-18T03:34:43Z</time>
      </trkpt>
      <trkpt lat="34.73828898" lon="135.17630954">
        <ele>481.64</ele>
        <time>2026-09-18T03:34:54Z</time>
      </trkpt>
      <trkpt lat="34.73839037" lon="135.17634725">
        <ele>478.16</ele>
        <time>2026-09-18T03:35:15Z</time>
      </trkpt>
      <trkpt lat="34.73847142" lon="135.17639794">
        <ele>478.8</ele>
        <time>2026-09-18T03:35:25Z</time>
      </trkpt>
      <trkpt lat="34.73848498" lon="135.17650984">
        <ele>477.82</ele>
        <time>2026-09-18T03:35:38Z</time>
      </trkpt>
      <trkpt lat="34.73843752" lon="135.17660664">
        <ele>477.58</ele>
        <time>2026-09-18T03:35:50Z</time>
      </trkpt>
      <trkpt lat="34.73837381" lon="135.17669386">
        <ele>478.06</ele>
        <time>2026-09-18T03:36:04Z</time>
      </trkpt>
      <trkpt lat="34.7383126" lon="135.17678037">
        <ele>480.22</ele>
        <time>2026-09-18T03:36:17Z</time>
      </trkpt>
      <trkpt lat="34.73823777" lon="135.17684597">
        <ele>481.77</ele>
        <time>2026-09-18T03:37:30Z</time>
      </trkpt>
      <trkpt lat="34.73826543" lon="135.17695494">
        <ele>482.16</ele>
        <time>2026-09-18T03:38:04Z</time>
      </trkpt>
      <trkpt lat="34.73831383" lon="135.17705317">
        <ele>482.72</ele>
        <time>2026-09-18T03:38:19Z</time>
      </trkpt>
      <trkpt lat="34.73836647" lon="135.17715181">
        <ele>483.25</ele>
        <time>2026-09-18T03:38:55Z</time>
      </trkpt>
      <trkpt lat="34.73841543" lon="135.17724707">
        <ele>486.37</ele>
        <time>2026-09-18T03:39:12Z</time>
      </trkpt>
      <trkpt lat="34.73847" lon="135.1773349">
        <ele>486.32</ele>
        <time>2026-09-18T03:39:25Z</time>
      </trkpt>
      <trkpt lat="34.73853675" lon="135.17741721">
        <ele>484.07</ele>
        <time>2026-09-18T03:40:17Z</time>
      </trkpt>
      <trkpt lat="34.73861835" lon="135.17746804">
        <ele>485.85</ele>
        <time>2026-09-18T03:40:28Z</time>
      </trkpt>
      <trkpt lat="34.73870865" lon="135.17749112">
        <ele>484.85</ele>
        <time>2026-09-18T03:40:40Z</time>
      </trkpt>
      <trkpt lat="34.73880375" lon="135.17748929">
        <ele>483.72</ele>
        <time>2026-09-18T03:40:53Z</time>
      </trkpt>
      <trkpt lat="34.73889986" lon="135.17749522">
        <ele>482.25</ele>
        <time>2026-09-18T03:41:08Z</time>
      </trkpt>
      <trkpt lat="34.73898522" lon="135.17754652">
        <ele>479.96</ele>
        <time>2026-09-18T03:41:23Z</time>
      </trkpt>
      <trkpt lat="34.73904936" lon="135.1776277">
        <ele>479.78</ele>
        <time>2026-09-18T03:41:35Z</time>
      </trkpt>
      <trkpt lat="34.73909452" lon="135.17772983">
        <ele>480.43</ele>
        <time>2026-09-18T03:41:48Z</time>
      </trkpt>
      <trkpt lat="34.73912866" lon="135.17783896">
        <ele>481.18</ele>
        <time>2026-09-18T03:42:01Z</time>
      </trkpt>
      <trkpt lat="34.73915714" lon="135.17794793">
        <ele>482.76</ele>
        <time>2026-09-18T03:42:17Z</time>
      </trkpt>
      <trkpt lat="34.73922973" lon="135.17802099">
        <ele>480.48</ele>
        <time>2026-09-18T03:42:36Z</time>
      </trkpt>
      <trkpt lat="34.73928026" lon="135.1781212">
        <ele>478.24</ele>
        <time>2026-09-18T03:42:49Z</time>
      </trkpt>
      <trkpt lat="34.73926428" lon="135.17823578">
        <ele>476.92</ele>
        <time>2026-09-18T03:43:01Z</time>
      </trkpt>
      <trkpt lat="34.7391891" lon="135.17833066">
        <ele>476.2</ele>
        <time>2026-09-18T03:43:15Z</time>
      </trkpt>
      <trkpt lat="34.73915316" lon="135.17843935">
        <ele>475.45</ele>
        <time>2026-09-18T03:43:28Z</time>
      </trkpt>
      <trkpt lat="34.73914852" lon="135.17845569">
        <ele>469.91</ele>
        <time>2026-09-18T03:45:29Z</time>
      </trkpt>
      <trkpt lat="34.73912784" lon="135.17845857">
        <ele>469.27</ele>
        <time>2026-09-18T03:47:30Z</time>
      </trkpt>
      <trkpt lat="34.73912195" lon="135.17845342">
        <ele>469.64</ele>
        <time>2026-09-18T03:51:11Z</time>
      </trkpt>
      <trkpt lat="34.73911541" lon="135.17845306">
        <ele>469.52</ele>
        <time>2026-09-18T03:53:12Z</time>
      </trkpt>
      <trkpt lat="34.73914292" lon="135.17847234">
        <ele>470.7</ele>
        <time>2026-09-18T03:55:13Z</time>
      </trkpt>
      <trkpt lat="34.73913384" lon="135.17844118">
        <ele>469.27</ele>
        <time>2026-09-18T03:57:14Z</time>
      </trkpt>
      <trkpt lat="34.7391284" lon="135.17843556">
        <ele>469.44</ele>
        <time>2026-09-18T03:59:15Z</time>
      </trkpt>
      <trkpt lat="34.7391263" lon="135.17843243">
        <ele>469.6</ele>
        <time>2026-09-18T04:01:16Z</time>
      </trkpt>
      <trkpt lat="34.73912005" lon="135.17845962">
        <ele>470.59</ele>
        <time>2026-09-18T04:03:17Z</time>
      </trkpt>
      <trkpt lat="34.739219" lon="135.17853371">
        <ele>471.49</ele>
        <time>2026-09-18T04:04:17Z</time>
      </trkpt>
      <trkpt lat="34.73929271" lon="135.1786014">
        <ele>473.01</ele>
        <time>2026-09-18T04:04:28Z</time>
      </trkpt>
      <trkpt lat="34.73936014" lon="135.1786761">
        <ele>476.79</ele>
        <time>2026-09-18T04:04:39Z</time>
      </trkpt>
      <trkpt lat="34.73942974" lon="135.17875036">
        <ele>482.77</ele>
        <time>2026-09-18T04:04:55Z</time>
      </trkpt>
      <trkpt lat="34.73936545" lon="135.17865914">
        <ele>475.01</ele>
        <time>2026-09-18T04:06:09Z</time>
      </trkpt>
      <trkpt lat="34.73928694" lon="135.1785843">
        <ele>475.5</ele>
        <time>2026-09-18T04:07:05Z</time>
      </trkpt>
      <trkpt lat="34.73920244" lon="135.17853238">
        <ele>475.14</ele>
        <time>2026-09-18T04:07:17Z</time>
      </trkpt>
      <trkpt lat="34.73911453" lon="135.17849472">
        <ele>474.43</ele>
        <time>2026-09-18T04:07:28Z</time>
      </trkpt>
      <trkpt lat="34.73913095" lon="135.17844793">
        <ele>472.17</ele>
        <time>2026-09-18T04:09:29Z</time>
      </trkpt>
      <trkpt lat="34.73919444" lon="135.17853146">
        <ele>473.4</ele>
        <time>2026-09-18T04:10:53Z</time>
      </trkpt>
      <trkpt lat="34.73928665" lon="135.1786189">
        <ele>476.17</ele>
        <time>2026-09-18T04:11:09Z</time>
      </trkpt>
      <trkpt lat="34.739358" lon="135.17869516">
        <ele>486.83</ele>
        <time>2026-09-18T04:11:20Z</time>
      </trkpt>
      <trkpt lat="34.73940582" lon="135.17879423">
        <ele>492.93</ele>
        <time>2026-09-18T04:11:32Z</time>
      </trkpt>
      <trkpt lat="34.73935638" lon="135.17883383">
        <ele>494.6</ele>
        <time>2026-09-18T04:13:33Z</time>
      </trkpt>
      <trkpt lat="34.73935905" lon="135.17883465">
        <ele>494.04</ele>
        <time>2026-09-18T04:15:34Z</time>
      </trkpt>
      <trkpt lat="34.73933387" lon="135.17879682">
        <ele>488.88</ele>
        <time>2026-09-18T04:17:35Z</time>
      </trkpt>
      <trkpt lat="34.73937907" lon="135.17869486">
        <ele>484.38</ele>
        <time>2026-09-18T04:19:06Z</time>
      </trkpt>
      <trkpt lat="34.73930651" lon="135.17862004">
        <ele>479.33</ele>
        <time>2026-09-18T04:19:19Z</time>
      </trkpt>
      <trkpt lat="34.73922277" lon="135.17856361">
        <ele>474.08</ele>
        <time>2026-09-18T04:19:30Z</time>
      </trkpt>
      <trkpt lat="34.73917972" lon="135.17844529">
        <ele>473.9</ele>
        <time>2026-09-18T04:19:56Z</time>
      </trkpt>
      <trkpt lat="34.73915567" lon="135.17833411">
        <ele>472.37</ele>
        <time>2026-09-18T04:20:07Z</time>
      </trkpt>
      <trkpt lat="34.73917601" lon="135.17822732">
        <ele>473.04</ele>
        <time>2026-09-18T04:20:32Z</time>
      </trkpt>
      <trkpt lat="34.73920939" lon="135.17812318">
        <ele>472.62</ele>
        <time>2026-09-18T04:20:45Z</time>
      </trkpt>
      <trkpt lat="34.73926003" lon="135.17801915">
        <ele>474.36</ele>
        <time>2026-09-18T04:20:58Z</time>
      </trkpt>
      <trkpt lat="34.73931868" lon="135.17793396">
        <ele>475.76</ele>
        <time>2026-09-18T04:21:11Z</time>
      </trkpt>
      <trkpt lat="34.73939443" lon="135.17787377">
        <ele>476.76</ele>
        <time>2026-09-18T04:21:24Z</time>
      </trkpt>
      <trkpt lat="34.73947705" lon="135.1778214">
        <ele>478.08</ele>
        <time>2026-09-18T04:21:37Z</time>
      </trkpt>
      <trkpt lat="34.73956018" lon="135.17776816">
        <ele>480.49</ele>
        <time>2026-09-18T04:21:50Z</time>
      </trkpt>
      <trkpt lat="34.73964755" lon="135.17773286">
        <ele>483.04</ele>
        <time>2026-09-18T04:22:03Z</time>
      </trkpt>
      <trkpt lat="34.73973865" lon="135.17771848">
        <ele>482.77</ele>
        <time>2026-09-18T04:22:16Z</time>
      </trkpt>
      <trkpt lat="34.73982966" lon="135.17772529">
        <ele>482.63</ele>
        <time>2026-09-18T04:22:29Z</time>
      </trkpt>
      <trkpt lat="34.73993588" lon="135.17771966">
        <ele>484.09</ele>
        <time>2026-09-18T04:22:43Z</time>
      </trkpt>
      <trkpt lat="34.74003379" lon="135.17770947">
        <ele>485.7</ele>
        <time>2026-09-18T04:22:57Z</time>
      </trkpt>
      <trkpt lat="34.74012505" lon="135.17772344">
        <ele>486.07</ele>
        <time>2026-09-18T04:23:10Z</time>
      </trkpt>
      <trkpt lat="34.74022029" lon="135.17773825">
        <ele>486.15</ele>
        <time>2026-09-18T04:23:26Z</time>
      </trkpt>
      <trkpt lat="34.7403078" lon="135.17777852">
        <ele>490.25</ele>
        <time>2026-09-18T04:23:38Z</time>
      </trkpt>
      <trkpt lat="34.74039801" lon="135.17781557">
        <ele>492.97</ele>
        <time>2026-09-18T04:23:59Z</time>
      </trkpt>
      <trkpt lat="34.74048794" lon="135.17785458">
        <ele>494.57</ele>
        <time>2026-09-18T04:24:12Z</time>
      </trkpt>
      <trkpt lat="34.74056095" lon="135.17792474">
        <ele>491.7</ele>
        <time>2026-09-18T04:24:23Z</time>
      </trkpt>
      <trkpt lat="34.74065136" lon="135.17792384">
        <ele>489.33</ele>
        <time>2026-09-18T04:24:38Z</time>
      </trkpt>
      <trkpt lat="34.74063026" lon="135.17792943">
        <ele>489.57</ele>
        <time>2026-09-18T04:26:39Z</time>
      </trkpt>
      <trkpt lat="34.74062463" lon="135.17792916">
        <ele>489.39</ele>
        <time>2026-09-18T04:28:41Z</time>
      </trkpt>
      <trkpt lat="34.74061099" lon="135.17792883">
        <ele>488.78</ele>
        <time>2026-09-18T04:32:35Z</time>
      </trkpt>
      <trkpt lat="34.74060377" lon="135.17792861">
        <ele>488.36</ele>
        <time>2026-09-18T04:34:36Z</time>
      </trkpt>
      <trkpt lat="34.74053077" lon="135.17799272">
        <ele>488.77</ele>
        <time>2026-09-18T04:35:27Z</time>
      </trkpt>
      <trkpt lat="34.74062629" lon="135.17799558">
        <ele>486.93</ele>
        <time>2026-09-18T04:36:56Z</time>
      </trkpt>
      <trkpt lat="34.74072094" lon="135.17798477">
        <ele>486.17</ele>
        <time>2026-09-18T04:37:05Z</time>
      </trkpt>
      <trkpt lat="34.74080755" lon="135.17801513">
        <ele>485.8</ele>
        <time>2026-09-18T04:37:15Z</time>
      </trkpt>
      <trkpt lat="34.74088719" lon="135.17796001">
        <ele>485.41</ele>
        <time>2026-09-18T04:37:26Z</time>
      </trkpt>
      <trkpt lat="34.74073228" lon="135.17802495">
        <ele>488.39</ele>
        <time>2026-09-18T04:38:55Z</time>
      </trkpt>
      <trkpt lat="34.74065501" lon="135.17795959">
        <ele>482.34</ele>
        <time>2026-09-18T04:39:00Z</time>
      </trkpt>
      <trkpt lat="34.74073576" lon="135.17789074">
        <ele>481.79</ele>
        <time>2026-09-18T04:39:10Z</time>
      </trkpt>
      <trkpt lat="34.74083825" lon="135.17784966">
        <ele>481.11</ele>
        <time>2026-09-18T04:39:18Z</time>
      </trkpt>
      <trkpt lat="34.74093381" lon="135.17783767">
        <ele>477.8</ele>
        <time>2026-09-18T04:39:29Z</time>
      </trkpt>
      <trkpt lat="34.7410213" lon="135.17781097">
        <ele>479.79</ele>
        <time>2026-09-18T04:39:40Z</time>
      </trkpt>
      <trkpt lat="34.7411124" lon="135.17778341">
        <ele>481.32</ele>
        <time>2026-09-18T04:39:49Z</time>
      </trkpt>
      <trkpt lat="34.74120025" lon="135.17774577">
        <ele>480.49</ele>
        <time>2026-09-18T04:39:58Z</time>
      </trkpt>
      <trkpt lat="34.74126391" lon="135.17766481">
        <ele>482.22</ele>
        <time>2026-09-18T04:40:08Z</time>
      </trkpt>
      <trkpt lat="34.74133015" lon="135.1775849">
        <ele>483.93</ele>
        <time>2026-09-18T04:40:15Z</time>
      </trkpt>
      <trkpt lat="34.74141108" lon="135.17752245">
        <ele>482.39</ele>
        <time>2026-09-18T04:40:26Z</time>
      </trkpt>
      <trkpt lat="34.74149393" lon="135.17747594">
        <ele>483.49</ele>
        <time>2026-09-18T04:40:36Z</time>
      </trkpt>
      <trkpt lat="34.74155918" lon="135.17739406">
        <ele>483.12</ele>
        <time>2026-09-18T04:40:46Z</time>
      </trkpt>
      <trkpt lat="34.74162683" lon="135.17731992">
        <ele>481.81</ele>
        <time>2026-09-18T04:40:56Z</time>
      </trkpt>
      <trkpt lat="34.74170365" lon="135.17725664">
        <ele>480.96</ele>
        <time>2026-09-18T04:41:06Z</time>
      </trkpt>
      <trkpt lat="34.74178472" lon="135.17719462">
        <ele>481.05</ele>
        <time>2026-09-18T04:41:16Z</time>
      </trkpt>
      <trkpt lat="34.74187307" lon="135.17715089">
        <ele>481.3</ele>
        <time>2026-09-18T04:41:26Z</time>
      </trkpt>
    </trkseg>
  </trk>
</gpx>