<?xml version='1.0' encoding='UTF-8' standalone='yes' ?>
<gpx xmlns="http://www.topografix.com/GPX/1/1" xmlns:geotracker="http://ilyabogdanovich.com/gpx/extensions/geotracker" xmlns:xsi="http://www.w3.org/2001/XMLSchema-instance" xsi:schemaLocation="http://www.topografix.com/GPX/1/1 http://www.topografix.com/GPX/1/1/gpx.xsd" version="1.1" creator="Recorded in Geo Tracker for Android from Ilya Bogdanovich">
  <metadata>
    <name>2026/09/10 14:20:01</name>
    <author>
      <name>Recorded in Geo Tracker for Android from Ilya Bogdanovich</name>
      <link href="https://play.google.com/store/apps/details?id=com.ilyabogdanovich.geotracker" />
    </author>
    <link href="https://play.google.com/store/apps/details?id=com.ilyabogdanovich.geotracker" />
    <time>2026-09-10T05:20:01Z</time>
  </metadata>
  <wpt lat="42.60165927" lon="141.83137111">
    <ele>31</ele>
    <time>2026-09-10T05:42:04Z</time>
    <name>Stop for ~4 min</name>
    <desc>Elevation: 31 m
Time from start: 00:22:02
Distance from start: 1.01 km</desc>
    <extensions>
      <geotracker:meta emoji="⏱️" />
    </extensions>
  </wpt>
  <wpt lat="42.60145487" lon="141.8302388">
    <ele>32</ele>
    <time>2026-09-10T05:52:39Z</time>
    <name>Stop for ~8 min</name>
    <desc>Elevation: 32 m
Time from start: 00:32:37
Distance from start: 1.14 km</desc>
    <extensions>
      <geotracker:meta emoji="⏱️" />
    </extensions>
  </wpt>
  <wpt lat="42.6030163" lon="141.83017108">
    <ele>30</ele>
    <time>2026-09-10T06:44:14Z</time>
    <name>Stop for ~2 min</name>
    <desc>Elevation: 30 m
Time from start: 01:24:12
Distance from start: 2.27 km</desc>
    <extensions>
      <geotracker:meta emoji="⏱️" />
    </extensions>
  </wpt>
  <trk>
    <name>2026/09/10 14:20:01</name>
    <src>Recorded in Geo Tracker for Android from Ilya Bogdanovich</src>
    <link href="https://play.google.com/store/apps/details?id=com.ilyabogdanovich.geotracker" />
    <extensions>
      <geotracker:meta>
        <geotracker:length>3117.09</geotracker:length>
        <geotracker:duration>6006282</geotracker:duration>
        <geotracker:creationtime>2026-09-10T05:20:01Z</geotracker:creationtime>
        <geotracker:activity>0</geotracker:activity>
      </geotracker:meta>
    </extensions>
    <trkseg>
      <trkpt lat="42.60671955" lon="141.83658617">
        <ele>35</ele>
        <time>2026-09-10T05:20:05Z</time>
      </trkpt>
      <trkpt lat="42.60671313" lon="141.83641585">
        <ele>33</ele>
        <time>2026-09-10T05:20:58Z</time>
      </trkpt>
      <trkpt lat="42.60674369" lon="141.83629171">
        <ele>34</ele>
        <time>2026-09-10T05:21:11Z</time>
      </trkpt>
      <trkpt lat="42.60679964" lon="141.83618358">
        <ele>34</ele>
        <time>2026-09-10T05:21:20Z</time>
      </trkpt>
      <trkpt lat="42.6068516" lon="141.83606875">
        <ele>35</ele>
        <time>2026-09-10T05:21:31Z</time>
      </trkpt>
      <trkpt lat="42.60686598" lon="141.83594311">
        <ele>35</ele>
        <time>2026-09-10T05:21:42Z</time>
      </trkpt>
      <trkpt lat="42.606877" lon="141.83581822">
        <ele>33</ele>
        <time>2026-09-10T05:21:50Z</time>
      </trkpt>
      <trkpt lat="42.60695793" lon="141.83572769">
        <ele>31</ele>
        <time>2026-09-10T05:22:03Z</time>
      </trkpt>
      <trkpt lat="42.60698416" lon="141.83560858">
        <ele>30</ele>
        <time>2026-09-10T05:22:11Z</time>
      </trkpt>
      <trkpt lat="42.60701836" lon="141.83548495">
        <ele>31</ele>
        <time>2026-09-10T05:22:20Z</time>
      </trkpt>
      <trkpt lat="42.607049" lon="141.83536903">
        <ele>32</ele>
        <time>2026-09-10T05:22:28Z</time>
      </trkpt>
      <trkpt lat="42.60708156" lon="141.8352485">
        <ele>34</ele>
        <time>2026-09-10T05:22:39Z</time>
      </trkpt>
      <trkpt lat="42.60712326" lon="141.83512948">
        <ele>34</ele>
        <time>2026-09-10T05:22:48Z</time>
      </trkpt>
      <trkpt lat="42.60716031" lon="141.83500006">
        <ele>35</ele>
        <time>2026-09-10T05:22:57Z</time>
      </trkpt>
      <trkpt lat="42.60721223" lon="141.83489218">
        <ele>34</ele>
        <time>2026-09-10T05:23:07Z</time>
      </trkpt>
      <trkpt lat="42.60726726" lon="141.83478883">
        <ele>33</ele>
        <time>2026-09-10T05:23:15Z</time>
      </trkpt>
      <trkpt lat="42.60729706" lon="141.8346616">
        <ele>33</ele>
        <time>2026-09-10T05:23:25Z</time>
      </trkpt>
      <trkpt lat="42.60733566" lon="141.83454568">
        <ele>33</ele>
        <time>2026-09-10T05:23:34Z</time>
      </trkpt>
      <trkpt lat="42.607387" lon="141.83444174">
        <ele>32</ele>
        <time>2026-09-10T05:23:43Z</time>
      </trkpt>
      <trkpt lat="42.60739571" lon="141.8343047">
        <ele>31</ele>
        <time>2026-09-10T05:23:52Z</time>
      </trkpt>
      <trkpt lat="42.60740422" lon="141.83417">
        <ele>29</ele>
        <time>2026-09-10T05:24:01Z</time>
      </trkpt>
      <trkpt lat="42.60744995" lon="141.83405332">
        <ele>31</ele>
        <time>2026-09-10T05:24:10Z</time>
      </trkpt>
      <trkpt lat="42.60748787" lon="141.83393321">
        <ele>32</ele>
        <time>2026-09-10T05:24:21Z</time>
      </trkpt>
      <trkpt lat="42.60743591" lon="141.83380446">
        <ele>33</ele>
        <time>2026-09-10T05:24:30Z</time>
      </trkpt>
      <trkpt lat="42.60735644" lon="141.83371704">
        <ele>33</ele>
        <time>2026-09-10T05:24:40Z</time>
      </trkpt>
      <trkpt lat="42.60725942" lon="141.83368008">
        <ele>34</ele>
        <time>2026-09-10T05:24:47Z</time>
      </trkpt>
      <trkpt lat="42.60716781" lon="141.83360187">
        <ele>33</ele>
        <time>2026-09-10T05:25:02Z</time>
      </trkpt>
      <trkpt lat="42.60708818" lon="141.8335266">
        <ele>34</ele>
        <time>2026-09-10T05:25:09Z</time>
      </trkpt>
      <trkpt lat="42.60699912" lon="141.83346709">
        <ele>35</ele>
        <time>2026-09-10T05:25:18Z</time>
      </trkpt>
      <trkpt lat="42.60689687" lon="141.83341496">
        <ele>35</ele>
        <time>2026-09-10T05:25:29Z</time>
      </trkpt>
      <trkpt lat="42.60681242" lon="141.83334639">
        <ele>36</ele>
        <time>2026-09-10T05:25:37Z</time>
      </trkpt>
      <trkpt lat="42.60674033" lon="141.83326509">
        <ele>37</ele>
        <time>2026-09-10T05:25:47Z</time>
      </trkpt>
      <trkpt lat="42.60665601" lon="141.83321555">
        <ele>36</ele>
        <time>2026-09-10T05:25:55Z</time>
      </trkpt>
      <trkpt lat="42.60658099" lon="141.8331397">
        <ele>36</ele>
        <time>2026-09-10T05:26:05Z</time>
      </trkpt>
      <trkpt lat="42.60649399" lon="141.83309435">
        <ele>34</ele>
        <time>2026-09-10T05:26:14Z</time>
      </trkpt>
      <trkpt lat="42.60641558" lon="141.83303249">
        <ele>34</ele>
        <time>2026-09-10T05:26:23Z</time>
      </trkpt>
      <trkpt lat="42.60633264" lon="141.83296577">
        <ele>35</ele>
        <time>2026-09-10T05:26:33Z</time>
      </trkpt>
      <trkpt lat="42.60624291" lon="141.8329211">
        <ele>34</ele>
        <time>2026-09-10T05:26:42Z</time>
      </trkpt>
      <trkpt lat="42.60615787" lon="141.83286879">
        <ele>36</ele>
        <time>2026-09-10T05:26:50Z</time>
      </trkpt>
      <trkpt lat="42.60607137" lon="141.83281607">
        <ele>31</ele>
        <time>2026-09-10T05:27:00Z</time>
      </trkpt>
      <trkpt lat="42.60598194" lon="141.83275396">
        <ele>34</ele>
        <time>2026-09-10T05:27:08Z</time>
      </trkpt>
      <trkpt lat="42.60589439" lon="141.83269738">
        <ele>33</ele>
        <time>2026-09-10T05:27:17Z</time>
      </trkpt>
      <trkpt lat="42.6058107" lon="141.83264139">
        <ele>33</ele>
        <time>2026-09-10T05:27:28Z</time>
      </trkpt>
      <trkpt lat="42.60573119" lon="141.83258096">
        <ele>32</ele>
        <time>2026-09-10T05:27:35Z</time>
      </trkpt>
      <trkpt lat="42.60564553" lon="141.83251348">
        <ele>33</ele>
        <time>2026-09-10T05:27:44Z</time>
      </trkpt>
      <trkpt lat="42.60556628" lon="141.8324533">
        <ele>33</ele>
        <time>2026-09-10T05:27:52Z</time>
      </trkpt>
      <trkpt lat="42.60548326" lon="141.83240443">
        <ele>35</ele>
        <time>2026-09-10T05:28:01Z</time>
      </trkpt>
      <trkpt lat="42.60540107" lon="141.83235431">
        <ele>36</ele>
        <time>2026-09-10T05:28:09Z</time>
      </trkpt>
      <trkpt lat="42.605316" lon="141.83229472">
        <ele>35</ele>
        <time>2026-09-10T05:28:17Z</time>
      </trkpt>
      <trkpt lat="42.60522975" lon="141.83223881">
        <ele>35</ele>
        <time>2026-09-10T05:28:26Z</time>
      </trkpt>
      <trkpt lat="42.60513583" lon="141.83218768">
        <ele>36</ele>
        <time>2026-09-10T05:28:36Z</time>
      </trkpt>
      <trkpt lat="42.60504321" lon="141.83212976">
        <ele>35</ele>
        <time>2026-09-10T05:28:45Z</time>
      </trkpt>
      <trkpt lat="42.6049627" lon="141.83207016">
        <ele>35</ele>
        <time>2026-09-10T05:28:54Z</time>
      </trkpt>
      <trkpt lat="42.60487402" lon="141.83201225">
        <ele>34</ele>
        <time>2026-09-10T05:29:05Z</time>
      </trkpt>
      <trkpt lat="42.60478936" lon="141.83194712">
        <ele>35</ele>
        <time>2026-09-10T05:29:14Z</time>
      </trkpt>
      <trkpt lat="42.60470068" lon="141.831884">
        <ele>35</ele>
        <time>2026-09-10T05:29:23Z</time>
      </trkpt>
      <trkpt lat="42.60461728" lon="141.83181854">
        <ele>34</ele>
        <time>2026-09-10T05:29:32Z</time>
      </trkpt>
      <trkpt lat="42.60452554" lon="141.83176573">
        <ele>38</ele>
        <time>2026-09-10T05:29:43Z</time>
      </trkpt>
      <trkpt lat="42.60443066" lon="141.8317856">
        <ele>34</ele>
        <time>2026-09-10T05:30:00Z</time>
      </trkpt>
      <trkpt lat="42.6043307" lon="141.83179851">
        <ele>32</ele>
        <time>2026-09-10T05:30:10Z</time>
      </trkpt>
      <trkpt lat="42.60423599" lon="141.83175048">
        <ele>31</ele>
        <time>2026-09-10T05:30:20Z</time>
      </trkpt>
      <trkpt lat="42.60416395" lon="141.8316644">
        <ele>29</ele>
        <time>2026-09-10T05:30:28Z</time>
      </trkpt>
      <trkpt lat="42.60410435" lon="141.8315706">
        <ele>32</ele>
        <time>2026-09-10T05:30:37Z</time>
      </trkpt>
      <trkpt lat="42.60403331" lon="141.83147782">
        <ele>31</ele>
        <time>2026-09-10T05:30:46Z</time>
      </trkpt>
      <trkpt lat="42.60396747" lon="141.83138461">
        <ele>32</ele>
        <time>2026-09-10T05:30:55Z</time>
      </trkpt>
      <trkpt lat="42.6038938" lon="141.83130339">
        <ele>31</ele>
        <time>2026-09-10T05:31:04Z</time>
      </trkpt>
      <trkpt lat="42.60380667" lon="141.83124388">
        <ele>30</ele>
        <time>2026-09-10T05:31:14Z</time>
      </trkpt>
      <trkpt lat="42.60372289" lon="141.83119526">
        <ele>28</ele>
        <time>2026-09-10T05:31:25Z</time>
      </trkpt>
      <trkpt lat="42.60364368" lon="141.83113298">
        <ele>29</ele>
        <time>2026-09-10T05:31:35Z</time>
      </trkpt>
      <trkpt lat="42.6035599" lon="141.83108705">
        <ele>31</ele>
        <time>2026-09-10T05:31:47Z</time>
      </trkpt>
      <trkpt lat="42.60345366" lon="141.83106375">
        <ele>32</ele>
        <time>2026-09-10T05:32:01Z</time>
      </trkpt>
      <trkpt lat="42.60342026" lon="141.83118286">
        <ele>31</ele>
        <time>2026-09-10T05:32:29Z</time>
      </trkpt>
      <trkpt lat="42.60339097" lon="141.8313049">
        <ele>30</ele>
        <time>2026-09-10T05:32:43Z</time>
      </trkpt>
      <trkpt lat="42.60335329" lon="141.83142459">
        <ele>30</ele>
        <time>2026-09-10T05:32:53Z</time>
      </trkpt>
      <trkpt lat="42.60330153" lon="141.83153523">
        <ele>30</ele>
        <time>2026-09-10T05:33:02Z</time>
      </trkpt>
      <trkpt lat="42.60324785" lon="141.83163363">
        <ele>30</ele>
        <time>2026-09-10T05:33:10Z</time>
      </trkpt>
      <trkpt lat="42.60318154" lon="141.83171745">
        <ele>30</ele>
        <time>2026-09-10T05:33:22Z</time>
      </trkpt>
      <trkpt lat="42.60312907" lon="141.83183027">
        <ele>31</ele>
        <time>2026-09-10T05:34:45Z</time>
      </trkpt>
      <trkpt lat="42.60304132" lon="141.83196011">
        <ele>32</ele>
        <time>2026-09-10T05:34:59Z</time>
      </trkpt>
      <trkpt lat="42.60297321" lon="141.83205566">
        <ele>31</ele>
        <time>2026-09-10T05:35:08Z</time>
      </trkpt>
      <trkpt lat="42.60288277" lon="141.83205189">
        <ele>31</ele>
        <time>2026-09-10T05:35:17Z</time>
      </trkpt>
      <trkpt lat="42.60279032" lon="141.83202247">
        <ele>31</ele>
        <time>2026-09-10T05:35:39Z</time>
      </trkpt>
      <trkpt lat="42.60269711" lon="141.83200118">
        <ele>31</ele>
        <time>2026-09-10T05:35:50Z</time>
      </trkpt>
      <trkpt lat="42.6026068" lon="141.83197796">
        <ele>33</ele>
        <time>2026-09-10T05:35:59Z</time>
      </trkpt>
      <trkpt lat="42.60252092" lon="141.8319125">
        <ele>33</ele>
        <time>2026-09-10T05:36:09Z</time>
      </trkpt>
      <trkpt lat="42.60243451" lon="141.83186682">
        <ele>33</ele>
        <time>2026-09-10T05:36:18Z</time>
      </trkpt>
      <trkpt lat="42.6023452" lon="141.83184721">
        <ele>33</ele>
        <time>2026-09-10T05:36:28Z</time>
      </trkpt>
      <trkpt lat="42.60224361" lon="141.83184695">
        <ele>31</ele>
        <time>2026-09-10T05:36:39Z</time>
      </trkpt>
      <trkpt lat="42.60215288" lon="141.83182835">
        <ele>32</ele>
        <time>2026-09-10T05:36:49Z</time>
      </trkpt>
      <trkpt lat="42.60206277" lon="141.8318084">
        <ele>33</ele>
        <time>2026-09-10T05:36:57Z</time>
      </trkpt>
      <trkpt lat="42.60197204" lon="141.83179088">
        <ele>33</ele>
        <time>2026-09-10T05:37:07Z</time>
      </trkpt>
      <trkpt lat="42.60188612" lon="141.83173338">
        <ele>32</ele>
        <time>2026-09-10T05:37:17Z</time>
      </trkpt>
      <trkpt lat="42.60180662" lon="141.83167093">
        <ele>32</ele>
        <time>2026-09-10T05:37:27Z</time>
      </trkpt>
      <trkpt lat="42.60173156" lon="141.83160262">
        <ele>32</ele>
        <time>2026-09-10T05:37:52Z</time>
      </trkpt>
      <trkpt lat="42.60168789" lon="141.83149517">
        <ele>32</ele>
        <time>2026-09-10T05:38:02Z</time>
      </trkpt>
      <trkpt lat="42.60166082" lon="141.83138855">
        <ele>31</ele>
        <time>2026-09-10T05:40:03Z</time>
      </trkpt>
      <trkpt lat="42.60165927" lon="141.83137111">
        <ele>31</ele>
        <time>2026-09-10T05:42:04Z</time>
      </trkpt>
      <trkpt lat="42.60163362" lon="141.83131403">
        <ele>30</ele>
        <time>2026-09-10T05:44:23Z</time>
      </trkpt>
      <trkpt lat="42.60159707" lon="141.83119526">
        <ele>30</ele>
        <time>2026-09-10T05:45:01Z</time>
      </trkpt>
      <trkpt lat="42.6014998" lon="141.83116073">
        <ele>32</ele>
        <time>2026-09-10T05:45:11Z</time>
      </trkpt>
      <trkpt lat="42.60141552" lon="141.83110449">
        <ele>31</ele>
        <time>2026-09-10T05:46:12Z</time>
      </trkpt>
      <trkpt lat="42.60133832" lon="141.83102922">
        <ele>31</ele>
        <time>2026-09-10T05:46:27Z</time>
      </trkpt>
      <trkpt lat="42.60127634" lon="141.8309324">
        <ele>31</ele>
        <time>2026-09-10T05:47:14Z</time>
      </trkpt>
      <trkpt lat="42.60123317" lon="141.83082218">
        <ele>32</ele>
        <time>2026-09-10T05:47:25Z</time>
      </trkpt>
      <trkpt lat="42.60121456" lon="141.83069319">
        <ele>30</ele>
        <time>2026-09-10T05:47:36Z</time>
      </trkpt>
      <trkpt lat="42.60121611" lon="141.83056972">
        <ele>29</ele>
        <time>2026-09-10T05:48:01Z</time>
      </trkpt>
      <trkpt lat="42.60127324" lon="141.83047291">
        <ele>31</ele>
        <time>2026-09-10T05:48:15Z</time>
      </trkpt>
      <trkpt lat="42.60133878" lon="141.83037886">
        <ele>30</ele>
        <time>2026-09-10T05:48:27Z</time>
      </trkpt>
      <trkpt lat="42.60140881" lon="141.83030192">
        <ele>31</ele>
        <time>2026-09-10T05:48:37Z</time>
      </trkpt>
      <trkpt lat="42.60144444" lon="141.83024475">
        <ele>32</ele>
        <time>2026-09-10T05:50:38Z</time>
      </trkpt>
      <trkpt lat="42.60145487" lon="141.8302388">
        <ele>32</ele>
        <time>2026-09-10T05:52:39Z</time>
      </trkpt>
      <trkpt lat="42.60146556" lon="141.83023889">
        <ele>32</ele>
        <time>2026-09-10T05:54:45Z</time>
      </trkpt>
      <trkpt lat="42.60153132" lon="141.83018046">
        <ele>31</ele>
        <time>2026-09-10T05:56:50Z</time>
      </trkpt>
      <trkpt lat="42.60153706" lon="141.83017476">
        <ele>31</ele>
        <time>2026-09-10T05:58:56Z</time>
      </trkpt>
      <trkpt lat="42.60145236" lon="141.8302362">
        <ele>29</ele>
        <time>2026-09-10T05:59:15Z</time>
      </trkpt>
      <trkpt lat="42.60138476" lon="141.83032581">
        <ele>29</ele>
        <time>2026-09-10T05:59:29Z</time>
      </trkpt>
      <trkpt lat="42.60131477" lon="141.83040468">
        <ele>29</ele>
        <time>2026-09-10T05:59:42Z</time>
      </trkpt>
      <trkpt lat="42.60124323" lon="141.83049252">
        <ele>29</ele>
        <time>2026-09-10T05:59:52Z</time>
      </trkpt>
      <trkpt lat="42.60116733" lon="141.83056695">
        <ele>28</ele>
        <time>2026-09-10T06:00:02Z</time>
      </trkpt>
      <trkpt lat="42.6010841" lon="141.83062613">
        <ele>28</ele>
        <time>2026-09-10T06:00:12Z</time>
      </trkpt>
      <trkpt lat="42.60099529" lon="141.83067475">
        <ele>29</ele>
        <time>2026-09-10T06:00:22Z</time>
      </trkpt>
      <trkpt lat="42.6008994" lon="141.8307133">
        <ele>30</ele>
        <time>2026-09-10T06:00:41Z</time>
      </trkpt>
      <trkpt lat="42.60080532" lon="141.83072956">
        <ele>30</ele>
        <time>2026-09-10T06:00:52Z</time>
      </trkpt>
      <trkpt lat="42.60070888" lon="141.830747">
        <ele>30</ele>
        <time>2026-09-10T06:01:04Z</time>
      </trkpt>
      <trkpt lat="42.60062008" lon="141.83079469">
        <ele>29</ele>
        <time>2026-09-10T06:01:15Z</time>
      </trkpt>
      <trkpt lat="42.60053789" lon="141.83084942">
        <ele>29</ele>
        <time>2026-09-10T06:01:32Z</time>
      </trkpt>
      <trkpt lat="42.60045277" lon="141.83089519">
        <ele>30</ele>
        <time>2026-09-10T06:01:43Z</time>
      </trkpt>
      <trkpt lat="42.60036355" lon="141.83092134">
        <ele>29</ele>
        <time>2026-09-10T06:01:54Z</time>
      </trkpt>
      <trkpt lat="42.60026598" lon="141.83092914">
        <ele>32</ele>
        <time>2026-09-10T06:02:24Z</time>
      </trkpt>
      <trkpt lat="42.60017156" lon="141.83092142">
        <ele>30</ele>
        <time>2026-09-10T06:02:35Z</time>
      </trkpt>
      <trkpt lat="42.60008183" lon="141.83088672">
        <ele>30</ele>
        <time>2026-09-10T06:02:47Z</time>
      </trkpt>
      <trkpt lat="42.59999223" lon="141.83086552">
        <ele>29</ele>
        <time>2026-09-10T06:03:04Z</time>
      </trkpt>
      <trkpt lat="42.5999038" lon="141.83082411">
        <ele>33</ele>
        <time>2026-09-10T06:03:39Z</time>
      </trkpt>
      <trkpt lat="42.59983369" lon="141.83087507">
        <ele>30</ele>
        <time>2026-09-10T06:05:40Z</time>
      </trkpt>
      <trkpt lat="42.59983117" lon="141.83092461">
        <ele>29</ele>
        <time>2026-09-10T06:07:41Z</time>
      </trkpt>
      <trkpt lat="42.59977606" lon="141.83102159">
        <ele>29</ele>
        <time>2026-09-10T06:09:31Z</time>
      </trkpt>
      <trkpt lat="42.5997251" lon="141.83111354">
        <ele>30</ele>
        <time>2026-09-10T06:11:32Z</time>
      </trkpt>
      <trkpt lat="42.59970058" lon="141.83121429">
        <ele>30</ele>
        <time>2026-09-10T06:13:33Z</time>
      </trkpt>
      <trkpt lat="42.59965352" lon="141.83132501">
        <ele>32</ele>
        <time>2026-09-10T06:14:12Z</time>
      </trkpt>
      <trkpt lat="42.59962192" lon="141.83144353">
        <ele>29</ele>
        <time>2026-09-10T06:14:38Z</time>
      </trkpt>
      <trkpt lat="42.5995842" lon="141.83155987">
        <ele>31</ele>
        <time>2026-09-10T06:15:33Z</time>
      </trkpt>
      <trkpt lat="42.59964849" lon="141.8316473">
        <ele>31</ele>
        <time>2026-09-10T06:17:00Z</time>
      </trkpt>
      <trkpt lat="42.59970896" lon="141.83173832">
        <ele>31</ele>
        <time>2026-09-10T06:17:27Z</time>
      </trkpt>
      <trkpt lat="42.59979647" lon="141.83177101">
        <ele>29</ele>
        <time>2026-09-10T06:19:25Z</time>
      </trkpt>
      <trkpt lat="42.59988448" lon="141.8318032">
        <ele>29</ele>
        <time>2026-09-10T06:20:05Z</time>
      </trkpt>
      <trkpt lat="42.5998077" lon="141.83172978">
        <ele>30</ele>
        <time>2026-09-10T06:21:03Z</time>
      </trkpt>
      <trkpt lat="42.5997344" lon="141.83165342">
        <ele>31</ele>
        <time>2026-09-10T06:21:13Z</time>
      </trkpt>
      <trkpt lat="42.59966207" lon="141.83157873">
        <ele>31</ele>
        <time>2026-09-10T06:21:30Z</time>
      </trkpt>
      <trkpt lat="42.59963939" lon="141.83145627">
        <ele>33</ele>
        <time>2026-09-10T06:21:43Z</time>
      </trkpt>
      <trkpt lat="42.59969715" lon="141.83136173">
        <ele>31</ele>
        <time>2026-09-10T06:22:30Z</time>
      </trkpt>
      <trkpt lat="42.59973633" lon="141.8312417">
        <ele>31</ele>
        <time>2026-09-10T06:22:41Z</time>
      </trkpt>
      <trkpt lat="42.59979178" lon="141.83113692">
        <ele>31</ele>
        <time>2026-09-10T06:22:54Z</time>
      </trkpt>
      <trkpt lat="42.59988218" lon="141.83110532">
        <ele>31</ele>
        <time>2026-09-10T06:23:09Z</time>
      </trkpt>
      <trkpt lat="42.59997375" lon="141.83110801">
        <ele>31</ele>
        <time>2026-09-10T06:23:19Z</time>
      </trkpt>
      <trkpt lat="42.60006214" lon="141.83107708">
        <ele>30</ele>
        <time>2026-09-10T06:23:31Z</time>
      </trkpt>
      <trkpt lat="42.60015589" lon="141.83104648">
        <ele>30</ele>
        <time>2026-09-10T06:23:42Z</time>
      </trkpt>
      <trkpt lat="42.60024507" lon="141.83102486">
        <ele>31</ele>
        <time>2026-09-10T06:23:54Z</time>
      </trkpt>
      <trkpt lat="42.60034071" lon="141.83102318">
        <ele>32</ele>
        <time>2026-09-10T06:24:09Z</time>
      </trkpt>
      <trkpt lat="42.60043157" lon="141.83098731">
        <ele>30</ele>
        <time>2026-09-10T06:24:24Z</time>
      </trkpt>
      <trkpt lat="42.60051702" lon="141.83094339">
        <ele>31</ele>
        <time>2026-09-10T06:24:33Z</time>
      </trkpt>
      <trkpt lat="42.60060851" lon="141.83090114">
        <ele>32</ele>
        <time>2026-09-10T06:24:47Z</time>
      </trkpt>
      <trkpt lat="42.60069421" lon="141.83084859">
        <ele>31</ele>
        <time>2026-09-10T06:24:59Z</time>
      </trkpt>
      <trkpt lat="42.60077938" lon="141.83079762">
        <ele>31</ele>
        <time>2026-09-10T06:25:10Z</time>
      </trkpt>
      <trkpt lat="42.6008665" lon="141.8307563">
        <ele>32</ele>
        <time>2026-09-10T06:25:23Z</time>
      </trkpt>
      <trkpt lat="42.60096311" lon="141.8307444">
        <ele>31</ele>
        <time>2026-09-10T06:25:35Z</time>
      </trkpt>
      <trkpt lat="42.60105879" lon="141.83072126">
        <ele>31</ele>
        <time>2026-09-10T06:25:46Z</time>
      </trkpt>
      <trkpt lat="42.60115568" lon="141.83070475">
        <ele>31</ele>
        <time>2026-09-10T06:25:57Z</time>
      </trkpt>
      <trkpt lat="42.601247" lon="141.83068112">
        <ele>31</ele>
        <time>2026-09-10T06:26:09Z</time>
      </trkpt>
      <trkpt lat="42.60134293" lon="141.83067944">
        <ele>32</ele>
        <time>2026-09-10T06:26:22Z</time>
      </trkpt>
      <trkpt lat="42.60139427" lon="141.83078337">
        <ele>28</ele>
        <time>2026-09-10T06:27:07Z</time>
      </trkpt>
      <trkpt lat="42.60140517" lon="141.83090709">
        <ele>29</ele>
        <time>2026-09-10T06:27:19Z</time>
      </trkpt>
      <trkpt lat="42.60146501" lon="141.83100826">
        <ele>29</ele>
        <time>2026-09-10T06:27:30Z</time>
      </trkpt>
      <trkpt lat="42.60153957" lon="141.8310847">
        <ele>29</ele>
        <time>2026-09-10T06:27:42Z</time>
      </trkpt>
      <trkpt lat="42.60161073" lon="141.83116316">
        <ele>29</ele>
        <time>2026-09-10T06:27:55Z</time>
      </trkpt>
      <trkpt lat="42.60168751" lon="141.83124471">
        <ele>28</ele>
        <time>2026-09-10T06:28:08Z</time>
      </trkpt>
      <trkpt lat="42.60167339" lon="141.83137053">
        <ele>29</ele>
        <time>2026-09-10T06:28:20Z</time>
      </trkpt>
      <trkpt lat="42.60167301" lon="141.83150271">
        <ele>28</ele>
        <time>2026-09-10T06:28:33Z</time>
      </trkpt>
      <trkpt lat="42.60173189" lon="141.83161117">
        <ele>27</ele>
        <time>2026-09-10T06:28:45Z</time>
      </trkpt>
      <trkpt lat="42.60180595" lon="141.83168988">
        <ele>29</ele>
        <time>2026-09-10T06:28:56Z</time>
      </trkpt>
      <trkpt lat="42.60188541" lon="141.83175098">
        <ele>29</ele>
        <time>2026-09-10T06:29:06Z</time>
      </trkpt>
      <trkpt lat="42.60197723" lon="141.83179365">
        <ele>29</ele>
        <time>2026-09-10T06:29:18Z</time>
      </trkpt>
      <trkpt lat="42.60206801" lon="141.83183153">
        <ele>30</ele>
        <time>2026-09-10T06:29:30Z</time>
      </trkpt>
      <trkpt lat="42.60215929" lon="141.83184679">
        <ele>30</ele>
        <time>2026-09-10T06:29:41Z</time>
      </trkpt>
      <trkpt lat="42.60225308" lon="141.83185483">
        <ele>31</ele>
        <time>2026-09-10T06:29:52Z</time>
      </trkpt>
      <trkpt lat="42.60235094" lon="141.83185182">
        <ele>32</ele>
        <time>2026-09-10T06:30:02Z</time>
      </trkpt>
      <trkpt lat="42.60244348" lon="141.83187805">
        <ele>32</ele>
        <time>2026-09-10T06:30:13Z</time>
      </trkpt>
      <trkpt lat="42.60253597" lon="141.8319156">
        <ele>31</ele>
        <time>2026-09-10T06:30:26Z</time>
      </trkpt>
      <trkpt lat="42.60262109" lon="141.8319638">
        <ele>29</ele>
        <time>2026-09-10T06:30:38Z</time>
      </trkpt>
      <trkpt lat="42.60272184" lon="141.83198081">
        <ele>30</ele>
        <time>2026-09-10T06:30:49Z</time>
      </trkpt>
      <trkpt lat="42.60280943" lon="141.83201903">
        <ele>30</ele>
        <time>2026-09-10T06:31:00Z</time>
      </trkpt>
      <trkpt lat="42.60290574" lon="141.8320684">
        <ele>30</ele>
        <time>2026-09-10T06:31:14Z</time>
      </trkpt>
      <trkpt lat="42.60299668" lon="141.83205592">
        <ele>30</ele>
        <time>2026-09-10T06:31:23Z</time>
      </trkpt>
      <trkpt lat="42.60307539" lon="141.83198484">
        <ele>30</ele>
        <time>2026-09-10T06:31:33Z</time>
      </trkpt>
      <trkpt lat="42.60312903" lon="141.83188241">
        <ele>30</ele>
        <time>2026-09-10T06:31:44Z</time>
      </trkpt>
      <trkpt lat="42.60318066" lon="141.83177227">
        <ele>32</ele>
        <time>2026-09-10T06:31:55Z</time>
      </trkpt>
      <trkpt lat="42.60323787" lon="141.83166859">
        <ele>32</ele>
        <time>2026-09-10T06:32:05Z</time>
      </trkpt>
      <trkpt lat="42.6033048" lon="141.83158024">
        <ele>32</ele>
        <time>2026-09-10T06:32:16Z</time>
      </trkpt>
      <trkpt lat="42.60335065" lon="141.8314691">
        <ele>32</ele>
        <time>2026-09-10T06:32:27Z</time>
      </trkpt>
      <trkpt lat="42.60337978" lon="141.83134387">
        <ele>31</ele>
        <time>2026-09-10T06:32:40Z</time>
      </trkpt>
      <trkpt lat="42.60341993" lon="141.83123407">
        <ele>30</ele>
        <time>2026-09-10T06:32:51Z</time>
      </trkpt>
      <trkpt lat="42.60344725" lon="141.83111119">
        <ele>30</ele>
        <time>2026-09-10T06:33:01Z</time>
      </trkpt>
      <trkpt lat="42.60346653" lon="141.8309915">
        <ele>30</ele>
        <time>2026-09-10T06:33:12Z</time>
      </trkpt>
      <trkpt lat="42.60347374" lon="141.83085999">
        <ele>29</ele>
        <time>2026-09-10T06:33:24Z</time>
      </trkpt>
      <trkpt lat="42.60347965" lon="141.83073551">
        <ele>29</ele>
        <time>2026-09-10T06:33:35Z</time>
      </trkpt>
      <trkpt lat="42.60347244" lon="141.83061255">
        <ele>29</ele>
        <time>2026-09-10T06:33:46Z</time>
      </trkpt>
      <trkpt lat="42.60346364" lon="141.83048313">
        <ele>30</ele>
        <time>2026-09-10T06:33:56Z</time>
      </trkpt>
      <trkpt lat="42.60346783" lon="141.83035942">
        <ele>30</ele>
        <time>2026-09-10T06:34:07Z</time>
      </trkpt>
      <trkpt lat="42.60344511" lon="141.83023252">
        <ele>32</ele>
        <time>2026-09-10T06:34:18Z</time>
      </trkpt>
      <trkpt lat="42.60338376" lon="141.83013168">
        <ele>31</ele>
        <time>2026-09-10T06:34:32Z</time>
      </trkpt>
      <trkpt lat="42.60332437" lon="141.83002875">
        <ele>32</ele>
        <time>2026-09-10T06:34:44Z</time>
      </trkpt>
      <trkpt lat="42.60333296" lon="141.82990294">
        <ele>30</ele>
        <time>2026-09-10T06:35:05Z</time>
      </trkpt>
      <trkpt lat="42.60333623" lon="141.82977646">
        <ele>31</ele>
        <time>2026-09-10T06:35:19Z</time>
      </trkpt>
      <trkpt lat="42.60326968" lon="141.82969205">
        <ele>31</ele>
        <time>2026-09-10T06:35:35Z</time>
      </trkpt>
      <trkpt lat="42.60322035" lon="141.82961988">
        <ele>29</ele>
        <time>2026-09-10T06:37:36Z</time>
      </trkpt>
      <trkpt lat="42.60328946" lon="141.82970052">
        <ele>29</ele>
        <time>2026-09-10T06:38:39Z</time>
      </trkpt>
      <trkpt lat="42.60337102" lon="141.8297954">
        <ele>29</ele>
        <time>2026-09-10T06:38:55Z</time>
      </trkpt>
      <trkpt lat="42.60331478" lon="141.82989213">
        <ele>28</ele>
        <time>2026-09-10T06:39:07Z</time>
      </trkpt>
      <trkpt lat="42.60324684" lon="141.82998676">
        <ele>28</ele>
        <time>2026-09-10T06:39:28Z</time>
      </trkpt>
      <trkpt lat="42.60318041" lon="141.83007125">
        <ele>30</ele>
        <time>2026-09-10T06:39:50Z</time>
      </trkpt>
      <trkpt lat="42.60309496" lon="141.83011735">
        <ele>29</ele>
        <time>2026-09-10T06:40:08Z</time>
      </trkpt>
      <trkpt lat="42.60301139" lon="141.83017116">
        <ele>32</ele>
        <time>2026-09-10T06:40:45Z</time>
      </trkpt>
      <trkpt lat="42.60291823" lon="141.83018382">
        <ele>32</ele>
        <time>2026-09-10T06:42:22Z</time>
      </trkpt>
      <trkpt lat="42.6030163" lon="141.83017108">
        <ele>30</ele>
        <time>2026-09-10T06:44:14Z</time>
      </trkpt>
      <trkpt lat="42.60310942" lon="141.83015901">
        <ele>29</ele>
        <time>2026-09-10T06:44:40Z</time>
      </trkpt>
      <trkpt lat="42.60320581" lon="141.83017485">
        <ele>29</ele>
        <time>2026-09-10T06:45:20Z</time>
      </trkpt>
      <trkpt lat="42.60327253" lon="141.83027074">
        <ele>30</ele>
        <time>2026-09-10T06:45:35Z</time>
      </trkpt>
      <trkpt lat="42.60336637" lon="141.83027325">
        <ele>29</ele>
        <time>2026-09-10T06:45:48Z</time>
      </trkpt>
      <trkpt lat="42.60340853" lon="141.83038808">
        <ele>30</ele>
        <time>2026-09-10T06:46:01Z</time>
      </trkpt>
      <trkpt lat="42.60346904" lon="141.83048112">
        <ele>30</ele>
        <time>2026-09-10T06:46:12Z</time>
      </trkpt>
      <trkpt lat="42.60347663" lon="141.83061431">
        <ele>30</ele>
        <time>2026-09-10T06:46:24Z</time>
      </trkpt>
      <trkpt lat="42.60348715" lon="141.83074499">
        <ele>30</ele>
        <time>2026-09-10T06:46:36Z</time>
      </trkpt>
      <trkpt lat="42.60350261" lon="141.83086594">
        <ele>30</ele>
        <time>2026-09-10T06:46:47Z</time>
      </trkpt>
      <trkpt lat="42.60349737" lon="141.83099636">
        <ele>30</ele>
        <time>2026-09-10T06:46:59Z</time>
      </trkpt>
      <trkpt lat="42.60355559" lon="141.83109242">
        <ele>28</ele>
        <time>2026-09-10T06:47:10Z</time>
      </trkpt>
      <trkpt lat="42.60364456" lon="141.83114598">
        <ele>29</ele>
        <time>2026-09-10T06:47:21Z</time>
      </trkpt>
      <trkpt lat="42.60372779" lon="141.83119719">
        <ele>30</ele>
        <time>2026-09-10T06:47:31Z</time>
      </trkpt>
      <trkpt lat="42.6038161" lon="141.83125737">
        <ele>30</ele>
        <time>2026-09-10T06:47:43Z</time>
      </trkpt>
      <trkpt lat="42.60390209" lon="141.83131152">
        <ele>30</ele>
        <time>2026-09-10T06:47:55Z</time>
      </trkpt>
      <trkpt lat="42.60398239" lon="141.83138478">
        <ele>31</ele>
        <time>2026-09-10T06:48:07Z</time>
      </trkpt>
      <trkpt lat="42.60404547" lon="141.83147388">
        <ele>31</ele>
        <time>2026-09-10T06:48:18Z</time>
      </trkpt>
      <trkpt lat="42.60413029" lon="141.8315328">
        <ele>33</ele>
        <time>2026-09-10T06:48:28Z</time>
      </trkpt>
      <trkpt lat="42.60418792" lon="141.83164042">
        <ele>31</ele>
        <time>2026-09-10T06:48:42Z</time>
      </trkpt>
      <trkpt lat="42.60424215" lon="141.83174662">
        <ele>32</ele>
        <time>2026-09-10T06:48:53Z</time>
      </trkpt>
      <trkpt lat="42.60432039" lon="141.83180806">
        <ele>30</ele>
        <time>2026-09-10T06:49:40Z</time>
      </trkpt>
      <trkpt lat="42.60441544" lon="141.83181158">
        <ele>32</ele>
        <time>2026-09-10T06:49:53Z</time>
      </trkpt>
      <trkpt lat="42.60451309" lon="141.83180756">
        <ele>33</ele>
        <time>2026-09-10T06:50:06Z</time>
      </trkpt>
      <trkpt lat="42.60460089" lon="141.83186229">
        <ele>32</ele>
        <time>2026-09-10T06:50:22Z</time>
      </trkpt>
      <trkpt lat="42.60468937" lon="141.83191761">
        <ele>33</ele>
        <time>2026-09-10T06:50:33Z</time>
      </trkpt>
      <trkpt lat="42.60476497" lon="141.83198827">
        <ele>33</ele>
        <time>2026-09-10T06:50:45Z</time>
      </trkpt>
      <trkpt lat="42.60485223" lon="141.83201845">
        <ele>33</ele>
        <time>2026-09-10T06:50:55Z</time>
      </trkpt>
      <trkpt lat="42.60492963" lon="141.83208433">
        <ele>33</ele>
        <time>2026-09-10T06:51:09Z</time>
      </trkpt>
      <trkpt lat="42.60500838" lon="141.83214761">
        <ele>33</ele>
        <time>2026-09-10T06:51:20Z</time>
      </trkpt>
      <trkpt lat="42.60509543" lon="141.8322057">
        <ele>33</ele>
        <time>2026-09-10T06:51:30Z</time>
      </trkpt>
      <trkpt lat="42.60518075" lon="141.83226379">
        <ele>34</ele>
        <time>2026-09-10T06:51:41Z</time>
      </trkpt>
      <trkpt lat="42.60526721" lon="141.83230779">
        <ele>33</ele>
        <time>2026-09-10T06:51:50Z</time>
      </trkpt>
      <trkpt lat="42.6053406" lon="141.83238591">
        <ele>33</ele>
        <time>2026-09-10T06:52:01Z</time>
      </trkpt>
      <trkpt lat="42.60542492" lon="141.8324326">
        <ele>33</ele>
        <time>2026-09-10T06:52:10Z</time>
      </trkpt>
      <trkpt lat="42.60550949" lon="141.83249052">
        <ele>33</ele>
        <time>2026-09-10T06:52:20Z</time>
      </trkpt>
      <trkpt lat="42.60559838" lon="141.83253645">
        <ele>33</ele>
        <time>2026-09-10T06:52:30Z</time>
      </trkpt>
      <trkpt lat="42.60568182" lon="141.83259387">
        <ele>33</ele>
        <time>2026-09-10T06:52:39Z</time>
      </trkpt>
      <trkpt lat="42.60576518" lon="141.83265053">
        <ele>33</ele>
        <time>2026-09-10T06:52:48Z</time>
      </trkpt>
      <trkpt lat="42.60584976" lon="141.83270887">
        <ele>34</ele>
        <time>2026-09-10T06:52:58Z</time>
      </trkpt>
      <trkpt lat="42.60593328" lon="141.83277257">
        <ele>34</ele>
        <time>2026-09-10T06:53:08Z</time>
      </trkpt>
      <trkpt lat="42.60601982" lon="141.83282537">
        <ele>34</ele>
        <time>2026-09-10T06:53:19Z</time>
      </trkpt>
      <trkpt lat="42.60610976" lon="141.83288296">
        <ele>33</ele>
        <time>2026-09-10T06:53:29Z</time>
      </trkpt>
      <trkpt lat="42.60619639" lon="141.8329444">
        <ele>34</ele>
        <time>2026-09-10T06:53:40Z</time>
      </trkpt>
      <trkpt lat="42.6062805" lon="141.83300366">
        <ele>34</ele>
        <time>2026-09-10T06:53:51Z</time>
      </trkpt>
      <trkpt lat="42.60636181" lon="141.83305671">
        <ele>33</ele>
        <time>2026-09-10T06:54:01Z</time>
      </trkpt>
      <trkpt lat="42.60644533" lon="141.83310826">
        <ele>34</ele>
        <time>2026-09-10T06:54:11Z</time>
      </trkpt>
      <trkpt lat="42.60653146" lon="141.83316652">
        <ele>34</ele>
        <time>2026-09-10T06:54:22Z</time>
      </trkpt>
      <trkpt lat="42.60661645" lon="141.83322217">
        <ele>33</ele>
        <time>2026-09-10T06:54:33Z</time>
      </trkpt>
      <trkpt lat="42.60669583" lon="141.83327984">
        <ele>34</ele>
        <time>2026-09-10T06:54:43Z</time>
      </trkpt>
      <trkpt lat="42.60678103" lon="141.83333164">
        <ele>34</ele>
        <time>2026-09-10T06:54:52Z</time>
      </trkpt>
      <trkpt lat="42.60686983" lon="141.83339015">
        <ele>34</ele>
        <time>2026-09-10T06:55:03Z</time>
      </trkpt>
      <trkpt lat="42.60695776" lon="141.83345636">
        <ele>34</ele>
        <time>2026-09-10T06:55:14Z</time>
      </trkpt>
      <trkpt lat="42.60704678" lon="141.83351981">
        <ele>33</ele>
        <time>2026-09-10T06:55:26Z</time>
      </trkpt>
      <trkpt lat="42.60713135" lon="141.83357363">
        <ele>33</ele>
        <time>2026-09-10T06:55:35Z</time>
      </trkpt>
      <trkpt lat="42.60722087" lon="141.8336302">
        <ele>34</ele>
        <time>2026-09-10T06:55:45Z</time>
      </trkpt>
      <trkpt lat="42.60730112" lon="141.83368871">
        <ele>34</ele>
        <time>2026-09-10T06:55:54Z</time>
      </trkpt>
      <trkpt lat="42.60738637" lon="141.83373833">
        <ele>34</ele>
        <time>2026-09-10T06:56:04Z</time>
      </trkpt>
      <trkpt lat="42.60745925" lon="141.83381218">
        <ele>33</ele>
        <time>2026-09-10T06:56:14Z</time>
      </trkpt>
      <trkpt lat="42.60748691" lon="141.83395861">
        <ele>33</ele>
        <time>2026-09-10T06:56:23Z</time>
      </trkpt>
      <trkpt lat="42.60742534" lon="141.83405366">
        <ele>31</ele>
        <time>2026-09-10T06:56:35Z</time>
      </trkpt>
      <trkpt lat="42.60738381" lon="141.83417494">
        <ele>31</ele>
        <time>2026-09-10T06:56:52Z</time>
      </trkpt>
      <trkpt lat="42.60734085" lon="141.83429095">
        <ele>32</ele>
        <time>2026-09-10T06:57:03Z</time>
      </trkpt>
      <trkpt lat="42.60729966" lon="141.83439975">
        <ele>32</ele>
        <time>2026-09-10T06:57:12Z</time>
      </trkpt>
      <trkpt lat="42.60727531" lon="141.83452673">
        <ele>32</ele>
        <time>2026-09-10T06:57:22Z</time>
      </trkpt>
      <trkpt lat="42.60723336" lon="141.83464576">
        <ele>31</ele>
        <time>2026-09-10T06:57:31Z</time>
      </trkpt>
      <trkpt lat="42.60717946" lon="141.83476159">
        <ele>30</ele>
        <time>2026-09-10T06:57:42Z</time>
      </trkpt>
      <trkpt lat="42.6071495" lon="141.83488699">
        <ele>30</ele>
        <time>2026-09-10T06:57:55Z</time>
      </trkpt>
      <trkpt lat="42.60714484" lon="141.83501481">
        <ele>30</ele>
        <time>2026-09-10T06:58:04Z</time>
      </trkpt>
      <trkpt lat="42.60711555" lon="141.83513132">
        <ele>30</ele>
        <time>2026-09-10T06:58:13Z</time>
      </trkpt>
      <trkpt lat="42.60707079" lon="141.83523995">
        <ele>29</ele>
        <time>2026-09-10T06:58:21Z</time>
      </trkpt>
      <trkpt lat="42.60703236" lon="141.83536283">
        <ele>30</ele>
        <time>2026-09-10T06:58:32Z</time>
      </trkpt>
      <trkpt lat="42.60699368" lon="141.83547967">
        <ele>30</ele>
        <time>2026-09-10T06:58:43Z</time>
      </trkpt>
      <trkpt lat="42.60694825" lon="141.83558704">
        <ele>31</ele>
        <time>2026-09-10T06:58:53Z</time>
      </trkpt>
      <trkpt lat="42.60691061" lon="141.83570079">
        <ele>31</ele>
        <time>2026-09-10T06:59:04Z</time>
      </trkpt>
      <trkpt lat="42.60686753" lon="141.83582149">
        <ele>31</ele>
        <time>2026-09-10T06:59:15Z</time>
      </trkpt>
      <trkpt lat="42.60683056" lon="141.83593422">
        <ele>30</ele>
        <time>2026-09-10T06:59:25Z</time>
      </trkpt>
      <trkpt lat="42.60679167" lon="141.83604562">
        <ele>32</ele>
        <time>2026-09-10T06:59:34Z</time>
      </trkpt>
      <trkpt lat="42.60675358" lon="141.83616053">
        <ele>32</ele>
        <time>2026-09-10T06:59:45Z</time>
      </trkpt>
      <trkpt lat="42.60671112" lon="141.83627117">
        <ele>31</ele>
        <time>2026-09-10T06:59:54Z</time>
      </trkpt>
      <trkpt lat="42.60667403" lon="141.8363902">
        <ele>33</ele>
        <time>2026-09-10T07:00:05Z</time>
      </trkpt>
    </trkseg>
  </trk>
</gpx>