<?xml version='1.0' encoding='UTF-8' standalone='yes' ?>
<gpx xmlns="http://www.topografix.com/GPX/1/1" xmlns:geotracker="http://ilyabogdanovich.com/gpx/extensions/geotracker" xmlns:xsi="http://www.w3.org/2001/XMLSchema-instance" xsi:schemaLocation="http://www.topografix.com/GPX/1/1 http://www.topografix.com/GPX/1/1/gpx.xsd" version="1.1" creator="Recorded in Geo Tracker for Android from Ilya Bogdanovich">
  <metadata>
    <name>2026/08/20 10:13:13</name>
    <author>
      <name>Recorded in Geo Tracker for Android from Ilya Bogdanovich</name>
      <link href="https://play.google.com/store/apps/details?id=com.ilyabogdanovich.geotracker" />
    </author>
    <link href="https://play.google.com/store/apps/details?id=com.ilyabogdanovich.geotracker" />
    <time>2026-08-20T01:13:13Z</time>
  </metadata>
  <wpt lat="34.7403443" lon="135.17770324">
    <ele>483.77</ele>
    <time>2026-08-20T01:17:19Z</time>
    <name>Stop for ~2 min</name>
    <desc>Elevation: 484 m
Time from start: 00:04:05
Distance from start: 224 m</desc>
    <extensions>
      <geotracker:meta emoji="⏱️" />
    </extensions>
  </wpt>
  <wpt lat="34.73783056" lon="135.17951195">
    <ele>474.72</ele>
    <time>2026-08-20T01:27:29Z</time>
    <name>Stop for ~2 min</name>
    <desc>Elevation: 475 m
Time from start: 00:14:15
Distance from start: 581 m</desc>
    <extensions>
      <geotracker:meta emoji="⏱️" />
    </extensions>
  </wpt>
  <wpt lat="34.73512145" lon="135.17818551">
    <ele>447.37</ele>
    <time>2026-08-20T02:03:25Z</time>
    <name>Stop for ~3 min</name>
    <desc>Elevation: 447 m
Time from start: 00:50:11
Distance from start: 1.74 km</desc>
    <extensions>
      <geotracker:meta emoji="⏱️" />
    </extensions>
  </wpt>
  <wpt lat="34.73391534" lon="135.17475326">
    <ele>461.27</ele>
    <time>2026-08-20T02:20:29Z</time>
    <name>Stop for ~4 min</name>
    <desc>Elevation: 461 m
Time from start: 01:07:15
Distance from start: 2.18 km</desc>
    <extensions>
      <geotracker:meta emoji="⏱️" />
    </extensions>
  </wpt>
  <wpt lat="34.73848535" lon="135.17717067">
    <ele>471.09</ele>
    <time>2026-08-20T02:51:44Z</time>
    <name>Stop for ~6 min</name>
    <desc>Elevation: 471 m
Time from start: 01:38:30
Distance from start: 3.08 km</desc>
    <extensions>
      <geotracker:meta emoji="⏱️" />
    </extensions>
  </wpt>
  <trk>
    <name>2026/08/20 10:13:13</name>
    <src>Recorded in Geo Tracker for Android from Ilya Bogdanovich</src>
    <link href="https://play.google.com/store/apps/details?id=com.ilyabogdanovich.geotracker" />
    <extensions>
      <geotracker:meta>
        <geotracker:length>4729.78</geotracker:length>
        <geotracker:duration>8871851</geotracker:duration>
        <geotracker:creationtime>2026-08-20T01:13:13Z</geotracker:creationtime>
        <geotracker:activity>0</geotracker:activity>
      </geotracker:meta>
    </extensions>
    <trkseg>
      <trkpt lat="34.7420841" lon="135.17698824">
        <ele>468.12</ele>
        <time>2026-08-20T01:13:21Z</time>
      </trkpt>
      <trkpt lat="34.74203155" lon="135.1770787">
        <ele>475.05</ele>
        <time>2026-08-20T01:13:32Z</time>
      </trkpt>
      <trkpt lat="34.74196712" lon="135.17716966">
        <ele>476.4</ele>
        <time>2026-08-20T01:13:45Z</time>
      </trkpt>
      <trkpt lat="34.74187668" lon="135.17719518">
        <ele>479.55</ele>
        <time>2026-08-20T01:13:56Z</time>
      </trkpt>
      <trkpt lat="34.74178823" lon="135.17723173">
        <ele>481.3</ele>
        <time>2026-08-20T01:14:06Z</time>
      </trkpt>
      <trkpt lat="34.74170907" lon="135.17729013">
        <ele>482.86</ele>
        <time>2026-08-20T01:14:16Z</time>
      </trkpt>
      <trkpt lat="34.74165758" lon="135.17738644">
        <ele>482.66</ele>
        <time>2026-08-20T01:14:28Z</time>
      </trkpt>
      <trkpt lat="34.74156444" lon="135.17741771">
        <ele>481.45</ele>
        <time>2026-08-20T01:14:45Z</time>
      </trkpt>
      <trkpt lat="34.74148764" lon="135.17748426">
        <ele>481.66</ele>
        <time>2026-08-20T01:14:56Z</time>
      </trkpt>
      <trkpt lat="34.74141808" lon="135.17755797">
        <ele>482.17</ele>
        <time>2026-08-20T01:15:07Z</time>
      </trkpt>
      <trkpt lat="34.7413458" lon="135.17762473">
        <ele>482.96</ele>
        <time>2026-08-20T01:15:17Z</time>
      </trkpt>
      <trkpt lat="34.74126949" lon="135.17770364">
        <ele>480.1</ele>
        <time>2026-08-20T01:15:27Z</time>
      </trkpt>
      <trkpt lat="34.74119736" lon="135.17778849">
        <ele>480.92</ele>
        <time>2026-08-20T01:15:37Z</time>
      </trkpt>
      <trkpt lat="34.74110248" lon="135.17778665">
        <ele>482.85</ele>
        <time>2026-08-20T01:15:48Z</time>
      </trkpt>
      <trkpt lat="34.74100126" lon="135.17781519">
        <ele>483.65</ele>
        <time>2026-08-20T01:15:58Z</time>
      </trkpt>
      <trkpt lat="34.74090801" lon="135.17785931">
        <ele>481.77</ele>
        <time>2026-08-20T01:16:08Z</time>
      </trkpt>
      <trkpt lat="34.74081821" lon="135.17784777">
        <ele>482.91</ele>
        <time>2026-08-20T01:16:17Z</time>
      </trkpt>
      <trkpt lat="34.74073413" lon="135.17780821">
        <ele>483.74</ele>
        <time>2026-08-20T01:16:28Z</time>
      </trkpt>
      <trkpt lat="34.74063767" lon="135.17781475">
        <ele>483.59</ele>
        <time>2026-08-20T01:16:38Z</time>
      </trkpt>
      <trkpt lat="34.74052064" lon="135.17777078">
        <ele>483.92</ele>
        <time>2026-08-20T01:16:50Z</time>
      </trkpt>
      <trkpt lat="34.74043285" lon="135.17773143">
        <ele>482.81</ele>
        <time>2026-08-20T01:17:10Z</time>
      </trkpt>
      <trkpt lat="34.7403443" lon="135.17770324">
        <ele>483.77</ele>
        <time>2026-08-20T01:17:19Z</time>
      </trkpt>
      <trkpt lat="34.74022991" lon="135.1777674">
        <ele>482.82</ele>
        <time>2026-08-20T01:19:25Z</time>
      </trkpt>
      <trkpt lat="34.74013878" lon="135.17775965">
        <ele>482.05</ele>
        <time>2026-08-20T01:19:38Z</time>
      </trkpt>
      <trkpt lat="34.74004708" lon="135.17775204">
        <ele>482.8</ele>
        <time>2026-08-20T01:19:52Z</time>
      </trkpt>
      <trkpt lat="34.73995176" lon="135.17776628">
        <ele>481.2</ele>
        <time>2026-08-20T01:20:05Z</time>
      </trkpt>
      <trkpt lat="34.73985543" lon="135.17777246">
        <ele>480.27</ele>
        <time>2026-08-20T01:20:17Z</time>
      </trkpt>
      <trkpt lat="34.739763" lon="135.17777528">
        <ele>479.43</ele>
        <time>2026-08-20T01:20:28Z</time>
      </trkpt>
      <trkpt lat="34.73965973" lon="135.17779351">
        <ele>479.47</ele>
        <time>2026-08-20T01:20:41Z</time>
      </trkpt>
      <trkpt lat="34.73957263" lon="135.17782564">
        <ele>477.13</ele>
        <time>2026-08-20T01:20:53Z</time>
      </trkpt>
      <trkpt lat="34.73948003" lon="135.17786384">
        <ele>474.89</ele>
        <time>2026-08-20T01:21:04Z</time>
      </trkpt>
      <trkpt lat="34.73940266" lon="135.17792863">
        <ele>475.05</ele>
        <time>2026-08-20T01:21:15Z</time>
      </trkpt>
      <trkpt lat="34.73932318" lon="135.17799142">
        <ele>474.32</ele>
        <time>2026-08-20T01:21:31Z</time>
      </trkpt>
      <trkpt lat="34.73925346" lon="135.17806573">
        <ele>480.14</ele>
        <time>2026-08-20T01:22:35Z</time>
      </trkpt>
      <trkpt lat="34.73922577" lon="135.17823355">
        <ele>470.23</ele>
        <time>2026-08-20T01:22:49Z</time>
      </trkpt>
      <trkpt lat="34.73920124" lon="135.17834229">
        <ele>469.88</ele>
        <time>2026-08-20T01:22:58Z</time>
      </trkpt>
      <trkpt lat="34.7391467" lon="135.17844166">
        <ele>470.7</ele>
        <time>2026-08-20T01:23:09Z</time>
      </trkpt>
      <trkpt lat="34.73905888" lon="135.17849285">
        <ele>468.73</ele>
        <time>2026-08-20T01:23:24Z</time>
      </trkpt>
      <trkpt lat="34.73896901" lon="135.17852863">
        <ele>469.48</ele>
        <time>2026-08-20T01:23:38Z</time>
      </trkpt>
      <trkpt lat="34.73887596" lon="135.17854918">
        <ele>469.92</ele>
        <time>2026-08-20T01:23:50Z</time>
      </trkpt>
      <trkpt lat="34.73878964" lon="135.17859553">
        <ele>470.83</ele>
        <time>2026-08-20T01:24:03Z</time>
      </trkpt>
      <trkpt lat="34.73869431" lon="135.17861046">
        <ele>472.98</ele>
        <time>2026-08-20T01:24:15Z</time>
      </trkpt>
      <trkpt lat="34.73860528" lon="135.1786655">
        <ele>472.53</ele>
        <time>2026-08-20T01:24:27Z</time>
      </trkpt>
      <trkpt lat="34.73851813" lon="135.17870619">
        <ele>473.98</ele>
        <time>2026-08-20T01:24:41Z</time>
      </trkpt>
      <trkpt lat="34.73842835" lon="135.17873663">
        <ele>474.23</ele>
        <time>2026-08-20T01:24:54Z</time>
      </trkpt>
      <trkpt lat="34.73834235" lon="135.17878257">
        <ele>474.89</ele>
        <time>2026-08-20T01:25:07Z</time>
      </trkpt>
      <trkpt lat="34.73826289" lon="135.17884453">
        <ele>475.62</ele>
        <time>2026-08-20T01:25:21Z</time>
      </trkpt>
      <trkpt lat="34.73822508" lon="135.17895166">
        <ele>474.17</ele>
        <time>2026-08-20T01:25:36Z</time>
      </trkpt>
      <trkpt lat="34.73822452" lon="135.17907076">
        <ele>476.63</ele>
        <time>2026-08-20T01:25:49Z</time>
      </trkpt>
      <trkpt lat="34.73818154" lon="135.17918208">
        <ele>475.23</ele>
        <time>2026-08-20T01:26:03Z</time>
      </trkpt>
      <trkpt lat="34.73812271" lon="135.17927524">
        <ele>476.15</ele>
        <time>2026-08-20T01:26:15Z</time>
      </trkpt>
      <trkpt lat="34.73807007" lon="135.1793655">
        <ele>475.06</ele>
        <time>2026-08-20T01:26:28Z</time>
      </trkpt>
      <trkpt lat="34.73800465" lon="135.17944839">
        <ele>473.84</ele>
        <time>2026-08-20T01:26:40Z</time>
      </trkpt>
      <trkpt lat="34.73792077" lon="135.179501">
        <ele>474.25</ele>
        <time>2026-08-20T01:27:01Z</time>
      </trkpt>
      <trkpt lat="34.73783056" lon="135.17951195">
        <ele>474.72</ele>
        <time>2026-08-20T01:27:29Z</time>
      </trkpt>
      <trkpt lat="34.73764548" lon="135.17947919">
        <ele>476.5</ele>
        <time>2026-08-20T01:29:09Z</time>
      </trkpt>
      <trkpt lat="34.73756295" lon="135.17942742">
        <ele>476.97</ele>
        <time>2026-08-20T01:29:22Z</time>
      </trkpt>
      <trkpt lat="34.73747139" lon="135.17938978">
        <ele>475.86</ele>
        <time>2026-08-20T01:29:40Z</time>
      </trkpt>
      <trkpt lat="34.7373914" lon="135.17933163">
        <ele>476.57</ele>
        <time>2026-08-20T01:29:54Z</time>
      </trkpt>
      <trkpt lat="34.73730403" lon="135.17928686">
        <ele>475.38</ele>
        <time>2026-08-20T01:30:07Z</time>
      </trkpt>
      <trkpt lat="34.73721181" lon="135.17926707">
        <ele>476.18</ele>
        <time>2026-08-20T01:30:18Z</time>
      </trkpt>
      <trkpt lat="34.73711378" lon="135.17927798">
        <ele>475.91</ele>
        <time>2026-08-20T01:30:31Z</time>
      </trkpt>
      <trkpt lat="34.73707019" lon="135.17937926">
        <ele>474.36</ele>
        <time>2026-08-20T01:30:44Z</time>
      </trkpt>
      <trkpt lat="34.73708468" lon="135.17949038">
        <ele>474.84</ele>
        <time>2026-08-20T01:30:57Z</time>
      </trkpt>
      <trkpt lat="34.73711259" lon="135.1795945">
        <ele>474.56</ele>
        <time>2026-08-20T01:31:12Z</time>
      </trkpt>
      <trkpt lat="34.73714224" lon="135.17969902">
        <ele>473.25</ele>
        <time>2026-08-20T01:31:23Z</time>
      </trkpt>
      <trkpt lat="34.73717726" lon="135.17980963">
        <ele>474.34</ele>
        <time>2026-08-20T01:31:55Z</time>
      </trkpt>
      <trkpt lat="34.73720617" lon="135.17991724">
        <ele>472.84</ele>
        <time>2026-08-20T01:32:10Z</time>
      </trkpt>
      <trkpt lat="34.7372283" lon="135.1800256">
        <ele>472.01</ele>
        <time>2026-08-20T01:32:22Z</time>
      </trkpt>
      <trkpt lat="34.73725772" lon="135.18013549">
        <ele>469.52</ele>
        <time>2026-08-20T01:32:35Z</time>
      </trkpt>
      <trkpt lat="34.73727545" lon="135.18024292">
        <ele>467.17</ele>
        <time>2026-08-20T01:32:49Z</time>
      </trkpt>
      <trkpt lat="34.73730838" lon="135.1803469">
        <ele>465.94</ele>
        <time>2026-08-20T01:33:02Z</time>
      </trkpt>
      <trkpt lat="34.73733295" lon="135.18045315">
        <ele>463.64</ele>
        <time>2026-08-20T01:33:16Z</time>
      </trkpt>
      <trkpt lat="34.73735737" lon="135.18056533">
        <ele>461.47</ele>
        <time>2026-08-20T01:33:29Z</time>
      </trkpt>
      <trkpt lat="34.73737555" lon="135.18067384">
        <ele>458.74</ele>
        <time>2026-08-20T01:33:40Z</time>
      </trkpt>
      <trkpt lat="34.73738348" lon="135.18078335">
        <ele>457.46</ele>
        <time>2026-08-20T01:33:51Z</time>
      </trkpt>
      <trkpt lat="34.73732525" lon="135.18086849">
        <ele>459.03</ele>
        <time>2026-08-20T01:34:11Z</time>
      </trkpt>
      <trkpt lat="34.73740008" lon="135.18094542">
        <ele>462.33</ele>
        <time>2026-08-20T01:35:01Z</time>
      </trkpt>
      <trkpt lat="34.73747301" lon="135.1810649">
        <ele>462.72</ele>
        <time>2026-08-20T01:35:17Z</time>
      </trkpt>
      <trkpt lat="34.73753743" lon="135.1811455">
        <ele>464.11</ele>
        <time>2026-08-20T01:35:57Z</time>
      </trkpt>
      <trkpt lat="34.73759716" lon="135.18122755">
        <ele>464.11</ele>
        <time>2026-08-20T01:36:07Z</time>
      </trkpt>
      <trkpt lat="34.73766711" lon="135.18130688">
        <ele>464.79</ele>
        <time>2026-08-20T01:36:19Z</time>
      </trkpt>
      <trkpt lat="34.737721" lon="135.18139635">
        <ele>464.55</ele>
        <time>2026-08-20T01:36:30Z</time>
      </trkpt>
      <trkpt lat="34.73776958" lon="135.18150996">
        <ele>461.65</ele>
        <time>2026-08-20T01:36:42Z</time>
      </trkpt>
      <trkpt lat="34.73780362" lon="135.18161782">
        <ele>459.79</ele>
        <time>2026-08-20T01:36:53Z</time>
      </trkpt>
      <trkpt lat="34.73778248" lon="135.18172742">
        <ele>457.04</ele>
        <time>2026-08-20T01:37:06Z</time>
      </trkpt>
      <trkpt lat="34.73772787" lon="135.18181899">
        <ele>456.16</ele>
        <time>2026-08-20T01:37:21Z</time>
      </trkpt>
      <trkpt lat="34.73762868" lon="135.18184927">
        <ele>457.94</ele>
        <time>2026-08-20T01:37:35Z</time>
      </trkpt>
      <trkpt lat="34.73753294" lon="135.18185189">
        <ele>457.6</ele>
        <time>2026-08-20T01:38:17Z</time>
      </trkpt>
      <trkpt lat="34.73742599" lon="135.18189109">
        <ele>458.59</ele>
        <time>2026-08-20T01:38:32Z</time>
      </trkpt>
      <trkpt lat="34.73735306" lon="135.18196396">
        <ele>456.52</ele>
        <time>2026-08-20T01:38:45Z</time>
      </trkpt>
      <trkpt lat="34.73730458" lon="135.18205922">
        <ele>453.85</ele>
        <time>2026-08-20T01:38:57Z</time>
      </trkpt>
      <trkpt lat="34.73728719" lon="135.1821665">
        <ele>449.37</ele>
        <time>2026-08-20T01:39:15Z</time>
      </trkpt>
      <trkpt lat="34.73727738" lon="135.18229205">
        <ele>447.73</ele>
        <time>2026-08-20T01:39:29Z</time>
      </trkpt>
      <trkpt lat="34.73726936" lon="135.18240436">
        <ele>445.38</ele>
        <time>2026-08-20T01:39:41Z</time>
      </trkpt>
      <trkpt lat="34.73726137" lon="135.18251377">
        <ele>444.71</ele>
        <time>2026-08-20T01:39:52Z</time>
      </trkpt>
      <trkpt lat="34.73725984" lon="135.18262775">
        <ele>444.86</ele>
        <time>2026-08-20T01:40:04Z</time>
      </trkpt>
      <trkpt lat="34.73724636" lon="135.18274322">
        <ele>445.39</ele>
        <time>2026-08-20T01:40:21Z</time>
      </trkpt>
      <trkpt lat="34.73723894" lon="135.18287605">
        <ele>447.65</ele>
        <time>2026-08-20T01:40:33Z</time>
      </trkpt>
      <trkpt lat="34.73715596" lon="135.18282363">
        <ele>450.83</ele>
        <time>2026-08-20T01:40:59Z</time>
      </trkpt>
      <trkpt lat="34.73711167" lon="135.18272739">
        <ele>450.84</ele>
        <time>2026-08-20T01:41:10Z</time>
      </trkpt>
      <trkpt lat="34.73708037" lon="135.18262337">
        <ele>450.88</ele>
        <time>2026-08-20T01:41:34Z</time>
      </trkpt>
      <trkpt lat="34.7370216" lon="135.18252969">
        <ele>450.5</ele>
        <time>2026-08-20T01:41:45Z</time>
      </trkpt>
      <trkpt lat="34.73696268" lon="135.18244523">
        <ele>450.78</ele>
        <time>2026-08-20T01:41:55Z</time>
      </trkpt>
      <trkpt lat="34.73689248" lon="135.18237352">
        <ele>450.05</ele>
        <time>2026-08-20T01:42:06Z</time>
      </trkpt>
      <trkpt lat="34.73685073" lon="135.18227368">
        <ele>449.68</ele>
        <time>2026-08-20T01:42:17Z</time>
      </trkpt>
      <trkpt lat="34.73681296" lon="135.18217355">
        <ele>449.97</ele>
        <time>2026-08-20T01:42:30Z</time>
      </trkpt>
      <trkpt lat="34.73672714" lon="135.18213245">
        <ele>449.35</ele>
        <time>2026-08-20T01:42:43Z</time>
      </trkpt>
      <trkpt lat="34.73666085" lon="135.18221335">
        <ele>446.33</ele>
        <time>2026-08-20T01:42:59Z</time>
      </trkpt>
      <trkpt lat="34.73657876" lon="135.18226834">
        <ele>447.54</ele>
        <time>2026-08-20T01:43:12Z</time>
      </trkpt>
      <trkpt lat="34.7364949" lon="135.18221288">
        <ele>445.86</ele>
        <time>2026-08-20T01:43:25Z</time>
      </trkpt>
      <trkpt lat="34.73643271" lon="135.18212565">
        <ele>446.02</ele>
        <time>2026-08-20T01:43:38Z</time>
      </trkpt>
      <trkpt lat="34.73639002" lon="135.18202088">
        <ele>446.3</ele>
        <time>2026-08-20T01:43:51Z</time>
      </trkpt>
      <trkpt lat="34.73634707" lon="135.18191265">
        <ele>445.15</ele>
        <time>2026-08-20T01:44:06Z</time>
      </trkpt>
      <trkpt lat="34.73632756" lon="135.18179926">
        <ele>446.41</ele>
        <time>2026-08-20T01:44:20Z</time>
      </trkpt>
      <trkpt lat="34.73637126" lon="135.1817035">
        <ele>447.79</ele>
        <time>2026-08-20T01:44:34Z</time>
      </trkpt>
      <trkpt lat="34.73640188" lon="135.18159582">
        <ele>447.9</ele>
        <time>2026-08-20T01:44:47Z</time>
      </trkpt>
      <trkpt lat="34.73641074" lon="135.18147459">
        <ele>447.8</ele>
        <time>2026-08-20T01:45:01Z</time>
      </trkpt>
      <trkpt lat="34.73649948" lon="135.18142948">
        <ele>447.47</ele>
        <time>2026-08-20T01:45:20Z</time>
      </trkpt>
      <trkpt lat="34.73659309" lon="135.18140649">
        <ele>448.23</ele>
        <time>2026-08-20T01:45:43Z</time>
      </trkpt>
      <trkpt lat="34.73668337" lon="135.1813901">
        <ele>448.94</ele>
        <time>2026-08-20T01:46:07Z</time>
      </trkpt>
      <trkpt lat="34.73674194" lon="135.18130522">
        <ele>446.66</ele>
        <time>2026-08-20T01:46:33Z</time>
      </trkpt>
      <trkpt lat="34.73669249" lon="135.18121346">
        <ele>446.11</ele>
        <time>2026-08-20T01:47:36Z</time>
      </trkpt>
      <trkpt lat="34.73662325" lon="135.18111183">
        <ele>447.7</ele>
        <time>2026-08-20T01:47:50Z</time>
      </trkpt>
      <trkpt lat="34.736567" lon="135.18102555">
        <ele>447.38</ele>
        <time>2026-08-20T01:48:02Z</time>
      </trkpt>
      <trkpt lat="34.73651906" lon="135.18092702">
        <ele>447.87</ele>
        <time>2026-08-20T01:48:14Z</time>
      </trkpt>
      <trkpt lat="34.73646367" lon="135.18083781">
        <ele>448.87</ele>
        <time>2026-08-20T01:48:25Z</time>
      </trkpt>
      <trkpt lat="34.73640314" lon="135.18075579">
        <ele>450.47</ele>
        <time>2026-08-20T01:48:36Z</time>
      </trkpt>
      <trkpt lat="34.7363358" lon="135.18067799">
        <ele>450.13</ele>
        <time>2026-08-20T01:48:48Z</time>
      </trkpt>
      <trkpt lat="34.73624452" lon="135.1807042">
        <ele>447.12</ele>
        <time>2026-08-20T01:49:02Z</time>
      </trkpt>
      <trkpt lat="34.73620576" lon="135.18080797">
        <ele>444.88</ele>
        <time>2026-08-20T01:49:17Z</time>
      </trkpt>
      <trkpt lat="34.73611367" lon="135.18080905">
        <ele>443.59</ele>
        <time>2026-08-20T01:49:32Z</time>
      </trkpt>
      <trkpt lat="34.73603647" lon="135.18075202">
        <ele>445.36</ele>
        <time>2026-08-20T01:49:44Z</time>
      </trkpt>
      <trkpt lat="34.73600812" lon="135.18063877">
        <ele>447.58</ele>
        <time>2026-08-20T01:49:58Z</time>
      </trkpt>
      <trkpt lat="34.73602795" lon="135.1805316">
        <ele>449.19</ele>
        <time>2026-08-20T01:50:10Z</time>
      </trkpt>
      <trkpt lat="34.73603463" lon="135.18041218">
        <ele>447.26</ele>
        <time>2026-08-20T01:50:27Z</time>
      </trkpt>
      <trkpt lat="34.7359533" lon="135.1803466">
        <ele>447.3</ele>
        <time>2026-08-20T01:50:40Z</time>
      </trkpt>
      <trkpt lat="34.73586439" lon="135.18028733">
        <ele>448.95</ele>
        <time>2026-08-20T01:50:56Z</time>
      </trkpt>
      <trkpt lat="34.73580078" lon="135.18020879">
        <ele>445.8</ele>
        <time>2026-08-20T01:51:14Z</time>
      </trkpt>
      <trkpt lat="34.73576438" lon="135.18008617">
        <ele>448.82</ele>
        <time>2026-08-20T01:52:59Z</time>
      </trkpt>
      <trkpt lat="34.73576956" lon="135.17997388">
        <ele>449.02</ele>
        <time>2026-08-20T01:53:11Z</time>
      </trkpt>
      <trkpt lat="34.73581345" lon="135.17986891">
        <ele>449.2</ele>
        <time>2026-08-20T01:53:48Z</time>
      </trkpt>
      <trkpt lat="34.73588646" lon="135.17979939">
        <ele>449.82</ele>
        <time>2026-08-20T01:54:25Z</time>
      </trkpt>
      <trkpt lat="34.73594483" lon="135.17971178">
        <ele>451.32</ele>
        <time>2026-08-20T01:54:40Z</time>
      </trkpt>
      <trkpt lat="34.73597618" lon="135.17960882">
        <ele>452.96</ele>
        <time>2026-08-20T01:55:00Z</time>
      </trkpt>
      <trkpt lat="34.73594304" lon="135.17950198">
        <ele>453.96</ele>
        <time>2026-08-20T01:55:52Z</time>
      </trkpt>
      <trkpt lat="34.73585608" lon="135.17945328">
        <ele>453.47</ele>
        <time>2026-08-20T01:56:07Z</time>
      </trkpt>
      <trkpt lat="34.73577133" lon="135.17941564">
        <ele>452.38</ele>
        <time>2026-08-20T01:56:25Z</time>
      </trkpt>
      <trkpt lat="34.73569443" lon="135.17935835">
        <ele>451.98</ele>
        <time>2026-08-20T01:56:40Z</time>
      </trkpt>
      <trkpt lat="34.73563446" lon="135.17924775">
        <ele>452.11</ele>
        <time>2026-08-20T01:57:08Z</time>
      </trkpt>
      <trkpt lat="34.73560575" lon="135.17913692">
        <ele>452.06</ele>
        <time>2026-08-20T01:57:22Z</time>
      </trkpt>
      <trkpt lat="34.73562645" lon="135.17902445">
        <ele>450.17</ele>
        <time>2026-08-20T01:57:35Z</time>
      </trkpt>
      <trkpt lat="34.73566599" lon="135.17892372">
        <ele>450.93</ele>
        <time>2026-08-20T01:57:48Z</time>
      </trkpt>
      <trkpt lat="34.73559148" lon="135.17884432">
        <ele>443.35</ele>
        <time>2026-08-20T01:58:12Z</time>
      </trkpt>
      <trkpt lat="34.73549929" lon="135.17884183">
        <ele>442.69</ele>
        <time>2026-08-20T01:58:31Z</time>
      </trkpt>
      <trkpt lat="34.7354214" lon="135.17878423">
        <ele>442.58</ele>
        <time>2026-08-20T01:58:42Z</time>
      </trkpt>
      <trkpt lat="34.73539146" lon="135.17868017">
        <ele>444.31</ele>
        <time>2026-08-20T01:58:54Z</time>
      </trkpt>
      <trkpt lat="34.73539345" lon="135.17854489">
        <ele>445.07</ele>
        <time>2026-08-20T01:59:09Z</time>
      </trkpt>
      <trkpt lat="34.73534644" lon="135.17844797">
        <ele>446.45</ele>
        <time>2026-08-20T01:59:22Z</time>
      </trkpt>
      <trkpt lat="34.73528004" lon="135.17837371">
        <ele>448.33</ele>
        <time>2026-08-20T01:59:35Z</time>
      </trkpt>
      <trkpt lat="34.73522288" lon="135.1782853">
        <ele>449.33</ele>
        <time>2026-08-20T01:59:48Z</time>
      </trkpt>
      <trkpt lat="34.73514392" lon="135.17822351">
        <ele>452.12</ele>
        <time>2026-08-20T02:00:03Z</time>
      </trkpt>
      <trkpt lat="34.73510767" lon="135.17812282">
        <ele>453.98</ele>
        <time>2026-08-20T02:01:24Z</time>
      </trkpt>
      <trkpt lat="34.73512145" lon="135.17818551">
        <ele>447.37</ele>
        <time>2026-08-20T02:03:25Z</time>
      </trkpt>
      <trkpt lat="34.73503337" lon="135.17825929">
        <ele>445.42</ele>
        <time>2026-08-20T02:04:57Z</time>
      </trkpt>
      <trkpt lat="34.7349513" lon="135.17821014">
        <ele>447.13</ele>
        <time>2026-08-20T02:05:08Z</time>
      </trkpt>
      <trkpt lat="34.73487236" lon="135.17815262">
        <ele>450.22</ele>
        <time>2026-08-20T02:05:20Z</time>
      </trkpt>
      <trkpt lat="34.73478698" lon="135.17811318">
        <ele>455.48</ele>
        <time>2026-08-20T02:05:38Z</time>
      </trkpt>
      <trkpt lat="34.73469501" lon="135.17809908">
        <ele>457.76</ele>
        <time>2026-08-20T02:05:52Z</time>
      </trkpt>
      <trkpt lat="34.73461145" lon="135.1780576">
        <ele>459.46</ele>
        <time>2026-08-20T02:06:04Z</time>
      </trkpt>
      <trkpt lat="34.73452835" lon="135.17801432">
        <ele>461.4</ele>
        <time>2026-08-20T02:06:18Z</time>
      </trkpt>
      <trkpt lat="34.7344257" lon="135.1779696">
        <ele>463.31</ele>
        <time>2026-08-20T02:06:36Z</time>
      </trkpt>
      <trkpt lat="34.73433958" lon="135.17793539">
        <ele>465.84</ele>
        <time>2026-08-20T02:06:53Z</time>
      </trkpt>
      <trkpt lat="34.73426415" lon="135.17787076">
        <ele>468.62</ele>
        <time>2026-08-20T02:07:10Z</time>
      </trkpt>
      <trkpt lat="34.73420909" lon="135.17777696">
        <ele>471.08</ele>
        <time>2026-08-20T02:07:28Z</time>
      </trkpt>
      <trkpt lat="34.73413779" lon="135.17770934">
        <ele>470.48</ele>
        <time>2026-08-20T02:07:43Z</time>
      </trkpt>
      <trkpt lat="34.73405888" lon="135.17764473">
        <ele>466.58</ele>
        <time>2026-08-20T02:07:59Z</time>
      </trkpt>
      <trkpt lat="34.73397925" lon="135.17758773">
        <ele>468.49</ele>
        <time>2026-08-20T02:08:14Z</time>
      </trkpt>
      <trkpt lat="34.73392317" lon="135.17749502">
        <ele>468.88</ele>
        <time>2026-08-20T02:08:28Z</time>
      </trkpt>
      <trkpt lat="34.73391484" lon="135.17738432">
        <ele>470.57</ele>
        <time>2026-08-20T02:08:41Z</time>
      </trkpt>
      <trkpt lat="34.73389776" lon="135.17727412">
        <ele>474.39</ele>
        <time>2026-08-20T02:08:55Z</time>
      </trkpt>
      <trkpt lat="34.73382631" lon="135.17720531">
        <ele>475.59</ele>
        <time>2026-08-20T02:09:11Z</time>
      </trkpt>
      <trkpt lat="34.73373528" lon="135.17722161">
        <ele>477.23</ele>
        <time>2026-08-20T02:09:26Z</time>
      </trkpt>
      <trkpt lat="34.73365532" lon="135.17715457">
        <ele>480.76</ele>
        <time>2026-08-20T02:09:37Z</time>
      </trkpt>
      <trkpt lat="34.73364058" lon="135.17704016">
        <ele>479.95</ele>
        <time>2026-08-20T02:09:48Z</time>
      </trkpt>
      <trkpt lat="34.73352306" lon="135.17601068">
        <ele>470.12</ele>
        <time>2026-08-20T02:11:59Z</time>
      </trkpt>
      <trkpt lat="34.73360216" lon="135.17595714">
        <ele>474.63</ele>
        <time>2026-08-20T02:12:23Z</time>
      </trkpt>
      <trkpt lat="34.73364032" lon="135.17585102">
        <ele>474.24</ele>
        <time>2026-08-20T02:12:40Z</time>
      </trkpt>
      <trkpt lat="34.73366376" lon="135.17574261">
        <ele>475.16</ele>
        <time>2026-08-20T02:12:54Z</time>
      </trkpt>
      <trkpt lat="34.73369366" lon="135.17563113">
        <ele>477.47</ele>
        <time>2026-08-20T02:13:07Z</time>
      </trkpt>
      <trkpt lat="34.73374194" lon="135.17553731">
        <ele>467.67</ele>
        <time>2026-08-20T02:13:25Z</time>
      </trkpt>
      <trkpt lat="34.73379315" lon="135.17544346">
        <ele>469.51</ele>
        <time>2026-08-20T02:13:38Z</time>
      </trkpt>
      <trkpt lat="34.73381681" lon="135.17533607">
        <ele>469.04</ele>
        <time>2026-08-20T02:13:54Z</time>
      </trkpt>
      <trkpt lat="34.73384728" lon="135.17522953">
        <ele>469.97</ele>
        <time>2026-08-20T02:14:23Z</time>
      </trkpt>
      <trkpt lat="34.73384822" lon="135.17511552">
        <ele>471</ele>
        <time>2026-08-20T02:14:41Z</time>
      </trkpt>
      <trkpt lat="34.73386632" lon="135.17500712">
        <ele>468.56</ele>
        <time>2026-08-20T02:15:53Z</time>
      </trkpt>
      <trkpt lat="34.73387114" lon="135.17489442">
        <ele>467.73</ele>
        <time>2026-08-20T02:16:06Z</time>
      </trkpt>
      <trkpt lat="34.7338929" lon="135.17478707">
        <ele>466.24</ele>
        <time>2026-08-20T02:16:27Z</time>
      </trkpt>
      <trkpt lat="34.73391562" lon="135.17478587">
        <ele>462.44</ele>
        <time>2026-08-20T02:18:28Z</time>
      </trkpt>
      <trkpt lat="34.73391534" lon="135.17475326">
        <ele>461.27</ele>
        <time>2026-08-20T02:20:29Z</time>
      </trkpt>
      <trkpt lat="34.73391335" lon="135.17478588">
        <ele>460.92</ele>
        <time>2026-08-20T02:22:44Z</time>
      </trkpt>
      <trkpt lat="34.73389922" lon="135.17489883">
        <ele>460.03</ele>
        <time>2026-08-20T02:23:25Z</time>
      </trkpt>
      <trkpt lat="34.73388649" lon="135.17500756">
        <ele>459.19</ele>
        <time>2026-08-20T02:23:42Z</time>
      </trkpt>
      <trkpt lat="34.73387571" lon="135.17511693">
        <ele>459.91</ele>
        <time>2026-08-20T02:23:59Z</time>
      </trkpt>
      <trkpt lat="34.73386343" lon="135.1750005">
        <ele>461.76</ele>
        <time>2026-08-20T02:25:00Z</time>
      </trkpt>
      <trkpt lat="34.73387563" lon="135.17489019">
        <ele>461.49</ele>
        <time>2026-08-20T02:25:11Z</time>
      </trkpt>
      <trkpt lat="34.73389568" lon="135.17477347">
        <ele>461.94</ele>
        <time>2026-08-20T02:25:30Z</time>
      </trkpt>
      <trkpt lat="34.73388974" lon="135.17465739">
        <ele>461.74</ele>
        <time>2026-08-20T02:25:41Z</time>
      </trkpt>
      <trkpt lat="34.73390677" lon="135.17454091">
        <ele>460.28</ele>
        <time>2026-08-20T02:25:53Z</time>
      </trkpt>
      <trkpt lat="34.73395223" lon="135.17444344">
        <ele>461.67</ele>
        <time>2026-08-20T02:26:03Z</time>
      </trkpt>
      <trkpt lat="34.73400925" lon="135.17435192">
        <ele>462.37</ele>
        <time>2026-08-20T02:26:15Z</time>
      </trkpt>
      <trkpt lat="34.73408307" lon="135.17427204">
        <ele>462.37</ele>
        <time>2026-08-20T02:26:24Z</time>
      </trkpt>
      <trkpt lat="34.73412035" lon="135.17417014">
        <ele>464.34</ele>
        <time>2026-08-20T02:26:34Z</time>
      </trkpt>
      <trkpt lat="34.73413039" lon="135.17404675">
        <ele>466.1</ele>
        <time>2026-08-20T02:26:53Z</time>
      </trkpt>
      <trkpt lat="34.73414692" lon="135.17392429">
        <ele>468.6</ele>
        <time>2026-08-20T02:27:19Z</time>
      </trkpt>
      <trkpt lat="34.73416609" lon="135.17381432">
        <ele>468.25</ele>
        <time>2026-08-20T02:27:56Z</time>
      </trkpt>
      <trkpt lat="34.73418366" lon="135.17370264">
        <ele>467.72</ele>
        <time>2026-08-20T02:28:10Z</time>
      </trkpt>
      <trkpt lat="34.73420788" lon="135.1735887">
        <ele>464.52</ele>
        <time>2026-08-20T02:28:25Z</time>
      </trkpt>
      <trkpt lat="34.73424117" lon="135.17348617">
        <ele>461.65</ele>
        <time>2026-08-20T02:28:39Z</time>
      </trkpt>
      <trkpt lat="34.73433162" lon="135.17343255">
        <ele>457.87</ele>
        <time>2026-08-20T02:29:28Z</time>
      </trkpt>
      <trkpt lat="34.73442823" lon="135.1734173">
        <ele>458.32</ele>
        <time>2026-08-20T02:29:41Z</time>
      </trkpt>
      <trkpt lat="34.73451886" lon="135.17346854">
        <ele>459.93</ele>
        <time>2026-08-20T02:29:53Z</time>
      </trkpt>
      <trkpt lat="34.73459766" lon="135.17353048">
        <ele>458.86</ele>
        <time>2026-08-20T02:30:04Z</time>
      </trkpt>
      <trkpt lat="34.73467761" lon="135.17358341">
        <ele>460.57</ele>
        <time>2026-08-20T02:30:51Z</time>
      </trkpt>
      <trkpt lat="34.73475064" lon="135.17365362">
        <ele>461.61</ele>
        <time>2026-08-20T02:31:07Z</time>
      </trkpt>
      <trkpt lat="34.73483316" lon="135.17370456">
        <ele>464.02</ele>
        <time>2026-08-20T02:31:25Z</time>
      </trkpt>
      <trkpt lat="34.73492799" lon="135.173749">
        <ele>462.56</ele>
        <time>2026-08-20T02:31:39Z</time>
      </trkpt>
      <trkpt lat="34.73500878" lon="135.17380309">
        <ele>461.46</ele>
        <time>2026-08-20T02:31:51Z</time>
      </trkpt>
      <trkpt lat="34.73509486" lon="135.17386219">
        <ele>458.6</ele>
        <time>2026-08-20T02:32:04Z</time>
      </trkpt>
      <trkpt lat="34.73517929" lon="135.17391803">
        <ele>459.26</ele>
        <time>2026-08-20T02:32:21Z</time>
      </trkpt>
      <trkpt lat="34.73526629" lon="135.17396539">
        <ele>460.62</ele>
        <time>2026-08-20T02:32:34Z</time>
      </trkpt>
      <trkpt lat="34.73534927" lon="135.17401849">
        <ele>463.42</ele>
        <time>2026-08-20T02:32:46Z</time>
      </trkpt>
      <trkpt lat="34.73543375" lon="135.17405934">
        <ele>463.75</ele>
        <time>2026-08-20T02:32:58Z</time>
      </trkpt>
      <trkpt lat="34.73551892" lon="135.17410119">
        <ele>464.1</ele>
        <time>2026-08-20T02:33:10Z</time>
      </trkpt>
      <trkpt lat="34.73560719" lon="135.1741256">
        <ele>466.13</ele>
        <time>2026-08-20T02:33:24Z</time>
      </trkpt>
      <trkpt lat="34.73570052" lon="135.17412891">
        <ele>467.89</ele>
        <time>2026-08-20T02:33:38Z</time>
      </trkpt>
      <trkpt lat="34.7357907" lon="135.17414682">
        <ele>467.7</ele>
        <time>2026-08-20T02:33:51Z</time>
      </trkpt>
      <trkpt lat="34.73586296" lon="135.17421319">
        <ele>465.2</ele>
        <time>2026-08-20T02:34:22Z</time>
      </trkpt>
      <trkpt lat="34.73594827" lon="135.17426158">
        <ele>460.49</ele>
        <time>2026-08-20T02:35:43Z</time>
      </trkpt>
      <trkpt lat="34.73604086" lon="135.17431693">
        <ele>461.68</ele>
        <time>2026-08-20T02:36:01Z</time>
      </trkpt>
      <trkpt lat="34.73612693" lon="135.17436454">
        <ele>464.07</ele>
        <time>2026-08-20T02:36:15Z</time>
      </trkpt>
      <trkpt lat="34.73621692" lon="135.17439165">
        <ele>465.55</ele>
        <time>2026-08-20T02:36:27Z</time>
      </trkpt>
      <trkpt lat="34.73630563" lon="135.17442747">
        <ele>466.21</ele>
        <time>2026-08-20T02:36:39Z</time>
      </trkpt>
      <trkpt lat="34.73638537" lon="135.17448606">
        <ele>468.33</ele>
        <time>2026-08-20T02:36:51Z</time>
      </trkpt>
      <trkpt lat="34.7364699" lon="135.17453511">
        <ele>471.67</ele>
        <time>2026-08-20T02:37:03Z</time>
      </trkpt>
      <trkpt lat="34.73654201" lon="135.17460838">
        <ele>472.15</ele>
        <time>2026-08-20T02:37:18Z</time>
      </trkpt>
      <trkpt lat="34.73663853" lon="135.17464829">
        <ele>473.59</ele>
        <time>2026-08-20T02:37:35Z</time>
      </trkpt>
      <trkpt lat="34.73672358" lon="135.17470684">
        <ele>473.61</ele>
        <time>2026-08-20T02:37:50Z</time>
      </trkpt>
      <trkpt lat="34.73680797" lon="135.174774">
        <ele>477.08</ele>
        <time>2026-08-20T02:38:05Z</time>
      </trkpt>
      <trkpt lat="34.73688953" lon="135.1748252">
        <ele>479.02</ele>
        <time>2026-08-20T02:38:20Z</time>
      </trkpt>
      <trkpt lat="34.73695892" lon="135.17489731">
        <ele>480.15</ele>
        <time>2026-08-20T02:38:36Z</time>
      </trkpt>
      <trkpt lat="34.7370441" lon="135.17493473">
        <ele>477.7</ele>
        <time>2026-08-20T02:38:51Z</time>
      </trkpt>
      <trkpt lat="34.73713488" lon="135.17491764">
        <ele>478.26</ele>
        <time>2026-08-20T02:39:05Z</time>
      </trkpt>
      <trkpt lat="34.73723093" lon="135.17487987">
        <ele>478.46</ele>
        <time>2026-08-20T02:39:22Z</time>
      </trkpt>
      <trkpt lat="34.73731917" lon="135.17484509">
        <ele>474.66</ele>
        <time>2026-08-20T02:39:35Z</time>
      </trkpt>
      <trkpt lat="34.7374202" lon="135.17483651">
        <ele>474.75</ele>
        <time>2026-08-20T02:39:50Z</time>
      </trkpt>
      <trkpt lat="34.73751422" lon="135.17485822">
        <ele>476.21</ele>
        <time>2026-08-20T02:40:03Z</time>
      </trkpt>
      <trkpt lat="34.73759665" lon="135.17491703">
        <ele>477.13</ele>
        <time>2026-08-20T02:40:16Z</time>
      </trkpt>
      <trkpt lat="34.73767485" lon="135.17497685">
        <ele>479.95</ele>
        <time>2026-08-20T02:40:29Z</time>
      </trkpt>
      <trkpt lat="34.73775684" lon="135.17503813">
        <ele>480.53</ele>
        <time>2026-08-20T02:40:41Z</time>
      </trkpt>
      <trkpt lat="34.7378431" lon="135.17510045">
        <ele>478.34</ele>
        <time>2026-08-20T02:40:54Z</time>
      </trkpt>
      <trkpt lat="34.73792749" lon="135.17515486">
        <ele>476.63</ele>
        <time>2026-08-20T02:41:08Z</time>
      </trkpt>
      <trkpt lat="34.73801373" lon="135.17519582">
        <ele>475.26</ele>
        <time>2026-08-20T02:41:19Z</time>
      </trkpt>
      <trkpt lat="34.73808529" lon="135.17526456">
        <ele>474.55</ele>
        <time>2026-08-20T02:41:30Z</time>
      </trkpt>
      <trkpt lat="34.73813477" lon="135.17536848">
        <ele>471.55</ele>
        <time>2026-08-20T02:41:41Z</time>
      </trkpt>
      <trkpt lat="34.73817826" lon="135.17547599">
        <ele>469.69</ele>
        <time>2026-08-20T02:41:52Z</time>
      </trkpt>
      <trkpt lat="34.7382115" lon="135.17558276">
        <ele>466.39</ele>
        <time>2026-08-20T02:42:02Z</time>
      </trkpt>
      <trkpt lat="34.73823527" lon="135.17569321">
        <ele>464.84</ele>
        <time>2026-08-20T02:42:13Z</time>
      </trkpt>
      <trkpt lat="34.73824161" lon="135.17580769">
        <ele>465.28</ele>
        <time>2026-08-20T02:42:25Z</time>
      </trkpt>
      <trkpt lat="34.73819727" lon="135.17590816">
        <ele>466.32</ele>
        <time>2026-08-20T02:42:37Z</time>
      </trkpt>
      <trkpt lat="34.73812786" lon="135.17598095">
        <ele>467.94</ele>
        <time>2026-08-20T02:42:47Z</time>
      </trkpt>
      <trkpt lat="34.73807438" lon="135.17606989">
        <ele>467.78</ele>
        <time>2026-08-20T02:42:57Z</time>
      </trkpt>
      <trkpt lat="34.73805917" lon="135.17617966">
        <ele>468</ele>
        <time>2026-08-20T02:43:10Z</time>
      </trkpt>
      <trkpt lat="34.7381113" lon="135.17627395">
        <ele>468.78</ele>
        <time>2026-08-20T02:43:23Z</time>
      </trkpt>
      <trkpt lat="34.7382029" lon="135.17631139">
        <ele>469.61</ele>
        <time>2026-08-20T02:43:37Z</time>
      </trkpt>
      <trkpt lat="34.7383065" lon="135.17631386">
        <ele>470.31</ele>
        <time>2026-08-20T02:43:52Z</time>
      </trkpt>
      <trkpt lat="34.73839574" lon="135.17629438">
        <ele>470.48</ele>
        <time>2026-08-20T02:45:50Z</time>
      </trkpt>
      <trkpt lat="34.738438" lon="135.17639342">
        <ele>472.46</ele>
        <time>2026-08-20T02:46:04Z</time>
      </trkpt>
      <trkpt lat="34.73845511" lon="135.17650393">
        <ele>474.52</ele>
        <time>2026-08-20T02:46:15Z</time>
      </trkpt>
      <trkpt lat="34.73845262" lon="135.17661762">
        <ele>472.69</ele>
        <time>2026-08-20T02:46:28Z</time>
      </trkpt>
      <trkpt lat="34.7383983" lon="135.17670506">
        <ele>471.87</ele>
        <time>2026-08-20T02:46:38Z</time>
      </trkpt>
      <trkpt lat="34.7383411" lon="135.176798">
        <ele>471.68</ele>
        <time>2026-08-20T02:46:50Z</time>
      </trkpt>
      <trkpt lat="34.73829338" lon="135.17690173">
        <ele>470.84</ele>
        <time>2026-08-20T02:47:03Z</time>
      </trkpt>
      <trkpt lat="34.73829545" lon="135.17701719">
        <ele>470.21</ele>
        <time>2026-08-20T02:47:16Z</time>
      </trkpt>
      <trkpt lat="34.73837726" lon="135.17709194">
        <ele>469.6</ele>
        <time>2026-08-20T02:47:29Z</time>
      </trkpt>
      <trkpt lat="34.73844937" lon="135.17716531">
        <ele>471.02</ele>
        <time>2026-08-20T02:47:42Z</time>
      </trkpt>
      <trkpt lat="34.73848502" lon="135.17717362">
        <ele>470.62</ele>
        <time>2026-08-20T02:49:43Z</time>
      </trkpt>
      <trkpt lat="34.73848535" lon="135.17717067">
        <ele>471.09</ele>
        <time>2026-08-20T02:51:44Z</time>
      </trkpt>
      <trkpt lat="34.73848357" lon="135.17716832">
        <ele>471.08</ele>
        <time>2026-08-20T02:55:44Z</time>
      </trkpt>
      <trkpt lat="34.73848272" lon="135.17716667">
        <ele>471.11</ele>
        <time>2026-08-20T02:57:45Z</time>
      </trkpt>
      <trkpt lat="34.73848093" lon="135.17716489">
        <ele>471.26</ele>
        <time>2026-08-20T02:59:46Z</time>
      </trkpt>
      <trkpt lat="34.73847227" lon="135.17715786">
        <ele>472.16</ele>
        <time>2026-08-20T03:01:47Z</time>
      </trkpt>
      <trkpt lat="34.73845944" lon="135.17729321">
        <ele>475.23</ele>
        <time>2026-08-20T03:03:15Z</time>
      </trkpt>
      <trkpt lat="34.73850667" lon="135.17738638">
        <ele>479.06</ele>
        <time>2026-08-20T03:03:29Z</time>
      </trkpt>
      <trkpt lat="34.73857956" lon="135.17745495">
        <ele>480.61</ele>
        <time>2026-08-20T03:03:40Z</time>
      </trkpt>
      <trkpt lat="34.73866891" lon="135.17749997">
        <ele>480.66</ele>
        <time>2026-08-20T03:03:51Z</time>
      </trkpt>
      <trkpt lat="34.73876645" lon="135.17749856">
        <ele>477.64</ele>
        <time>2026-08-20T03:04:02Z</time>
      </trkpt>
      <trkpt lat="34.73886122" lon="135.17749952">
        <ele>475.06</ele>
        <time>2026-08-20T03:04:13Z</time>
      </trkpt>
      <trkpt lat="34.73896661" lon="135.1775067">
        <ele>471.33</ele>
        <time>2026-08-20T03:04:24Z</time>
      </trkpt>
      <trkpt lat="34.73904289" lon="135.17756965">
        <ele>468.18</ele>
        <time>2026-08-20T03:04:35Z</time>
      </trkpt>
      <trkpt lat="34.73907711" lon="135.17768318">
        <ele>467.25</ele>
        <time>2026-08-20T03:04:46Z</time>
      </trkpt>
      <trkpt lat="34.73909144" lon="135.17779311">
        <ele>464.73</ele>
        <time>2026-08-20T03:04:55Z</time>
      </trkpt>
      <trkpt lat="34.7391524" lon="135.1778805">
        <ele>464.25</ele>
        <time>2026-08-20T03:05:17Z</time>
      </trkpt>
      <trkpt lat="34.73916301" lon="135.17799052">
        <ele>462.54</ele>
        <time>2026-08-20T03:05:40Z</time>
      </trkpt>
      <trkpt lat="34.73925479" lon="135.17801868">
        <ele>458.76</ele>
        <time>2026-08-20T03:05:50Z</time>
      </trkpt>
      <trkpt lat="34.73935915" lon="135.17796134">
        <ele>458.43</ele>
        <time>2026-08-20T03:06:02Z</time>
      </trkpt>
      <trkpt lat="34.73944126" lon="135.17789604">
        <ele>458.28</ele>
        <time>2026-08-20T03:06:13Z</time>
      </trkpt>
      <trkpt lat="34.73952282" lon="135.1778325">
        <ele>457.81</ele>
        <time>2026-08-20T03:06:25Z</time>
      </trkpt>
      <trkpt lat="34.73961144" lon="135.17779627">
        <ele>460.9</ele>
        <time>2026-08-20T03:06:37Z</time>
      </trkpt>
      <trkpt lat="34.7397038" lon="135.17777246">
        <ele>462.2</ele>
        <time>2026-08-20T03:06:49Z</time>
      </trkpt>
      <trkpt lat="34.73979463" lon="135.1777584">
        <ele>464.57</ele>
        <time>2026-08-20T03:07:00Z</time>
      </trkpt>
      <trkpt lat="34.73990003" lon="135.17775507">
        <ele>465.95</ele>
        <time>2026-08-20T03:07:15Z</time>
      </trkpt>
      <trkpt lat="34.73999641" lon="135.17774438">
        <ele>468.26</ele>
        <time>2026-08-20T03:07:29Z</time>
      </trkpt>
      <trkpt lat="34.74009312" lon="135.17773781">
        <ele>470.53</ele>
        <time>2026-08-20T03:07:42Z</time>
      </trkpt>
      <trkpt lat="34.74018628" lon="135.17773535">
        <ele>472.97</ele>
        <time>2026-08-20T03:07:55Z</time>
      </trkpt>
      <trkpt lat="34.74028572" lon="135.17771577">
        <ele>476.14</ele>
        <time>2026-08-20T03:08:10Z</time>
      </trkpt>
      <trkpt lat="34.74037801" lon="135.17769622">
        <ele>471.51</ele>
        <time>2026-08-20T03:08:20Z</time>
      </trkpt>
      <trkpt lat="34.74047417" lon="135.17769501">
        <ele>470.13</ele>
        <time>2026-08-20T03:08:30Z</time>
      </trkpt>
      <trkpt lat="34.74056412" lon="135.17772152">
        <ele>471</ele>
        <time>2026-08-20T03:08:41Z</time>
      </trkpt>
      <trkpt lat="34.74065406" lon="135.17776605">
        <ele>469.66</ele>
        <time>2026-08-20T03:08:52Z</time>
      </trkpt>
      <trkpt lat="34.74076094" lon="135.17778828">
        <ele>471.25</ele>
        <time>2026-08-20T03:09:04Z</time>
      </trkpt>
      <trkpt lat="34.74085296" lon="135.17783959">
        <ele>471.37</ele>
        <time>2026-08-20T03:09:15Z</time>
      </trkpt>
      <trkpt lat="34.74094888" lon="135.17784425">
        <ele>471.39</ele>
        <time>2026-08-20T03:09:27Z</time>
      </trkpt>
      <trkpt lat="34.74103599" lon="135.17779">
        <ele>471.34</ele>
        <time>2026-08-20T03:09:38Z</time>
      </trkpt>
      <trkpt lat="34.74112461" lon="135.17775364">
        <ele>470.99</ele>
        <time>2026-08-20T03:10:01Z</time>
      </trkpt>
      <trkpt lat="34.74121304" lon="135.17772838">
        <ele>470.15</ele>
        <time>2026-08-20T03:10:40Z</time>
      </trkpt>
      <trkpt lat="34.74128415" lon="135.1776608">
        <ele>470.79</ele>
        <time>2026-08-20T03:10:52Z</time>
      </trkpt>
      <trkpt lat="34.74134278" lon="135.17756484">
        <ele>475.51</ele>
        <time>2026-08-20T03:11:03Z</time>
      </trkpt>
      <trkpt lat="34.74143382" lon="135.1775016">
        <ele>478.18</ele>
        <time>2026-08-20T03:11:15Z</time>
      </trkpt>
      <trkpt lat="34.7415129" lon="135.17743636">
        <ele>477.34</ele>
        <time>2026-08-20T03:11:26Z</time>
      </trkpt>
      <trkpt lat="34.74159233" lon="135.17736566">
        <ele>478.5</ele>
        <time>2026-08-20T03:11:37Z</time>
      </trkpt>
      <trkpt lat="34.74166621" lon="135.17729647">
        <ele>477.84</ele>
        <time>2026-08-20T03:11:48Z</time>
      </trkpt>
      <trkpt lat="34.74174294" lon="135.17723712">
        <ele>478.29</ele>
        <time>2026-08-20T03:11:58Z</time>
      </trkpt>
      <trkpt lat="34.74183234" lon="135.17719032">
        <ele>478.39</ele>
        <time>2026-08-20T03:12:09Z</time>
      </trkpt>
      <trkpt lat="34.74191896" lon="135.1772787">
        <ele>477.69</ele>
        <time>2026-08-20T03:12:22Z</time>
      </trkpt>
      <trkpt lat="34.74196511" lon="135.17737889">
        <ele>477.58</ele>
        <time>2026-08-20T03:12:33Z</time>
      </trkpt>
      <trkpt lat="34.74201882" lon="135.17746959">
        <ele>479.46</ele>
        <time>2026-08-20T03:12:44Z</time>
      </trkpt>
      <trkpt lat="34.74207155" lon="135.17756765">
        <ele>479.24</ele>
        <time>2026-08-20T03:12:56Z</time>
      </trkpt>
      <trkpt lat="34.74212058" lon="135.17766377">
        <ele>478.68</ele>
        <time>2026-08-20T03:13:08Z</time>
      </trkpt>
      <trkpt lat="34.74217533" lon="135.17776873">
        <ele>479.65</ele>
        <time>2026-08-20T03:13:21Z</time>
      </trkpt>
      <trkpt lat="34.74223397" lon="135.17785982">
        <ele>478.83</ele>
        <time>2026-08-20T03:13:32Z</time>
      </trkpt>
      <trkpt lat="34.74229983" lon="135.17794202">
        <ele>479.46</ele>
        <time>2026-08-20T03:13:44Z</time>
      </trkpt>
      <trkpt lat="34.74235104" lon="135.17803671">
        <ele>479.7</ele>
        <time>2026-08-20T03:13:55Z</time>
      </trkpt>
      <trkpt lat="34.74240435" lon="135.17812589">
        <ele>481.6</ele>
        <time>2026-08-20T03:14:07Z</time>
      </trkpt>
      <trkpt lat="34.74237585" lon="135.17823198">
        <ele>482.23</ele>
        <time>2026-08-20T03:14:19Z</time>
      </trkpt>
      <trkpt lat="34.74231919" lon="135.17831968">
        <ele>482.76</ele>
        <time>2026-08-20T03:14:30Z</time>
      </trkpt>
      <trkpt lat="34.74227217" lon="135.17841426">
        <ele>482.82</ele>
        <time>2026-08-20T03:14:42Z</time>
      </trkpt>
      <trkpt lat="34.7422343" lon="135.17852143">
        <ele>484.17</ele>
        <time>2026-08-20T03:14:55Z</time>
      </trkpt>
      <trkpt lat="34.74218785" lon="135.17862357">
        <ele>485.89</ele>
        <time>2026-08-20T03:15:08Z</time>
      </trkpt>
      <trkpt lat="34.74215414" lon="135.1787279">
        <ele>488.54</ele>
        <time>2026-08-20T03:15:21Z</time>
      </trkpt>
      <trkpt lat="34.7421229" lon="135.17883092">
        <ele>488.55</ele>
        <time>2026-08-20T03:15:33Z</time>
      </trkpt>
      <trkpt lat="34.74210128" lon="135.17893768">
        <ele>488.49</ele>
        <time>2026-08-20T03:15:46Z</time>
      </trkpt>
      <trkpt lat="34.74207332" lon="135.17904684">
        <ele>488.37</ele>
        <time>2026-08-20T03:16:00Z</time>
      </trkpt>
      <trkpt lat="34.74204826" lon="135.17916194">
        <ele>488.5</ele>
        <time>2026-08-20T03:16:12Z</time>
      </trkpt>
      <trkpt lat="34.7420411" lon="135.17927936">
        <ele>490.67</ele>
        <time>2026-08-20T03:16:24Z</time>
      </trkpt>
      <trkpt lat="34.74203763" lon="135.17939466">
        <ele>491.81</ele>
        <time>2026-08-20T03:16:35Z</time>
      </trkpt>
      <trkpt lat="34.74202511" lon="135.17950615">
        <ele>491.85</ele>
        <time>2026-08-20T03:16:46Z</time>
      </trkpt>
      <trkpt lat="34.7420107" lon="135.17962157">
        <ele>494.19</ele>
        <time>2026-08-20T03:16:58Z</time>
      </trkpt>
      <trkpt lat="34.74199947" lon="135.17974842">
        <ele>493.92</ele>
        <time>2026-08-20T03:17:11Z</time>
      </trkpt>
      <trkpt lat="34.74198964" lon="135.17986519">
        <ele>494.77</ele>
        <time>2026-08-20T03:17:25Z</time>
      </trkpt>
      <trkpt lat="34.74197357" lon="135.17997726">
        <ele>494.16</ele>
        <time>2026-08-20T03:17:37Z</time>
      </trkpt>
      <trkpt lat="34.74199683" lon="135.18008922">
        <ele>494.79</ele>
        <time>2026-08-20T03:17:49Z</time>
      </trkpt>
      <trkpt lat="34.74200106" lon="135.18020106">
        <ele>495.77</ele>
        <time>2026-08-20T03:18:04Z</time>
      </trkpt>
      <trkpt lat="34.74200579" lon="135.18031322">
        <ele>494.34</ele>
        <time>2026-08-20T03:18:40Z</time>
      </trkpt>
      <trkpt lat="34.74202282" lon="135.18043057">
        <ele>494.37</ele>
        <time>2026-08-20T03:18:51Z</time>
      </trkpt>
      <trkpt lat="34.74203705" lon="135.18055204">
        <ele>493.79</ele>
        <time>2026-08-20T03:19:02Z</time>
      </trkpt>
      <trkpt lat="34.74206373" lon="135.18067172">
        <ele>493.51</ele>
        <time>2026-08-20T03:19:13Z</time>
      </trkpt>
      <trkpt lat="34.74207887" lon="135.18078798">
        <ele>493.88</ele>
        <time>2026-08-20T03:19:24Z</time>
      </trkpt>
      <trkpt lat="34.74209886" lon="135.18089977">
        <ele>493.24</ele>
        <time>2026-08-20T03:19:35Z</time>
      </trkpt>
      <trkpt lat="34.74214186" lon="135.18099614">
        <ele>493.24</ele>
        <time>2026-08-20T03:19:46Z</time>
      </trkpt>
      <trkpt lat="34.74221213" lon="135.18107561">
        <ele>491.59</ele>
        <time>2026-08-20T03:19:59Z</time>
      </trkpt>
      <trkpt lat="34.74230081" lon="135.18112514">
        <ele>490.58</ele>
        <time>2026-08-20T03:20:12Z</time>
      </trkpt>
      <trkpt lat="34.74239676" lon="135.1811244">
        <ele>487.39</ele>
        <time>2026-08-20T03:20:24Z</time>
      </trkpt>
      <trkpt lat="34.74249292" lon="135.18110216">
        <ele>488.12</ele>
        <time>2026-08-20T03:20:35Z</time>
      </trkpt>
      <trkpt lat="34.74257728" lon="135.18105521">
        <ele>487.92</ele>
        <time>2026-08-20T03:20:45Z</time>
      </trkpt>
      <trkpt lat="34.74265038" lon="135.18098314">
        <ele>488.77</ele>
        <time>2026-08-20T03:20:54Z</time>
      </trkpt>
      <trkpt lat="34.74271808" lon="135.18090917">
        <ele>489.17</ele>
        <time>2026-08-20T03:21:03Z</time>
      </trkpt>
      <trkpt lat="34.74278165" lon="135.18081537">
        <ele>489.04</ele>
        <time>2026-08-20T03:21:13Z</time>
      </trkpt>
      <trkpt lat="34.74283543" lon="135.18072153">
        <ele>490.61</ele>
        <time>2026-08-20T03:21:24Z</time>
      </trkpt>
      <trkpt lat="34.7428907" lon="135.18063265">
        <ele>489.64</ele>
        <time>2026-08-20T03:21:34Z</time>
      </trkpt>
      <trkpt lat="34.74296207" lon="135.18055681">
        <ele>491.55</ele>
        <time>2026-08-20T03:21:46Z</time>
      </trkpt>
      <trkpt lat="34.74303257" lon="135.18047648">
        <ele>492.08</ele>
        <time>2026-08-20T03:21:57Z</time>
      </trkpt>
      <trkpt lat="34.74310583" lon="135.18041097">
        <ele>490.89</ele>
        <time>2026-08-20T03:22:07Z</time>
      </trkpt>
      <trkpt lat="34.74315579" lon="135.18031921">
        <ele>491.74</ele>
        <time>2026-08-20T03:22:18Z</time>
      </trkpt>
      <trkpt lat="34.74317627" lon="135.18020946">
        <ele>494.1</ele>
        <time>2026-08-20T03:22:30Z</time>
      </trkpt>
      <trkpt lat="34.74317884" lon="135.18009987">
        <ele>494.77</ele>
        <time>2026-08-20T03:22:46Z</time>
      </trkpt>
      <trkpt lat="34.74321493" lon="135.17999307">
        <ele>496.08</ele>
        <time>2026-08-20T03:23:02Z</time>
      </trkpt>
      <trkpt lat="34.74327297" lon="135.1798981">
        <ele>496.74</ele>
        <time>2026-08-20T03:23:14Z</time>
      </trkpt>
      <trkpt lat="34.74335814" lon="135.17984885">
        <ele>497.78</ele>
        <time>2026-08-20T03:23:28Z</time>
      </trkpt>
      <trkpt lat="34.74341356" lon="135.17975688">
        <ele>497.63</ele>
        <time>2026-08-20T03:23:53Z</time>
      </trkpt>
      <trkpt lat="34.74350199" lon="135.17970239">
        <ele>495.23</ele>
        <time>2026-08-20T03:24:29Z</time>
      </trkpt>
      <trkpt lat="34.74353605" lon="135.17959958">
        <ele>494.47</ele>
        <time>2026-08-20T03:25:13Z</time>
      </trkpt>
      <trkpt lat="34.74360737" lon="135.17952788">
        <ele>494.19</ele>
        <time>2026-08-20T03:25:33Z</time>
      </trkpt>
      <trkpt lat="34.74369724" lon="135.17950237">
        <ele>492.55</ele>
        <time>2026-08-20T03:25:48Z</time>
      </trkpt>
      <trkpt lat="34.74377251" lon="135.17943952">
        <ele>492.09</ele>
        <time>2026-08-20T03:26:09Z</time>
      </trkpt>
      <trkpt lat="34.74382683" lon="135.17937632">
        <ele>490.73</ele>
        <time>2026-08-20T03:28:10Z</time>
      </trkpt>
      <trkpt lat="34.74373862" lon="135.17934831">
        <ele>491.59</ele>
        <time>2026-08-20T03:28:26Z</time>
      </trkpt>
      <trkpt lat="34.74363618" lon="135.17931816">
        <ele>492.38</ele>
        <time>2026-08-20T03:28:56Z</time>
      </trkpt>
      <trkpt lat="34.74355757" lon="135.17925966">
        <ele>493.75</ele>
        <time>2026-08-20T03:29:18Z</time>
      </trkpt>
      <trkpt lat="34.74347925" lon="135.17920267">
        <ele>494.87</ele>
        <time>2026-08-20T03:29:30Z</time>
      </trkpt>
      <trkpt lat="34.74340508" lon="135.17913463">
        <ele>495.09</ele>
        <time>2026-08-20T03:29:46Z</time>
      </trkpt>
      <trkpt lat="34.74338269" lon="135.17901924">
        <ele>493.17</ele>
        <time>2026-08-20T03:29:59Z</time>
      </trkpt>
      <trkpt lat="34.74341364" lon="135.17891384">
        <ele>492.05</ele>
        <time>2026-08-20T03:30:10Z</time>
      </trkpt>
      <trkpt lat="34.74345874" lon="135.17881928">
        <ele>489.78</ele>
        <time>2026-08-20T03:30:36Z</time>
      </trkpt>
      <trkpt lat="34.74352686" lon="135.17874524">
        <ele>487.55</ele>
        <time>2026-08-20T03:30:53Z</time>
      </trkpt>
      <trkpt lat="34.74361059" lon="135.17869536">
        <ele>489.5</ele>
        <time>2026-08-20T03:32:06Z</time>
      </trkpt>
      <trkpt lat="34.74367187" lon="135.17860546">
        <ele>487.65</ele>
        <time>2026-08-20T03:32:20Z</time>
      </trkpt>
      <trkpt lat="34.74373893" lon="135.17853149">
        <ele>489.1</ele>
        <time>2026-08-20T03:32:29Z</time>
      </trkpt>
      <trkpt lat="34.74381885" lon="135.17846096">
        <ele>489.85</ele>
        <time>2026-08-20T03:32:59Z</time>
      </trkpt>
      <trkpt lat="34.74390981" lon="135.17850302">
        <ele>488.38</ele>
        <time>2026-08-20T03:33:18Z</time>
      </trkpt>
      <trkpt lat="34.74381484" lon="135.17849858">
        <ele>488.33</ele>
        <time>2026-08-20T03:34:07Z</time>
      </trkpt>
      <trkpt lat="34.74371699" lon="135.1785728">
        <ele>486.95</ele>
        <time>2026-08-20T03:34:19Z</time>
      </trkpt>
      <trkpt lat="34.74364527" lon="135.17850279">
        <ele>486.87</ele>
        <time>2026-08-20T03:34:29Z</time>
      </trkpt>
      <trkpt lat="34.74358878" lon="135.17841145">
        <ele>485.77</ele>
        <time>2026-08-20T03:34:47Z</time>
      </trkpt>
      <trkpt lat="34.74351982" lon="135.17833599">
        <ele>485.65</ele>
        <time>2026-08-20T03:34:57Z</time>
      </trkpt>
      <trkpt lat="34.74344679" lon="135.17825144">
        <ele>485.85</ele>
        <time>2026-08-20T03:35:08Z</time>
      </trkpt>
      <trkpt lat="34.74336533" lon="135.17819654">
        <ele>486.27</ele>
        <time>2026-08-20T03:35:19Z</time>
      </trkpt>
      <trkpt lat="34.74327934" lon="135.17814715">
        <ele>487.1</ele>
        <time>2026-08-20T03:35:31Z</time>
      </trkpt>
      <trkpt lat="34.74330841" lon="135.17803816">
        <ele>483.89</ele>
        <time>2026-08-20T03:35:43Z</time>
      </trkpt>
      <trkpt lat="34.74337067" lon="135.17795761">
        <ele>484.76</ele>
        <time>2026-08-20T03:35:52Z</time>
      </trkpt>
      <trkpt lat="34.7434261" lon="135.17786977">
        <ele>486.21</ele>
        <time>2026-08-20T03:36:01Z</time>
      </trkpt>
      <trkpt lat="34.74349675" lon="135.17778671">
        <ele>485.66</ele>
        <time>2026-08-20T03:36:12Z</time>
      </trkpt>
      <trkpt lat="34.74357245" lon="135.1777127">
        <ele>485.26</ele>
        <time>2026-08-20T03:36:22Z</time>
      </trkpt>
      <trkpt lat="34.74364963" lon="135.17764539">
        <ele>484.8</ele>
        <time>2026-08-20T03:36:32Z</time>
      </trkpt>
      <trkpt lat="34.74372051" lon="135.17756709">
        <ele>484.39</ele>
        <time>2026-08-20T03:36:43Z</time>
      </trkpt>
      <trkpt lat="34.74374153" lon="135.1774547">
        <ele>483.18</ele>
        <time>2026-08-20T03:36:55Z</time>
      </trkpt>
      <trkpt lat="34.74372458" lon="135.17734193">
        <ele>482.29</ele>
        <time>2026-08-20T03:37:07Z</time>
      </trkpt>
      <trkpt lat="34.74362935" lon="135.17735095">
        <ele>481.37</ele>
        <time>2026-08-20T03:37:17Z</time>
      </trkpt>
      <trkpt lat="34.74353227" lon="135.17735052">
        <ele>481.28</ele>
        <time>2026-08-20T03:37:28Z</time>
      </trkpt>
      <trkpt lat="34.74343894" lon="135.17733801">
        <ele>483.01</ele>
        <time>2026-08-20T03:37:39Z</time>
      </trkpt>
      <trkpt lat="34.74334612" lon="135.17731196">
        <ele>481.5</ele>
        <time>2026-08-20T03:37:50Z</time>
      </trkpt>
      <trkpt lat="34.74325066" lon="135.17729077">
        <ele>481.96</ele>
        <time>2026-08-20T03:38:01Z</time>
      </trkpt>
      <trkpt lat="34.74316028" lon="135.17726946">
        <ele>481.24</ele>
        <time>2026-08-20T03:38:12Z</time>
      </trkpt>
      <trkpt lat="34.74306584" lon="135.17725403">
        <ele>479.75</ele>
        <time>2026-08-20T03:38:23Z</time>
      </trkpt>
      <trkpt lat="34.74296374" lon="135.17722784">
        <ele>479.08</ele>
        <time>2026-08-20T03:38:35Z</time>
      </trkpt>
      <trkpt lat="34.74287013" lon="135.17722065">
        <ele>478.61</ele>
        <time>2026-08-20T03:38:45Z</time>
      </trkpt>
      <trkpt lat="34.74277962" lon="135.17720953">
        <ele>478.11</ele>
        <time>2026-08-20T03:38:55Z</time>
      </trkpt>
      <trkpt lat="34.74268141" lon="135.17719319">
        <ele>478.71</ele>
        <time>2026-08-20T03:39:07Z</time>
      </trkpt>
      <trkpt lat="34.74259106" lon="135.1771811">
        <ele>478.41</ele>
        <time>2026-08-20T03:39:18Z</time>
      </trkpt>
      <trkpt lat="34.74250037" lon="135.1772014">
        <ele>478.29</ele>
        <time>2026-08-20T03:39:30Z</time>
      </trkpt>
      <trkpt lat="34.74241427" lon="135.17726402">
        <ele>480.36</ele>
        <time>2026-08-20T03:39:45Z</time>
      </trkpt>
      <trkpt lat="34.74231462" lon="135.17726314">
        <ele>478.66</ele>
        <time>2026-08-20T03:39:57Z</time>
      </trkpt>
      <trkpt lat="34.74222808" lon="135.17721231">
        <ele>477.23</ele>
        <time>2026-08-20T03:40:08Z</time>
      </trkpt>
      <trkpt lat="34.74215165" lon="135.17715197">
        <ele>475.65</ele>
        <time>2026-08-20T03:40:18Z</time>
      </trkpt>
      <trkpt lat="34.74206566" lon="135.17710022">
        <ele>475.71</ele>
        <time>2026-08-20T03:40:29Z</time>
      </trkpt>
      <trkpt lat="34.74197624" lon="135.17702071">
        <ele>474.45</ele>
        <time>2026-08-20T03:40:43Z</time>
      </trkpt>
      <trkpt lat="34.74189056" lon="135.17698232">
        <ele>476.93</ele>
        <time>2026-08-20T03:41:07Z</time>
      </trkpt>
    </trkseg>
  </trk>
</gpx>