<?xml version='1.0' encoding='UTF-8' standalone='yes' ?>
<gpx xmlns="http://www.topografix.com/GPX/1/1" xmlns:geotracker="http://ilyabogdanovich.com/gpx/extensions/geotracker" xmlns:xsi="http://www.w3.org/2001/XMLSchema-instance" xsi:schemaLocation="http://www.topografix.com/GPX/1/1 http://www.topografix.com/GPX/1/1/gpx.xsd" version="1.1" creator="Recorded in Geo Tracker for Android from Ilya Bogdanovich">
  <metadata>
    <name>2026/09/17 11:03:52</name>
    <author>
      <name>Recorded in Geo Tracker for Android from Ilya Bogdanovich</name>
      <link href="https://play.google.com/store/apps/details?id=com.ilyabogdanovich.geotracker" />
    </author>
    <link href="https://play.google.com/store/apps/details?id=com.ilyabogdanovich.geotracker" />
    <time>2026-09-17T02:03:52Z</time>
  </metadata>
  <wpt lat="34.76680565" lon="134.92334055">
    <ele>101.99</ele>
    <time>2026-09-17T02:14:41Z</time>
    <name>Stop for ~2 min</name>
    <desc>Elevation: 102 m
Time from start: 00:10:48
Distance from start: 533 m</desc>
    <extensions>
      <geotracker:meta emoji="⏱️" />
    </extensions>
  </wpt>
  <wpt lat="34.76281168" lon="134.92714101">
    <ele>98.96</ele>
    <time>2026-09-17T02:47:25Z</time>
    <name>Stop for ~13 min</name>
    <desc>Elevation: 99 m
Time from start: 00:43:32
Distance from start: 1.77 km</desc>
    <extensions>
      <geotracker:meta emoji="⏱️" />
    </extensions>
  </wpt>
  <wpt lat="34.76277803" lon="134.92712819">
    <ele>102.56</ele>
    <time>2026-09-17T03:37:45Z</time>
    <name>Stop for ~13 min</name>
    <desc>Elevation: 103 m
Time from start: 01:33:52
Distance from start: 2.18 km</desc>
    <extensions>
      <geotracker:meta emoji="⏱️" />
    </extensions>
  </wpt>
  <wpt lat="34.76680735" lon="134.92323727">
    <ele>99.72</ele>
    <time>2026-09-17T04:13:24Z</time>
    <name>Stop for ~7 min</name>
    <desc>Elevation: 100 m
Time from start: 02:09:31
Distance from start: 3.32 km</desc>
    <extensions>
      <geotracker:meta emoji="⏱️" />
    </extensions>
  </wpt>
  <trk>
    <name>2026/09/17 11:03:52</name>
    <src>Recorded in Geo Tracker for Android from Ilya Bogdanovich</src>
    <link href="https://play.google.com/store/apps/details?id=com.ilyabogdanovich.geotracker" />
    <extensions>
      <geotracker:meta>
        <geotracker:length>3884.06</geotracker:length>
        <geotracker:duration>8993364</geotracker:duration>
        <geotracker:creationtime>2026-09-17T02:03:52Z</geotracker:creationtime>
        <geotracker:activity>0</geotracker:activity>
      </geotracker:meta>
    </extensions>
    <trkseg>
      <trkpt lat="34.76750992" lon="134.91884594">
        <ele>91.01</ele>
        <time>2026-09-17T02:03:59Z</time>
      </trkpt>
      <trkpt lat="34.76744218" lon="134.91893545">
        <ele>89.98</ele>
        <time>2026-09-17T02:04:07Z</time>
      </trkpt>
      <trkpt lat="34.76734827" lon="134.91894231">
        <ele>91.31</ele>
        <time>2026-09-17T02:04:15Z</time>
      </trkpt>
      <trkpt lat="34.76725276" lon="134.91895678">
        <ele>90.23</ele>
        <time>2026-09-17T02:04:24Z</time>
      </trkpt>
      <trkpt lat="34.76715011" lon="134.91893598">
        <ele>90.54</ele>
        <time>2026-09-17T02:04:34Z</time>
      </trkpt>
      <trkpt lat="34.76705201" lon="134.91890772">
        <ele>87.54</ele>
        <time>2026-09-17T02:04:45Z</time>
      </trkpt>
      <trkpt lat="34.76695272" lon="134.9189124">
        <ele>85.32</ele>
        <time>2026-09-17T02:04:53Z</time>
      </trkpt>
      <trkpt lat="34.7668546" lon="134.9189343">
        <ele>85.32</ele>
        <time>2026-09-17T02:05:01Z</time>
      </trkpt>
      <trkpt lat="34.76680642" lon="134.91903504">
        <ele>84.17</ele>
        <time>2026-09-17T02:05:10Z</time>
      </trkpt>
      <trkpt lat="34.76677939" lon="134.91914072">
        <ele>87.74</ele>
        <time>2026-09-17T02:05:19Z</time>
      </trkpt>
      <trkpt lat="34.7668142" lon="134.9192522">
        <ele>91.02</ele>
        <time>2026-09-17T02:05:30Z</time>
      </trkpt>
      <trkpt lat="34.7668685" lon="134.91935019">
        <ele>95.01</ele>
        <time>2026-09-17T02:05:39Z</time>
      </trkpt>
      <trkpt lat="34.76692146" lon="134.9194393">
        <ele>96.36</ele>
        <time>2026-09-17T02:05:47Z</time>
      </trkpt>
      <trkpt lat="34.76696802" lon="134.91953969">
        <ele>97.34</ele>
        <time>2026-09-17T02:05:57Z</time>
      </trkpt>
      <trkpt lat="34.76703193" lon="134.91963515">
        <ele>96.86</ele>
        <time>2026-09-17T02:06:08Z</time>
      </trkpt>
      <trkpt lat="34.76706907" lon="134.91974179">
        <ele>95.28</ele>
        <time>2026-09-17T02:06:19Z</time>
      </trkpt>
      <trkpt lat="34.76711134" lon="134.91984119">
        <ele>95.27</ele>
        <time>2026-09-17T02:06:29Z</time>
      </trkpt>
      <trkpt lat="34.76715757" lon="134.9199416">
        <ele>96.41</ele>
        <time>2026-09-17T02:06:39Z</time>
      </trkpt>
      <trkpt lat="34.76721286" lon="134.92003403">
        <ele>97.26</ele>
        <time>2026-09-17T02:06:48Z</time>
      </trkpt>
      <trkpt lat="34.76725863" lon="134.92015245">
        <ele>97.96</ele>
        <time>2026-09-17T02:06:59Z</time>
      </trkpt>
      <trkpt lat="34.76730412" lon="134.92025514">
        <ele>97.82</ele>
        <time>2026-09-17T02:07:09Z</time>
      </trkpt>
      <trkpt lat="34.7673572" lon="134.9203486">
        <ele>96.23</ele>
        <time>2026-09-17T02:07:18Z</time>
      </trkpt>
      <trkpt lat="34.76739596" lon="134.92045424">
        <ele>96.37</ele>
        <time>2026-09-17T02:07:27Z</time>
      </trkpt>
      <trkpt lat="34.76741143" lon="134.92057874">
        <ele>97.51</ele>
        <time>2026-09-17T02:07:37Z</time>
      </trkpt>
      <trkpt lat="34.76741685" lon="134.9206971">
        <ele>98.34</ele>
        <time>2026-09-17T02:07:49Z</time>
      </trkpt>
      <trkpt lat="34.76742253" lon="134.92080633">
        <ele>97.27</ele>
        <time>2026-09-17T02:08:00Z</time>
      </trkpt>
      <trkpt lat="34.76740811" lon="134.92092224">
        <ele>97.18</ele>
        <time>2026-09-17T02:08:10Z</time>
      </trkpt>
      <trkpt lat="34.7673969" lon="134.92103718">
        <ele>98.19</ele>
        <time>2026-09-17T02:08:19Z</time>
      </trkpt>
      <trkpt lat="34.76737051" lon="134.92114272">
        <ele>102.31</ele>
        <time>2026-09-17T02:08:30Z</time>
      </trkpt>
      <trkpt lat="34.76733755" lon="134.92126718">
        <ele>103.17</ele>
        <time>2026-09-17T02:08:42Z</time>
      </trkpt>
      <trkpt lat="34.76732807" lon="134.92140147">
        <ele>103.42</ele>
        <time>2026-09-17T02:09:03Z</time>
      </trkpt>
      <trkpt lat="34.76732111" lon="134.92151151">
        <ele>103.03</ele>
        <time>2026-09-17T02:10:01Z</time>
      </trkpt>
      <trkpt lat="34.76731107" lon="134.92162526">
        <ele>101.07</ele>
        <time>2026-09-17T02:10:14Z</time>
      </trkpt>
      <trkpt lat="34.76729604" lon="134.92175745">
        <ele>102.08</ele>
        <time>2026-09-17T02:10:25Z</time>
      </trkpt>
      <trkpt lat="34.76730216" lon="134.92186933">
        <ele>101.18</ele>
        <time>2026-09-17T02:10:34Z</time>
      </trkpt>
      <trkpt lat="34.76731411" lon="134.92198981">
        <ele>100.93</ele>
        <time>2026-09-17T02:10:43Z</time>
      </trkpt>
      <trkpt lat="34.76734507" lon="134.92211363">
        <ele>100.58</ele>
        <time>2026-09-17T02:10:52Z</time>
      </trkpt>
      <trkpt lat="34.76736925" lon="134.92222166">
        <ele>100.59</ele>
        <time>2026-09-17T02:11:00Z</time>
      </trkpt>
      <trkpt lat="34.76739386" lon="134.92233948">
        <ele>100</ele>
        <time>2026-09-17T02:11:09Z</time>
      </trkpt>
      <trkpt lat="34.76739793" lon="134.92245956">
        <ele>100.17</ele>
        <time>2026-09-17T02:11:18Z</time>
      </trkpt>
      <trkpt lat="34.76737187" lon="134.92256782">
        <ele>100.99</ele>
        <time>2026-09-17T02:11:26Z</time>
      </trkpt>
      <trkpt lat="34.7673172" lon="134.92266343">
        <ele>100.9</ele>
        <time>2026-09-17T02:11:34Z</time>
      </trkpt>
      <trkpt lat="34.767249" lon="134.92275396">
        <ele>101.66</ele>
        <time>2026-09-17T02:11:42Z</time>
      </trkpt>
      <trkpt lat="34.76717777" lon="134.92284684">
        <ele>101.98</ele>
        <time>2026-09-17T02:11:51Z</time>
      </trkpt>
      <trkpt lat="34.76711303" lon="134.92295659">
        <ele>101.25</ele>
        <time>2026-09-17T02:12:00Z</time>
      </trkpt>
      <trkpt lat="34.76705632" lon="134.92305013">
        <ele>101.67</ele>
        <time>2026-09-17T02:12:08Z</time>
      </trkpt>
      <trkpt lat="34.76702177" lon="134.92316179">
        <ele>101.74</ele>
        <time>2026-09-17T02:12:17Z</time>
      </trkpt>
      <trkpt lat="34.7669286" lon="134.92319859">
        <ele>102.39</ele>
        <time>2026-09-17T02:12:29Z</time>
      </trkpt>
      <trkpt lat="34.76683664" lon="134.92323376">
        <ele>100.46</ele>
        <time>2026-09-17T02:12:40Z</time>
      </trkpt>
      <trkpt lat="34.76680565" lon="134.92334055">
        <ele>101.99</ele>
        <time>2026-09-17T02:14:41Z</time>
      </trkpt>
      <trkpt lat="34.76692404" lon="134.92355923">
        <ele>101.58</ele>
        <time>2026-09-17T02:15:00Z</time>
      </trkpt>
      <trkpt lat="34.76689097" lon="134.92367095">
        <ele>102.84</ele>
        <time>2026-09-17T02:15:09Z</time>
      </trkpt>
      <trkpt lat="34.76685172" lon="134.92377269">
        <ele>102.56</ele>
        <time>2026-09-17T02:15:17Z</time>
      </trkpt>
      <trkpt lat="34.76680248" lon="134.92386864">
        <ele>103.85</ele>
        <time>2026-09-17T02:15:32Z</time>
      </trkpt>
      <trkpt lat="34.7667657" lon="134.92398343">
        <ele>104.83</ele>
        <time>2026-09-17T02:15:40Z</time>
      </trkpt>
      <trkpt lat="34.76675235" lon="134.92409572">
        <ele>106.61</ele>
        <time>2026-09-17T02:15:49Z</time>
      </trkpt>
      <trkpt lat="34.76674709" lon="134.92420978">
        <ele>104.4</ele>
        <time>2026-09-17T02:16:00Z</time>
      </trkpt>
      <trkpt lat="34.76672504" lon="134.92432037">
        <ele>102.54</ele>
        <time>2026-09-17T02:16:10Z</time>
      </trkpt>
      <trkpt lat="34.76676605" lon="134.92442277">
        <ele>103.47</ele>
        <time>2026-09-17T02:16:18Z</time>
      </trkpt>
      <trkpt lat="34.76682181" lon="134.92451365">
        <ele>104.11</ele>
        <time>2026-09-17T02:16:26Z</time>
      </trkpt>
      <trkpt lat="34.76689244" lon="134.92461238">
        <ele>104.92</ele>
        <time>2026-09-17T02:16:35Z</time>
      </trkpt>
      <trkpt lat="34.76693866" lon="134.9247132">
        <ele>105.39</ele>
        <time>2026-09-17T02:16:43Z</time>
      </trkpt>
      <trkpt lat="34.76697264" lon="134.92482662">
        <ele>105.42</ele>
        <time>2026-09-17T02:16:52Z</time>
      </trkpt>
      <trkpt lat="34.76704136" lon="134.92492995">
        <ele>105.49</ele>
        <time>2026-09-17T02:17:02Z</time>
      </trkpt>
      <trkpt lat="34.76706975" lon="134.92504462">
        <ele>105.45</ele>
        <time>2026-09-17T02:18:31Z</time>
      </trkpt>
      <trkpt lat="34.76696448" lon="134.92516884">
        <ele>105.26</ele>
        <time>2026-09-17T02:18:42Z</time>
      </trkpt>
      <trkpt lat="34.76688303" lon="134.92522785">
        <ele>106.19</ele>
        <time>2026-09-17T02:18:50Z</time>
      </trkpt>
      <trkpt lat="34.76679426" lon="134.92526718">
        <ele>106.63</ele>
        <time>2026-09-17T02:18:59Z</time>
      </trkpt>
      <trkpt lat="34.76669429" lon="134.92533325">
        <ele>105.58</ele>
        <time>2026-09-17T02:19:10Z</time>
      </trkpt>
      <trkpt lat="34.7666055" lon="134.92538628">
        <ele>106.23</ele>
        <time>2026-09-17T02:19:19Z</time>
      </trkpt>
      <trkpt lat="34.76652094" lon="134.9254391">
        <ele>106.24</ele>
        <time>2026-09-17T02:19:27Z</time>
      </trkpt>
      <trkpt lat="34.76643268" lon="134.92549551">
        <ele>105.9</ele>
        <time>2026-09-17T02:19:36Z</time>
      </trkpt>
      <trkpt lat="34.76636041" lon="134.9255711">
        <ele>105.28</ele>
        <time>2026-09-17T02:19:47Z</time>
      </trkpt>
      <trkpt lat="34.76633486" lon="134.92568659">
        <ele>106.77</ele>
        <time>2026-09-17T02:19:57Z</time>
      </trkpt>
      <trkpt lat="34.76629872" lon="134.92579486">
        <ele>106.83</ele>
        <time>2026-09-17T02:20:06Z</time>
      </trkpt>
      <trkpt lat="34.76626625" lon="134.92590811">
        <ele>107.32</ele>
        <time>2026-09-17T02:20:15Z</time>
      </trkpt>
      <trkpt lat="34.76623576" lon="134.92602319">
        <ele>108.01</ele>
        <time>2026-09-17T02:20:24Z</time>
      </trkpt>
      <trkpt lat="34.7662026" lon="134.92612869">
        <ele>108.55</ele>
        <time>2026-09-17T02:20:33Z</time>
      </trkpt>
      <trkpt lat="34.76616885" lon="134.92622998">
        <ele>109.09</ele>
        <time>2026-09-17T02:20:58Z</time>
      </trkpt>
      <trkpt lat="34.76614095" lon="134.92633443">
        <ele>109.01</ele>
        <time>2026-09-17T02:21:06Z</time>
      </trkpt>
      <trkpt lat="34.76611834" lon="134.92646587">
        <ele>109.45</ele>
        <time>2026-09-17T02:21:17Z</time>
      </trkpt>
      <trkpt lat="34.76610902" lon="134.92657491">
        <ele>109.59</ele>
        <time>2026-09-17T02:21:25Z</time>
      </trkpt>
      <trkpt lat="34.76605571" lon="134.92667149">
        <ele>109.12</ele>
        <time>2026-09-17T02:21:35Z</time>
      </trkpt>
      <trkpt lat="34.76598309" lon="134.92674968">
        <ele>107.72</ele>
        <time>2026-09-17T02:21:46Z</time>
      </trkpt>
      <trkpt lat="34.76589028" lon="134.92674712">
        <ele>106.15</ele>
        <time>2026-09-17T02:21:55Z</time>
      </trkpt>
      <trkpt lat="34.76579692" lon="134.92676455">
        <ele>105.39</ele>
        <time>2026-09-17T02:22:04Z</time>
      </trkpt>
      <trkpt lat="34.76570221" lon="134.92677807">
        <ele>104.46</ele>
        <time>2026-09-17T02:22:13Z</time>
      </trkpt>
      <trkpt lat="34.76561209" lon="134.92680541">
        <ele>104.2</ele>
        <time>2026-09-17T02:22:22Z</time>
      </trkpt>
      <trkpt lat="34.76551243" lon="134.92683299">
        <ele>102.42</ele>
        <time>2026-09-17T02:22:37Z</time>
      </trkpt>
      <trkpt lat="34.76544311" lon="134.92691087">
        <ele>101.48</ele>
        <time>2026-09-17T02:23:19Z</time>
      </trkpt>
      <trkpt lat="34.76538592" lon="134.92699878">
        <ele>101.56</ele>
        <time>2026-09-17T02:23:32Z</time>
      </trkpt>
      <trkpt lat="34.76531181" lon="134.92709677">
        <ele>96.64</ele>
        <time>2026-09-17T02:24:25Z</time>
      </trkpt>
      <trkpt lat="34.76520973" lon="134.92717102">
        <ele>97.14</ele>
        <time>2026-09-17T02:24:37Z</time>
      </trkpt>
      <trkpt lat="34.7651178" lon="134.92718894">
        <ele>97.42</ele>
        <time>2026-09-17T02:24:47Z</time>
      </trkpt>
      <trkpt lat="34.76502704" lon="134.92719183">
        <ele>97.37</ele>
        <time>2026-09-17T02:25:25Z</time>
      </trkpt>
      <trkpt lat="34.764932" lon="134.92721421">
        <ele>97.06</ele>
        <time>2026-09-17T02:25:34Z</time>
      </trkpt>
      <trkpt lat="34.7648478" lon="134.92725378">
        <ele>98.05</ele>
        <time>2026-09-17T02:25:43Z</time>
      </trkpt>
      <trkpt lat="34.76475227" lon="134.92727564">
        <ele>101.58</ele>
        <time>2026-09-17T02:25:55Z</time>
      </trkpt>
      <trkpt lat="34.76466203" lon="134.92725873">
        <ele>103.27</ele>
        <time>2026-09-17T02:26:06Z</time>
      </trkpt>
      <trkpt lat="34.76456688" lon="134.92726462">
        <ele>102.3</ele>
        <time>2026-09-17T02:26:19Z</time>
      </trkpt>
      <trkpt lat="34.76449228" lon="134.92719168">
        <ele>101.84</ele>
        <time>2026-09-17T02:26:30Z</time>
      </trkpt>
      <trkpt lat="34.76445595" lon="134.92708976">
        <ele>100.8</ele>
        <time>2026-09-17T02:26:39Z</time>
      </trkpt>
      <trkpt lat="34.76438591" lon="134.92697466">
        <ele>100.78</ele>
        <time>2026-09-17T02:26:51Z</time>
      </trkpt>
      <trkpt lat="34.7643092" lon="134.92691492">
        <ele>101.73</ele>
        <time>2026-09-17T02:27:02Z</time>
      </trkpt>
      <trkpt lat="34.76422572" lon="134.92685483">
        <ele>102.44</ele>
        <time>2026-09-17T02:27:14Z</time>
      </trkpt>
      <trkpt lat="34.76413898" lon="134.92681187">
        <ele>102.07</ele>
        <time>2026-09-17T02:27:28Z</time>
      </trkpt>
      <trkpt lat="34.76405431" lon="134.92676028">
        <ele>100.53</ele>
        <time>2026-09-17T02:28:18Z</time>
      </trkpt>
      <trkpt lat="34.76397031" lon="134.92671425">
        <ele>100.96</ele>
        <time>2026-09-17T02:28:29Z</time>
      </trkpt>
      <trkpt lat="34.76389084" lon="134.92665506">
        <ele>100.55</ele>
        <time>2026-09-17T02:28:40Z</time>
      </trkpt>
      <trkpt lat="34.76381076" lon="134.92659086">
        <ele>100.63</ele>
        <time>2026-09-17T02:28:55Z</time>
      </trkpt>
      <trkpt lat="34.76372053" lon="134.92654096">
        <ele>101.26</ele>
        <time>2026-09-17T02:29:33Z</time>
      </trkpt>
      <trkpt lat="34.76363585" lon="134.92650347">
        <ele>101.7</ele>
        <time>2026-09-17T02:29:50Z</time>
      </trkpt>
      <trkpt lat="34.76354988" lon="134.92645699">
        <ele>102.07</ele>
        <time>2026-09-17T02:30:02Z</time>
      </trkpt>
      <trkpt lat="34.76347089" lon="134.92640146">
        <ele>101.45</ele>
        <time>2026-09-17T02:30:15Z</time>
      </trkpt>
      <trkpt lat="34.76339782" lon="134.92632871">
        <ele>101.4</ele>
        <time>2026-09-17T02:30:28Z</time>
      </trkpt>
      <trkpt lat="34.76332068" lon="134.92626709">
        <ele>100.82</ele>
        <time>2026-09-17T02:30:40Z</time>
      </trkpt>
      <trkpt lat="34.76324563" lon="134.92620251">
        <ele>101.05</ele>
        <time>2026-09-17T02:30:57Z</time>
      </trkpt>
      <trkpt lat="34.76331052" lon="134.92628795">
        <ele>98.89</ele>
        <time>2026-09-17T02:31:30Z</time>
      </trkpt>
      <trkpt lat="34.76338716" lon="134.92635216">
        <ele>100.64</ele>
        <time>2026-09-17T02:31:39Z</time>
      </trkpt>
      <trkpt lat="34.7634663" lon="134.92642247">
        <ele>101.91</ele>
        <time>2026-09-17T02:31:52Z</time>
      </trkpt>
      <trkpt lat="34.76354663" lon="134.92647503">
        <ele>101.77</ele>
        <time>2026-09-17T02:32:02Z</time>
      </trkpt>
      <trkpt lat="34.76363279" lon="134.9265124">
        <ele>100.4</ele>
        <time>2026-09-17T02:32:12Z</time>
      </trkpt>
      <trkpt lat="34.76372" lon="134.92654023">
        <ele>99.94</ele>
        <time>2026-09-17T02:32:23Z</time>
      </trkpt>
      <trkpt lat="34.76380577" lon="134.92659122">
        <ele>99.44</ele>
        <time>2026-09-17T02:33:02Z</time>
      </trkpt>
      <trkpt lat="34.76389184" lon="134.9266721">
        <ele>99.7</ele>
        <time>2026-09-17T02:33:24Z</time>
      </trkpt>
      <trkpt lat="34.76397098" lon="134.92672589">
        <ele>98.17</ele>
        <time>2026-09-17T02:33:37Z</time>
      </trkpt>
      <trkpt lat="34.76405312" lon="134.92677686">
        <ele>97.18</ele>
        <time>2026-09-17T02:33:48Z</time>
      </trkpt>
      <trkpt lat="34.7641365" lon="134.92683899">
        <ele>96.22</ele>
        <time>2026-09-17T02:34:00Z</time>
      </trkpt>
      <trkpt lat="34.76422153" lon="134.92689641">
        <ele>97.23</ele>
        <time>2026-09-17T02:34:19Z</time>
      </trkpt>
      <trkpt lat="34.7643018" lon="134.92695604">
        <ele>97.28</ele>
        <time>2026-09-17T02:34:29Z</time>
      </trkpt>
      <trkpt lat="34.76437892" lon="134.92702283">
        <ele>96.26</ele>
        <time>2026-09-17T02:34:46Z</time>
      </trkpt>
      <trkpt lat="34.76443114" lon="134.92711322">
        <ele>96.98</ele>
        <time>2026-09-17T02:34:55Z</time>
      </trkpt>
      <trkpt lat="34.7644807" lon="134.92721192">
        <ele>96.48</ele>
        <time>2026-09-17T02:35:05Z</time>
      </trkpt>
      <trkpt lat="34.76452681" lon="134.92730749">
        <ele>96.4</ele>
        <time>2026-09-17T02:35:15Z</time>
      </trkpt>
      <trkpt lat="34.76456769" lon="134.92742455">
        <ele>96.48</ele>
        <time>2026-09-17T02:35:27Z</time>
      </trkpt>
      <trkpt lat="34.76459783" lon="134.92752899">
        <ele>97.69</ele>
        <time>2026-09-17T02:35:37Z</time>
      </trkpt>
      <trkpt lat="34.76459577" lon="134.92764861">
        <ele>101.13</ele>
        <time>2026-09-17T02:35:48Z</time>
      </trkpt>
      <trkpt lat="34.76454808" lon="134.92775009">
        <ele>102.45</ele>
        <time>2026-09-17T02:35:57Z</time>
      </trkpt>
      <trkpt lat="34.76451806" lon="134.92785618">
        <ele>103.3</ele>
        <time>2026-09-17T02:36:06Z</time>
      </trkpt>
      <trkpt lat="34.76449211" lon="134.92797278">
        <ele>104.53</ele>
        <time>2026-09-17T02:36:16Z</time>
      </trkpt>
      <trkpt lat="34.76440511" lon="134.9280235">
        <ele>102.97</ele>
        <time>2026-09-17T02:36:27Z</time>
      </trkpt>
      <trkpt lat="34.76431347" lon="134.92802626">
        <ele>102.24</ele>
        <time>2026-09-17T02:36:36Z</time>
      </trkpt>
      <trkpt lat="34.7642151" lon="134.92803102">
        <ele>101.87</ele>
        <time>2026-09-17T02:36:46Z</time>
      </trkpt>
      <trkpt lat="34.76411701" lon="134.92804166">
        <ele>102.16</ele>
        <time>2026-09-17T02:36:56Z</time>
      </trkpt>
      <trkpt lat="34.7640444" lon="134.92795937">
        <ele>102.64</ele>
        <time>2026-09-17T02:37:07Z</time>
      </trkpt>
      <trkpt lat="34.76399765" lon="134.92785816">
        <ele>102.07</ele>
        <time>2026-09-17T02:37:18Z</time>
      </trkpt>
      <trkpt lat="34.76392319" lon="134.92775594">
        <ele>103.1</ele>
        <time>2026-09-17T02:37:30Z</time>
      </trkpt>
      <trkpt lat="34.76384356" lon="134.92768176">
        <ele>103.8</ele>
        <time>2026-09-17T02:37:40Z</time>
      </trkpt>
      <trkpt lat="34.76374931" lon="134.92766211">
        <ele>104.09</ele>
        <time>2026-09-17T02:37:49Z</time>
      </trkpt>
      <trkpt lat="34.76365488" lon="134.92767051">
        <ele>103.48</ele>
        <time>2026-09-17T02:37:59Z</time>
      </trkpt>
      <trkpt lat="34.7635598" lon="134.92767286">
        <ele>103.13</ele>
        <time>2026-09-17T02:38:09Z</time>
      </trkpt>
      <trkpt lat="34.76346571" lon="134.92768245">
        <ele>102.8</ele>
        <time>2026-09-17T02:38:19Z</time>
      </trkpt>
      <trkpt lat="34.76334926" lon="134.92767981">
        <ele>101.58</ele>
        <time>2026-09-17T02:38:31Z</time>
      </trkpt>
      <trkpt lat="34.76325788" lon="134.92765995">
        <ele>103.45</ele>
        <time>2026-09-17T02:38:43Z</time>
      </trkpt>
      <trkpt lat="34.7631922" lon="134.92758395">
        <ele>99.7</ele>
        <time>2026-09-17T02:39:02Z</time>
      </trkpt>
      <trkpt lat="34.76310007" lon="134.92756012">
        <ele>99.93</ele>
        <time>2026-09-17T02:40:11Z</time>
      </trkpt>
      <trkpt lat="34.76301952" lon="134.92749901">
        <ele>97.81</ele>
        <time>2026-09-17T02:41:28Z</time>
      </trkpt>
      <trkpt lat="34.76293084" lon="134.92747569">
        <ele>101.63</ele>
        <time>2026-09-17T02:41:55Z</time>
      </trkpt>
      <trkpt lat="34.76286038" lon="134.92740745">
        <ele>102.21</ele>
        <time>2026-09-17T02:42:41Z</time>
      </trkpt>
      <trkpt lat="34.76289012" lon="134.92729992">
        <ele>99.73</ele>
        <time>2026-09-17T02:43:46Z</time>
      </trkpt>
      <trkpt lat="34.76290685" lon="134.92719256">
        <ele>98.46</ele>
        <time>2026-09-17T02:44:15Z</time>
      </trkpt>
      <trkpt lat="34.76281177" lon="134.92715805">
        <ele>103.46</ele>
        <time>2026-09-17T02:44:32Z</time>
      </trkpt>
      <trkpt lat="34.76274799" lon="134.92707537">
        <ele>101.72</ele>
        <time>2026-09-17T02:45:24Z</time>
      </trkpt>
      <trkpt lat="34.76281168" lon="134.92714101">
        <ele>98.96</ele>
        <time>2026-09-17T02:47:25Z</time>
      </trkpt>
      <trkpt lat="34.76271436" lon="134.92704005">
        <ele>96.08</ele>
        <time>2026-09-17T02:48:43Z</time>
      </trkpt>
      <trkpt lat="34.76261475" lon="134.92701503">
        <ele>97.43</ele>
        <time>2026-09-17T02:48:58Z</time>
      </trkpt>
      <trkpt lat="34.76252534" lon="134.92703317">
        <ele>100.01</ele>
        <time>2026-09-17T02:49:14Z</time>
      </trkpt>
      <trkpt lat="34.76245891" lon="134.92695786">
        <ele>97.41</ele>
        <time>2026-09-17T02:49:42Z</time>
      </trkpt>
      <trkpt lat="34.76236563" lon="134.92694665">
        <ele>96.62</ele>
        <time>2026-09-17T02:50:06Z</time>
      </trkpt>
      <trkpt lat="34.76227122" lon="134.92694151">
        <ele>96.69</ele>
        <time>2026-09-17T02:50:33Z</time>
      </trkpt>
      <trkpt lat="34.76221391" lon="134.92704365">
        <ele>97.58</ele>
        <time>2026-09-17T02:50:50Z</time>
      </trkpt>
      <trkpt lat="34.76214551" lon="134.92712812">
        <ele>100.85</ele>
        <time>2026-09-17T02:51:03Z</time>
      </trkpt>
      <trkpt lat="34.76211082" lon="134.92719475">
        <ele>100.6</ele>
        <time>2026-09-17T02:53:04Z</time>
      </trkpt>
      <trkpt lat="34.76211043" lon="134.92719663">
        <ele>100.81</ele>
        <time>2026-09-17T02:55:05Z</time>
      </trkpt>
      <trkpt lat="34.76210887" lon="134.92719942">
        <ele>101.01</ele>
        <time>2026-09-17T02:59:05Z</time>
      </trkpt>
      <trkpt lat="34.76210575" lon="134.92720072">
        <ele>101.05</ele>
        <time>2026-09-17T03:01:07Z</time>
      </trkpt>
      <trkpt lat="34.76210489" lon="134.92720156">
        <ele>101.17</ele>
        <time>2026-09-17T03:03:08Z</time>
      </trkpt>
      <trkpt lat="34.76210173" lon="134.92719985">
        <ele>101.06</ele>
        <time>2026-09-17T03:05:10Z</time>
      </trkpt>
      <trkpt lat="34.76210222" lon="134.9272019">
        <ele>101.16</ele>
        <time>2026-09-17T03:07:11Z</time>
      </trkpt>
      <trkpt lat="34.76210468" lon="134.9271936">
        <ele>100.93</ele>
        <time>2026-09-17T03:09:12Z</time>
      </trkpt>
      <trkpt lat="34.76209661" lon="134.92721535">
        <ele>100.19</ele>
        <time>2026-09-17T03:11:13Z</time>
      </trkpt>
      <trkpt lat="34.76209214" lon="134.92722029">
        <ele>100.6</ele>
        <time>2026-09-17T03:13:14Z</time>
      </trkpt>
      <trkpt lat="34.76209122" lon="134.92722074">
        <ele>100.58</ele>
        <time>2026-09-17T03:15:15Z</time>
      </trkpt>
      <trkpt lat="34.7620906" lon="134.92722141">
        <ele>100.55</ele>
        <time>2026-09-17T03:17:16Z</time>
      </trkpt>
      <trkpt lat="34.76215295" lon="134.92712215">
        <ele>98.9</ele>
        <time>2026-09-17T03:18:39Z</time>
      </trkpt>
      <trkpt lat="34.76222764" lon="134.92705664">
        <ele>100.09</ele>
        <time>2026-09-17T03:19:21Z</time>
      </trkpt>
      <trkpt lat="34.76232485" lon="134.92702097">
        <ele>96.75</ele>
        <time>2026-09-17T03:19:37Z</time>
      </trkpt>
      <trkpt lat="34.76241691" lon="134.92701303">
        <ele>95.64</ele>
        <time>2026-09-17T03:19:48Z</time>
      </trkpt>
      <trkpt lat="34.7625058" lon="134.92698701">
        <ele>95.47</ele>
        <time>2026-09-17T03:19:59Z</time>
      </trkpt>
      <trkpt lat="34.7626049" lon="134.92697881">
        <ele>94.62</ele>
        <time>2026-09-17T03:20:10Z</time>
      </trkpt>
      <trkpt lat="34.76269871" lon="134.9269629">
        <ele>93.92</ele>
        <time>2026-09-17T03:20:20Z</time>
      </trkpt>
      <trkpt lat="34.76278995" lon="134.926979">
        <ele>94.51</ele>
        <time>2026-09-17T03:20:32Z</time>
      </trkpt>
      <trkpt lat="34.76283843" lon="134.92707294">
        <ele>95.83</ele>
        <time>2026-09-17T03:20:44Z</time>
      </trkpt>
      <trkpt lat="34.76286637" lon="134.92718058">
        <ele>97.35</ele>
        <time>2026-09-17T03:20:56Z</time>
      </trkpt>
      <trkpt lat="34.76295749" lon="134.92718126">
        <ele>96.83</ele>
        <time>2026-09-17T03:21:59Z</time>
      </trkpt>
      <trkpt lat="34.76287408" lon="134.92713018">
        <ele>99.56</ele>
        <time>2026-09-17T03:22:32Z</time>
      </trkpt>
      <trkpt lat="34.76278417" lon="134.92710046">
        <ele>100.56</ele>
        <time>2026-09-17T03:22:44Z</time>
      </trkpt>
      <trkpt lat="34.76270694" lon="134.92703646">
        <ele>100.72</ele>
        <time>2026-09-17T03:22:57Z</time>
      </trkpt>
      <trkpt lat="34.76262666" lon="134.92698557">
        <ele>99.73</ele>
        <time>2026-09-17T03:23:41Z</time>
      </trkpt>
      <trkpt lat="34.76255295" lon="134.92692089">
        <ele>101.49</ele>
        <time>2026-09-17T03:24:54Z</time>
      </trkpt>
      <trkpt lat="34.76246861" lon="134.92687867">
        <ele>102.65</ele>
        <time>2026-09-17T03:25:06Z</time>
      </trkpt>
      <trkpt lat="34.76237597" lon="134.92687689">
        <ele>101.84</ele>
        <time>2026-09-17T03:25:23Z</time>
      </trkpt>
      <trkpt lat="34.76235459" lon="134.9269388">
        <ele>102.71</ele>
        <time>2026-09-17T03:27:24Z</time>
      </trkpt>
      <trkpt lat="34.76244391" lon="134.92691965">
        <ele>100.7</ele>
        <time>2026-09-17T03:27:38Z</time>
      </trkpt>
      <trkpt lat="34.76254456" lon="134.92690217">
        <ele>101.11</ele>
        <time>2026-09-17T03:27:52Z</time>
      </trkpt>
      <trkpt lat="34.76262265" lon="134.92698473">
        <ele>101.47</ele>
        <time>2026-09-17T03:28:06Z</time>
      </trkpt>
      <trkpt lat="34.76271689" lon="134.92696565">
        <ele>97.59</ele>
        <time>2026-09-17T03:28:29Z</time>
      </trkpt>
      <trkpt lat="34.76280834" lon="134.92696393">
        <ele>97.84</ele>
        <time>2026-09-17T03:29:40Z</time>
      </trkpt>
      <trkpt lat="34.76283854" lon="134.92707314">
        <ele>100.18</ele>
        <time>2026-09-17T03:30:16Z</time>
      </trkpt>
      <trkpt lat="34.7628783" lon="134.92717376">
        <ele>102.89</ele>
        <time>2026-09-17T03:30:34Z</time>
      </trkpt>
      <trkpt lat="34.76281929" lon="134.92708227">
        <ele>101.17</ele>
        <time>2026-09-17T03:30:59Z</time>
      </trkpt>
      <trkpt lat="34.76276374" lon="134.9269772">
        <ele>101.87</ele>
        <time>2026-09-17T03:31:13Z</time>
      </trkpt>
      <trkpt lat="34.76275232" lon="134.92708727">
        <ele>103.86</ele>
        <time>2026-09-17T03:31:42Z</time>
      </trkpt>
      <trkpt lat="34.76276901" lon="134.92713016">
        <ele>102.54</ele>
        <time>2026-09-17T03:33:43Z</time>
      </trkpt>
      <trkpt lat="34.76277243" lon="134.92712944">
        <ele>102.42</ele>
        <time>2026-09-17T03:35:44Z</time>
      </trkpt>
      <trkpt lat="34.76277803" lon="134.92712819">
        <ele>102.56</ele>
        <time>2026-09-17T03:37:45Z</time>
      </trkpt>
      <trkpt lat="34.76278377" lon="134.92712384">
        <ele>102.42</ele>
        <time>2026-09-17T03:41:22Z</time>
      </trkpt>
      <trkpt lat="34.76286392" lon="134.92717564">
        <ele>100.67</ele>
        <time>2026-09-17T03:42:54Z</time>
      </trkpt>
      <trkpt lat="34.76288284" lon="134.92728466">
        <ele>101.9</ele>
        <time>2026-09-17T03:43:07Z</time>
      </trkpt>
      <trkpt lat="34.76288322" lon="134.92739585">
        <ele>102.71</ele>
        <time>2026-09-17T03:43:19Z</time>
      </trkpt>
      <trkpt lat="34.76295645" lon="134.92746961">
        <ele>102.58</ele>
        <time>2026-09-17T03:43:44Z</time>
      </trkpt>
      <trkpt lat="34.76304711" lon="134.92750114">
        <ele>101.05</ele>
        <time>2026-09-17T03:44:42Z</time>
      </trkpt>
      <trkpt lat="34.76297768" lon="134.92755416">
        <ele>102.98</ele>
        <time>2026-09-17T03:46:43Z</time>
      </trkpt>
      <trkpt lat="34.76294223" lon="134.92745254">
        <ele>101.51</ele>
        <time>2026-09-17T03:47:33Z</time>
      </trkpt>
      <trkpt lat="34.76292062" lon="134.92733868">
        <ele>100.36</ele>
        <time>2026-09-17T03:48:50Z</time>
      </trkpt>
      <trkpt lat="34.76291094" lon="134.92722892">
        <ele>100.94</ele>
        <time>2026-09-17T03:49:04Z</time>
      </trkpt>
      <trkpt lat="34.76297687" lon="134.92715189">
        <ele>102.54</ele>
        <time>2026-09-17T03:49:37Z</time>
      </trkpt>
      <trkpt lat="34.76300781" lon="134.92725686">
        <ele>100.01</ele>
        <time>2026-09-17T03:50:26Z</time>
      </trkpt>
      <trkpt lat="34.76304284" lon="134.92736054">
        <ele>99.37</ele>
        <time>2026-09-17T03:50:35Z</time>
      </trkpt>
      <trkpt lat="34.7631099" lon="134.92744719">
        <ele>101.68</ele>
        <time>2026-09-17T03:50:45Z</time>
      </trkpt>
      <trkpt lat="34.76316598" lon="134.92755819">
        <ele>104.28</ele>
        <time>2026-09-17T03:50:56Z</time>
      </trkpt>
      <trkpt lat="34.76324396" lon="134.92761785">
        <ele>101.88</ele>
        <time>2026-09-17T03:51:10Z</time>
      </trkpt>
      <trkpt lat="34.76331673" lon="134.92768239">
        <ele>102.99</ele>
        <time>2026-09-17T03:51:23Z</time>
      </trkpt>
      <trkpt lat="34.76340857" lon="134.92768044">
        <ele>102.11</ele>
        <time>2026-09-17T03:51:33Z</time>
      </trkpt>
      <trkpt lat="34.76350061" lon="134.92767693">
        <ele>101.86</ele>
        <time>2026-09-17T03:51:46Z</time>
      </trkpt>
      <trkpt lat="34.7635982" lon="134.9276724">
        <ele>101.49</ele>
        <time>2026-09-17T03:51:57Z</time>
      </trkpt>
      <trkpt lat="34.76369087" lon="134.92767067">
        <ele>100.63</ele>
        <time>2026-09-17T03:52:07Z</time>
      </trkpt>
      <trkpt lat="34.76378802" lon="134.92768144">
        <ele>99.55</ele>
        <time>2026-09-17T03:52:18Z</time>
      </trkpt>
      <trkpt lat="34.7638749" lon="134.92773639">
        <ele>99.04</ele>
        <time>2026-09-17T03:52:29Z</time>
      </trkpt>
      <trkpt lat="34.76394659" lon="134.9278277">
        <ele>101.14</ele>
        <time>2026-09-17T03:52:40Z</time>
      </trkpt>
      <trkpt lat="34.76401914" lon="134.92792656">
        <ele>101.93</ele>
        <time>2026-09-17T03:52:51Z</time>
      </trkpt>
      <trkpt lat="34.76407873" lon="134.92801295">
        <ele>102.18</ele>
        <time>2026-09-17T03:53:00Z</time>
      </trkpt>
      <trkpt lat="34.76417777" lon="134.92801261">
        <ele>102.21</ele>
        <time>2026-09-17T03:53:10Z</time>
      </trkpt>
      <trkpt lat="34.76427188" lon="134.92800153">
        <ele>101.62</ele>
        <time>2026-09-17T03:53:19Z</time>
      </trkpt>
      <trkpt lat="34.76436537" lon="134.92800968">
        <ele>101.06</ele>
        <time>2026-09-17T03:53:28Z</time>
      </trkpt>
      <trkpt lat="34.76446042" lon="134.92798697">
        <ele>100.75</ele>
        <time>2026-09-17T03:53:37Z</time>
      </trkpt>
      <trkpt lat="34.76451564" lon="134.92787898">
        <ele>100.66</ele>
        <time>2026-09-17T03:53:47Z</time>
      </trkpt>
      <trkpt lat="34.76454039" lon="134.92777187">
        <ele>100.38</ele>
        <time>2026-09-17T03:53:56Z</time>
      </trkpt>
      <trkpt lat="34.76458681" lon="134.92766821">
        <ele>101.02</ele>
        <time>2026-09-17T03:54:06Z</time>
      </trkpt>
      <trkpt lat="34.76466926" lon="134.92760867">
        <ele>101.85</ele>
        <time>2026-09-17T03:54:17Z</time>
      </trkpt>
      <trkpt lat="34.76476015" lon="134.92759566">
        <ele>103.1</ele>
        <time>2026-09-17T03:54:30Z</time>
      </trkpt>
      <trkpt lat="34.76487722" lon="134.92760439">
        <ele>101.99</ele>
        <time>2026-09-17T03:54:43Z</time>
      </trkpt>
      <trkpt lat="34.76497512" lon="134.92761358">
        <ele>100.51</ele>
        <time>2026-09-17T03:54:53Z</time>
      </trkpt>
      <trkpt lat="34.76506628" lon="134.92762563">
        <ele>99.72</ele>
        <time>2026-09-17T03:55:03Z</time>
      </trkpt>
      <trkpt lat="34.76516999" lon="134.92762886">
        <ele>98.5</ele>
        <time>2026-09-17T03:55:14Z</time>
      </trkpt>
      <trkpt lat="34.76526079" lon="134.92760783">
        <ele>100.49</ele>
        <time>2026-09-17T03:55:24Z</time>
      </trkpt>
      <trkpt lat="34.76535849" lon="134.92758806">
        <ele>101.44</ele>
        <time>2026-09-17T03:55:35Z</time>
      </trkpt>
      <trkpt lat="34.76545731" lon="134.92757152">
        <ele>100.98</ele>
        <time>2026-09-17T03:55:45Z</time>
      </trkpt>
      <trkpt lat="34.76554902" lon="134.92755834">
        <ele>101.55</ele>
        <time>2026-09-17T03:55:55Z</time>
      </trkpt>
      <trkpt lat="34.76564172" lon="134.92752651">
        <ele>101.3</ele>
        <time>2026-09-17T03:56:05Z</time>
      </trkpt>
      <trkpt lat="34.76573431" lon="134.92749686">
        <ele>100.8</ele>
        <time>2026-09-17T03:56:15Z</time>
      </trkpt>
      <trkpt lat="34.76582296" lon="134.92745709">
        <ele>101.32</ele>
        <time>2026-09-17T03:56:25Z</time>
      </trkpt>
      <trkpt lat="34.76590917" lon="134.92739686">
        <ele>101.87</ele>
        <time>2026-09-17T03:56:35Z</time>
      </trkpt>
      <trkpt lat="34.76599331" lon="134.92733332">
        <ele>102</ele>
        <time>2026-09-17T03:56:45Z</time>
      </trkpt>
      <trkpt lat="34.76606294" lon="134.92726134">
        <ele>101.7</ele>
        <time>2026-09-17T03:56:55Z</time>
      </trkpt>
      <trkpt lat="34.76612849" lon="134.92718397">
        <ele>100.9</ele>
        <time>2026-09-17T03:57:05Z</time>
      </trkpt>
      <trkpt lat="34.76619063" lon="134.92709598">
        <ele>101.23</ele>
        <time>2026-09-17T03:57:22Z</time>
      </trkpt>
      <trkpt lat="34.76624615" lon="134.92699965">
        <ele>97.77</ele>
        <time>2026-09-17T03:57:33Z</time>
      </trkpt>
      <trkpt lat="34.76629588" lon="134.92690501">
        <ele>97.95</ele>
        <time>2026-09-17T03:57:53Z</time>
      </trkpt>
      <trkpt lat="34.76633729" lon="134.92680122">
        <ele>98.04</ele>
        <time>2026-09-17T03:58:03Z</time>
      </trkpt>
      <trkpt lat="34.76642988" lon="134.92682352">
        <ele>100.22</ele>
        <time>2026-09-17T03:58:42Z</time>
      </trkpt>
      <trkpt lat="34.76652357" lon="134.92678984">
        <ele>99</ele>
        <time>2026-09-17T03:59:09Z</time>
      </trkpt>
      <trkpt lat="34.76661796" lon="134.9267721">
        <ele>99.16</ele>
        <time>2026-09-17T03:59:20Z</time>
      </trkpt>
      <trkpt lat="34.76671201" lon="134.92672239">
        <ele>99.01</ele>
        <time>2026-09-17T03:59:41Z</time>
      </trkpt>
      <trkpt lat="34.76679836" lon="134.92668028">
        <ele>98.84</ele>
        <time>2026-09-17T03:59:57Z</time>
      </trkpt>
      <trkpt lat="34.76689236" lon="134.92665268">
        <ele>97.37</ele>
        <time>2026-09-17T04:00:06Z</time>
      </trkpt>
      <trkpt lat="34.76698558" lon="134.92661874">
        <ele>96.06</ele>
        <time>2026-09-17T04:00:15Z</time>
      </trkpt>
      <trkpt lat="34.76707599" lon="134.92657782">
        <ele>96.85</ele>
        <time>2026-09-17T04:00:28Z</time>
      </trkpt>
      <trkpt lat="34.76718038" lon="134.92652776">
        <ele>95.43</ele>
        <time>2026-09-17T04:00:37Z</time>
      </trkpt>
      <trkpt lat="34.7672837" lon="134.92648339">
        <ele>95.93</ele>
        <time>2026-09-17T04:00:47Z</time>
      </trkpt>
      <trkpt lat="34.76737064" lon="134.92645072">
        <ele>95.36</ele>
        <time>2026-09-17T04:00:56Z</time>
      </trkpt>
      <trkpt lat="34.76745868" lon="134.92641471">
        <ele>96.28</ele>
        <time>2026-09-17T04:01:18Z</time>
      </trkpt>
      <trkpt lat="34.76754419" lon="134.92637989">
        <ele>96.19</ele>
        <time>2026-09-17T04:01:26Z</time>
      </trkpt>
      <trkpt lat="34.76763829" lon="134.92633799">
        <ele>95.95</ele>
        <time>2026-09-17T04:01:35Z</time>
      </trkpt>
      <trkpt lat="34.76773548" lon="134.92629939">
        <ele>95.43</ele>
        <time>2026-09-17T04:01:45Z</time>
      </trkpt>
      <trkpt lat="34.76782487" lon="134.92626239">
        <ele>96.07</ele>
        <time>2026-09-17T04:01:54Z</time>
      </trkpt>
      <trkpt lat="34.76791456" lon="134.92623615">
        <ele>96.23</ele>
        <time>2026-09-17T04:02:04Z</time>
      </trkpt>
      <trkpt lat="34.76794138" lon="134.92612838">
        <ele>97.93</ele>
        <time>2026-09-17T04:02:58Z</time>
      </trkpt>
      <trkpt lat="34.76792194" lon="134.92601925">
        <ele>97.91</ele>
        <time>2026-09-17T04:03:07Z</time>
      </trkpt>
      <trkpt lat="34.76789026" lon="134.92591631">
        <ele>98.24</ele>
        <time>2026-09-17T04:03:16Z</time>
      </trkpt>
      <trkpt lat="34.76785188" lon="134.92581246">
        <ele>97.51</ele>
        <time>2026-09-17T04:03:25Z</time>
      </trkpt>
      <trkpt lat="34.76779686" lon="134.92568156">
        <ele>99.3</ele>
        <time>2026-09-17T04:03:36Z</time>
      </trkpt>
      <trkpt lat="34.76775501" lon="134.92557054">
        <ele>99.01</ele>
        <time>2026-09-17T04:03:45Z</time>
      </trkpt>
      <trkpt lat="34.76771617" lon="134.92547032">
        <ele>98.57</ele>
        <time>2026-09-17T04:03:54Z</time>
      </trkpt>
      <trkpt lat="34.7676856" lon="134.9253616">
        <ele>98.58</ele>
        <time>2026-09-17T04:04:03Z</time>
      </trkpt>
      <trkpt lat="34.76767679" lon="134.92523307">
        <ele>99.23</ele>
        <time>2026-09-17T04:04:14Z</time>
      </trkpt>
      <trkpt lat="34.76757427" lon="134.92521116">
        <ele>100</ele>
        <time>2026-09-17T04:04:44Z</time>
      </trkpt>
      <trkpt lat="34.76748172" lon="134.92523296">
        <ele>99.52</ele>
        <time>2026-09-17T04:04:55Z</time>
      </trkpt>
      <trkpt lat="34.76739122" lon="134.92525894">
        <ele>100</ele>
        <time>2026-09-17T04:05:05Z</time>
      </trkpt>
      <trkpt lat="34.7672991" lon="134.92529142">
        <ele>100.6</ele>
        <time>2026-09-17T04:05:17Z</time>
      </trkpt>
      <trkpt lat="34.76719676" lon="134.92532394">
        <ele>99</ele>
        <time>2026-09-17T04:05:30Z</time>
      </trkpt>
      <trkpt lat="34.76710095" lon="134.92535876">
        <ele>99.18</ele>
        <time>2026-09-17T04:05:41Z</time>
      </trkpt>
      <trkpt lat="34.76700575" lon="134.92538869">
        <ele>98.88</ele>
        <time>2026-09-17T04:05:53Z</time>
      </trkpt>
      <trkpt lat="34.76692368" lon="134.9253299">
        <ele>98.69</ele>
        <time>2026-09-17T04:06:06Z</time>
      </trkpt>
      <trkpt lat="34.76687224" lon="134.92523853">
        <ele>98.42</ele>
        <time>2026-09-17T04:06:16Z</time>
      </trkpt>
      <trkpt lat="34.76680829" lon="134.92515981">
        <ele>97.88</ele>
        <time>2026-09-17T04:06:25Z</time>
      </trkpt>
      <trkpt lat="34.76674801" lon="134.92505566">
        <ele>98.01</ele>
        <time>2026-09-17T04:06:36Z</time>
      </trkpt>
      <trkpt lat="34.76669218" lon="134.92494953">
        <ele>99.26</ele>
        <time>2026-09-17T04:06:47Z</time>
      </trkpt>
      <trkpt lat="34.7666545" lon="134.92484669">
        <ele>99.61</ele>
        <time>2026-09-17T04:06:59Z</time>
      </trkpt>
      <trkpt lat="34.76664634" lon="134.92473416">
        <ele>100.63</ele>
        <time>2026-09-17T04:07:09Z</time>
      </trkpt>
      <trkpt lat="34.76664385" lon="134.92461602">
        <ele>100.6</ele>
        <time>2026-09-17T04:07:19Z</time>
      </trkpt>
      <trkpt lat="34.76665007" lon="134.92449435">
        <ele>99.95</ele>
        <time>2026-09-17T04:07:35Z</time>
      </trkpt>
      <trkpt lat="34.76666005" lon="134.92438287">
        <ele>100.17</ele>
        <time>2026-09-17T04:07:44Z</time>
      </trkpt>
      <trkpt lat="34.76668869" lon="134.92427528">
        <ele>99.78</ele>
        <time>2026-09-17T04:07:53Z</time>
      </trkpt>
      <trkpt lat="34.7667202" lon="134.92417028">
        <ele>99.66</ele>
        <time>2026-09-17T04:08:02Z</time>
      </trkpt>
      <trkpt lat="34.76674679" lon="134.92405871">
        <ele>99.08</ele>
        <time>2026-09-17T04:08:12Z</time>
      </trkpt>
      <trkpt lat="34.76678699" lon="134.92395891">
        <ele>98.26</ele>
        <time>2026-09-17T04:08:22Z</time>
      </trkpt>
      <trkpt lat="34.76676791" lon="134.92384968">
        <ele>98.12</ele>
        <time>2026-09-17T04:08:31Z</time>
      </trkpt>
      <trkpt lat="34.76677116" lon="134.92373537">
        <ele>98.49</ele>
        <time>2026-09-17T04:08:40Z</time>
      </trkpt>
      <trkpt lat="34.76676338" lon="134.92362106">
        <ele>98.38</ele>
        <time>2026-09-17T04:08:50Z</time>
      </trkpt>
      <trkpt lat="34.76674766" lon="134.92350263">
        <ele>98.89</ele>
        <time>2026-09-17T04:09:00Z</time>
      </trkpt>
      <trkpt lat="34.76676202" lon="134.92338506">
        <ele>100.05</ele>
        <time>2026-09-17T04:09:10Z</time>
      </trkpt>
      <trkpt lat="34.76679582" lon="134.92327729">
        <ele>100.03</ele>
        <time>2026-09-17T04:09:22Z</time>
      </trkpt>
      <trkpt lat="34.76682375" lon="134.9232376">
        <ele>98.39</ele>
        <time>2026-09-17T04:11:23Z</time>
      </trkpt>
      <trkpt lat="34.76680735" lon="134.92323727">
        <ele>99.72</ele>
        <time>2026-09-17T04:13:24Z</time>
      </trkpt>
      <trkpt lat="34.76679901" lon="134.9232266">
        <ele>100.55</ele>
        <time>2026-09-17T04:16:19Z</time>
      </trkpt>
      <trkpt lat="34.76679945" lon="134.92322289">
        <ele>100.55</ele>
        <time>2026-09-17T04:19:02Z</time>
      </trkpt>
      <trkpt lat="34.76678822" lon="134.92321304">
        <ele>100.56</ele>
        <time>2026-09-17T04:21:03Z</time>
      </trkpt>
      <trkpt lat="34.76688136" lon="134.92321848">
        <ele>100.33</ele>
        <time>2026-09-17T04:21:18Z</time>
      </trkpt>
      <trkpt lat="34.76696485" lon="134.92316794">
        <ele>101.66</ele>
        <time>2026-09-17T04:21:29Z</time>
      </trkpt>
      <trkpt lat="34.76704835" lon="134.92311943">
        <ele>98.59</ele>
        <time>2026-09-17T04:21:41Z</time>
      </trkpt>
      <trkpt lat="34.76711151" lon="134.92302545">
        <ele>97.8</ele>
        <time>2026-09-17T04:21:51Z</time>
      </trkpt>
      <trkpt lat="34.76714708" lon="134.92292449">
        <ele>97.08</ele>
        <time>2026-09-17T04:22:00Z</time>
      </trkpt>
      <trkpt lat="34.76719484" lon="134.92282951">
        <ele>97.06</ele>
        <time>2026-09-17T04:22:10Z</time>
      </trkpt>
      <trkpt lat="34.76727157" lon="134.92275703">
        <ele>97.23</ele>
        <time>2026-09-17T04:22:20Z</time>
      </trkpt>
      <trkpt lat="34.76733831" lon="134.92267373">
        <ele>96.76</ele>
        <time>2026-09-17T04:22:30Z</time>
      </trkpt>
      <trkpt lat="34.76741084" lon="134.92260599">
        <ele>96.36</ele>
        <time>2026-09-17T04:22:41Z</time>
      </trkpt>
      <trkpt lat="34.76744663" lon="134.9224999">
        <ele>96.63</ele>
        <time>2026-09-17T04:22:51Z</time>
      </trkpt>
      <trkpt lat="34.76743902" lon="134.9223881">
        <ele>96.54</ele>
        <time>2026-09-17T04:23:01Z</time>
      </trkpt>
      <trkpt lat="34.7674188" lon="134.92226654">
        <ele>96.91</ele>
        <time>2026-09-17T04:23:12Z</time>
      </trkpt>
      <trkpt lat="34.76738748" lon="134.92216105">
        <ele>97.02</ele>
        <time>2026-09-17T04:23:21Z</time>
      </trkpt>
      <trkpt lat="34.76735475" lon="134.92204097">
        <ele>97.08</ele>
        <time>2026-09-17T04:23:31Z</time>
      </trkpt>
      <trkpt lat="34.76733776" lon="134.92192892">
        <ele>97.66</ele>
        <time>2026-09-17T04:23:41Z</time>
      </trkpt>
      <trkpt lat="34.76732605" lon="134.92180834">
        <ele>97.77</ele>
        <time>2026-09-17T04:23:51Z</time>
      </trkpt>
      <trkpt lat="34.7673286" lon="134.9216991">
        <ele>97.33</ele>
        <time>2026-09-17T04:24:00Z</time>
      </trkpt>
      <trkpt lat="34.76733534" lon="134.92158692">
        <ele>98.19</ele>
        <time>2026-09-17T04:24:10Z</time>
      </trkpt>
      <trkpt lat="34.76735756" lon="134.92147108">
        <ele>99.04</ele>
        <time>2026-09-17T04:24:33Z</time>
      </trkpt>
      <trkpt lat="34.76737566" lon="134.92135624">
        <ele>99.21</ele>
        <time>2026-09-17T04:24:52Z</time>
      </trkpt>
      <trkpt lat="34.76736615" lon="134.92124632">
        <ele>99.24</ele>
        <time>2026-09-17T04:25:02Z</time>
      </trkpt>
      <trkpt lat="34.76740669" lon="134.92114728">
        <ele>99.52</ele>
        <time>2026-09-17T04:25:28Z</time>
      </trkpt>
      <trkpt lat="34.76742537" lon="134.92103009">
        <ele>98.13</ele>
        <time>2026-09-17T04:25:43Z</time>
      </trkpt>
      <trkpt lat="34.76743624" lon="134.92091055">
        <ele>97.52</ele>
        <time>2026-09-17T04:25:53Z</time>
      </trkpt>
      <trkpt lat="34.76745933" lon="134.92079395">
        <ele>96.77</ele>
        <time>2026-09-17T04:26:03Z</time>
      </trkpt>
      <trkpt lat="34.76744832" lon="134.92068218">
        <ele>96.63</ele>
        <time>2026-09-17T04:26:19Z</time>
      </trkpt>
      <trkpt lat="34.7674522" lon="134.92056265">
        <ele>95.36</ele>
        <time>2026-09-17T04:26:28Z</time>
      </trkpt>
      <trkpt lat="34.76742573" lon="134.92045733">
        <ele>96.09</ele>
        <time>2026-09-17T04:26:46Z</time>
      </trkpt>
      <trkpt lat="34.76738757" lon="134.92034885">
        <ele>95.77</ele>
        <time>2026-09-17T04:26:56Z</time>
      </trkpt>
      <trkpt lat="34.76732854" lon="134.92026074">
        <ele>94.89</ele>
        <time>2026-09-17T04:27:06Z</time>
      </trkpt>
      <trkpt lat="34.76727906" lon="134.92016838">
        <ele>94.66</ele>
        <time>2026-09-17T04:27:16Z</time>
      </trkpt>
      <trkpt lat="34.76723024" lon="134.92007192">
        <ele>94.78</ele>
        <time>2026-09-17T04:27:26Z</time>
      </trkpt>
      <trkpt lat="34.76717514" lon="134.91994817">
        <ele>94.58</ele>
        <time>2026-09-17T04:27:38Z</time>
      </trkpt>
      <trkpt lat="34.76713074" lon="134.91985138">
        <ele>94.51</ele>
        <time>2026-09-17T04:27:47Z</time>
      </trkpt>
      <trkpt lat="34.76708852" lon="134.91974215">
        <ele>95.17</ele>
        <time>2026-09-17T04:27:57Z</time>
      </trkpt>
      <trkpt lat="34.76703455" lon="134.91964272">
        <ele>94.99</ele>
        <time>2026-09-17T04:28:06Z</time>
      </trkpt>
      <trkpt lat="34.76698762" lon="134.91954006">
        <ele>94.33</ele>
        <time>2026-09-17T04:28:15Z</time>
      </trkpt>
      <trkpt lat="34.76693445" lon="134.91943545">
        <ele>93.98</ele>
        <time>2026-09-17T04:28:25Z</time>
      </trkpt>
      <trkpt lat="34.76688033" lon="134.91933185">
        <ele>93.63</ele>
        <time>2026-09-17T04:28:35Z</time>
      </trkpt>
      <trkpt lat="34.76683762" lon="134.91923304">
        <ele>94.12</ele>
        <time>2026-09-17T04:28:44Z</time>
      </trkpt>
      <trkpt lat="34.76680197" lon="134.91912964">
        <ele>94.65</ele>
        <time>2026-09-17T04:28:53Z</time>
      </trkpt>
      <trkpt lat="34.76677948" lon="134.91902004">
        <ele>95.02</ele>
        <time>2026-09-17T04:29:06Z</time>
      </trkpt>
      <trkpt lat="34.76681228" lon="134.91890869">
        <ele>93.88</ele>
        <time>2026-09-17T04:29:16Z</time>
      </trkpt>
      <trkpt lat="34.76689711" lon="134.91884672">
        <ele>93.2</ele>
        <time>2026-09-17T04:29:25Z</time>
      </trkpt>
      <trkpt lat="34.7669969" lon="134.91888606">
        <ele>93.29</ele>
        <time>2026-09-17T04:29:34Z</time>
      </trkpt>
      <trkpt lat="34.76709377" lon="134.91886628">
        <ele>93.57</ele>
        <time>2026-09-17T04:29:42Z</time>
      </trkpt>
      <trkpt lat="34.76719309" lon="134.91888288">
        <ele>93.36</ele>
        <time>2026-09-17T04:29:50Z</time>
      </trkpt>
      <trkpt lat="34.76728972" lon="134.9189209">
        <ele>93.54</ele>
        <time>2026-09-17T04:29:59Z</time>
      </trkpt>
      <trkpt lat="34.76738034" lon="134.91893072">
        <ele>93.88</ele>
        <time>2026-09-17T04:30:07Z</time>
      </trkpt>
      <trkpt lat="34.76748042" lon="134.9189516">
        <ele>93.94</ele>
        <time>2026-09-17T04:30:17Z</time>
      </trkpt>
      <trkpt lat="34.76754199" lon="134.91886419">
        <ele>92.59</ele>
        <time>2026-09-17T04:30:27Z</time>
      </trkpt>
      <trkpt lat="34.76754697" lon="134.91874512">
        <ele>92.58</ele>
        <time>2026-09-17T04:30:37Z</time>
      </trkpt>
      <trkpt lat="34.76750649" lon="134.91867161">
        <ele>93.5</ele>
        <time>2026-09-17T04:32:38Z</time>
      </trkpt>
    </trkseg>
  </trk>
</gpx>