<?xml version='1.0' encoding='UTF-8' standalone='yes' ?>
<gpx xmlns="http://www.topografix.com/GPX/1/1" xmlns:geotracker="http://ilyabogdanovich.com/gpx/extensions/geotracker" xmlns:xsi="http://www.w3.org/2001/XMLSchema-instance" xsi:schemaLocation="http://www.topografix.com/GPX/1/1 http://www.topografix.com/GPX/1/1/gpx.xsd" version="1.1" creator="Recorded in Geo Tracker for Android from Ilya Bogdanovich">
  <metadata>
    <name>2026/09/23 10:13:08</name>
    <author>
      <name>Recorded in Geo Tracker for Android from Ilya Bogdanovich</name>
      <link href="https://play.google.com/store/apps/details?id=com.ilyabogdanovich.geotracker" />
    </author>
    <link href="https://play.google.com/store/apps/details?id=com.ilyabogdanovich.geotracker" />
    <time>2026-09-23T01:13:08Z</time>
  </metadata>
  <wpt lat="34.73778897" lon="135.17952775">
    <ele>453.64</ele>
    <time>2026-09-23T01:25:13Z</time>
    <name>Stop for ~3 min</name>
    <desc>Elevation: 454 m
Time from start: 00:12:04
Distance from start: 599 m</desc>
    <extensions>
      <geotracker:meta emoji="⏱️" />
    </extensions>
  </wpt>
  <wpt lat="34.73615376" lon="135.17478228">
    <ele>473.64</ele>
    <time>2026-09-23T02:23:53Z</time>
    <name>Stop for ~5 min</name>
    <desc>Elevation: 474 m
Time from start: 01:10:44
Distance from start: 2.62 km</desc>
    <extensions>
      <geotracker:meta emoji="⏱️" />
    </extensions>
  </wpt>
  <wpt lat="34.73945114" lon="135.17876902">
    <ele>473.53</ele>
    <time>2026-09-23T02:46:56Z</time>
    <name>Stop for ~6 min</name>
    <desc>Elevation: 474 m
Time from start: 01:33:47
Distance from start: 3.32 km</desc>
    <extensions>
      <geotracker:meta emoji="⏱️" />
    </extensions>
  </wpt>
  <wpt lat="34.74321939" lon="135.17897014">
    <ele>499.36</ele>
    <time>2026-09-23T03:18:28Z</time>
    <name>Stop for ~21 min</name>
    <desc>Elevation: 499 m
Time from start: 02:05:19
Distance from start: 4.09 km</desc>
    <extensions>
      <geotracker:meta emoji="⏱️" />
    </extensions>
  </wpt>
  <trk>
    <name>2026/09/23 10:13:08</name>
    <src>Recorded in Geo Tracker for Android from Ilya Bogdanovich</src>
    <link href="https://play.google.com/store/apps/details?id=com.ilyabogdanovich.geotracker" />
    <extensions>
      <geotracker:meta>
        <geotracker:length>4085.58</geotracker:length>
        <geotracker:duration>8920325</geotracker:duration>
        <geotracker:creationtime>2026-09-23T01:13:08Z</geotracker:creationtime>
        <geotracker:activity>0</geotracker:activity>
      </geotracker:meta>
    </extensions>
    <trkseg>
      <trkpt lat="34.74212616" lon="135.17696482">
        <ele>476.45</ele>
        <time>2026-09-23T01:13:18Z</time>
      </trkpt>
      <trkpt lat="34.74204139" lon="135.17701152">
        <ele>472.61</ele>
        <time>2026-09-23T01:13:29Z</time>
      </trkpt>
      <trkpt lat="34.74195024" lon="135.17699162">
        <ele>471.53</ele>
        <time>2026-09-23T01:13:38Z</time>
      </trkpt>
      <trkpt lat="34.74196533" lon="135.17709953">
        <ele>474.9</ele>
        <time>2026-09-23T01:13:57Z</time>
      </trkpt>
      <trkpt lat="34.74187884" lon="135.17713395">
        <ele>473.49</ele>
        <time>2026-09-23T01:14:07Z</time>
      </trkpt>
      <trkpt lat="34.74179375" lon="135.17718336">
        <ele>472.51</ele>
        <time>2026-09-23T01:14:18Z</time>
      </trkpt>
      <trkpt lat="34.74171372" lon="135.17723593">
        <ele>474.33</ele>
        <time>2026-09-23T01:14:28Z</time>
      </trkpt>
      <trkpt lat="34.74164536" lon="135.1773187">
        <ele>472.92</ele>
        <time>2026-09-23T01:14:38Z</time>
      </trkpt>
      <trkpt lat="34.74156557" lon="135.17738833">
        <ele>473.89</ele>
        <time>2026-09-23T01:14:52Z</time>
      </trkpt>
      <trkpt lat="34.74148812" lon="135.17745383">
        <ele>471.16</ele>
        <time>2026-09-23T01:15:00Z</time>
      </trkpt>
      <trkpt lat="34.74140304" lon="135.17752611">
        <ele>468.8</ele>
        <time>2026-09-23T01:15:10Z</time>
      </trkpt>
      <trkpt lat="34.74133399" lon="135.17760016">
        <ele>466.34</ele>
        <time>2026-09-23T01:15:20Z</time>
      </trkpt>
      <trkpt lat="34.74125979" lon="135.17767507">
        <ele>467</ele>
        <time>2026-09-23T01:15:30Z</time>
      </trkpt>
      <trkpt lat="34.74117036" lon="135.17772688">
        <ele>464.09</ele>
        <time>2026-09-23T01:15:42Z</time>
      </trkpt>
      <trkpt lat="34.74108119" lon="135.17775575">
        <ele>465.86</ele>
        <time>2026-09-23T01:15:50Z</time>
      </trkpt>
      <trkpt lat="34.74099033" lon="135.17777215">
        <ele>466.06</ele>
        <time>2026-09-23T01:16:00Z</time>
      </trkpt>
      <trkpt lat="34.74090093" lon="135.17781157">
        <ele>464.44</ele>
        <time>2026-09-23T01:16:09Z</time>
      </trkpt>
      <trkpt lat="34.74081477" lon="135.17785722">
        <ele>463.84</ele>
        <time>2026-09-23T01:16:18Z</time>
      </trkpt>
      <trkpt lat="34.74077511" lon="135.17775143">
        <ele>466.18</ele>
        <time>2026-09-23T01:16:27Z</time>
      </trkpt>
      <trkpt lat="34.74070377" lon="135.1778256">
        <ele>466.08</ele>
        <time>2026-09-23T01:16:59Z</time>
      </trkpt>
      <trkpt lat="34.74061395" lon="135.1777881">
        <ele>464.2</ele>
        <time>2026-09-23T01:17:13Z</time>
      </trkpt>
      <trkpt lat="34.74051947" lon="135.17775585">
        <ele>464.55</ele>
        <time>2026-09-23T01:17:23Z</time>
      </trkpt>
      <trkpt lat="34.74042756" lon="135.17774189">
        <ele>466</ele>
        <time>2026-09-23T01:17:33Z</time>
      </trkpt>
      <trkpt lat="34.74033868" lon="135.17771177">
        <ele>464.82</ele>
        <time>2026-09-23T01:17:46Z</time>
      </trkpt>
      <trkpt lat="34.74024227" lon="135.17771036">
        <ele>466.08</ele>
        <time>2026-09-23T01:17:56Z</time>
      </trkpt>
      <trkpt lat="34.74014556" lon="135.17771181">
        <ele>467.05</ele>
        <time>2026-09-23T01:18:06Z</time>
      </trkpt>
      <trkpt lat="34.74005277" lon="135.17772857">
        <ele>467.76</ele>
        <time>2026-09-23T01:18:16Z</time>
      </trkpt>
      <trkpt lat="34.73996113" lon="135.1777445">
        <ele>467.11</ele>
        <time>2026-09-23T01:18:28Z</time>
      </trkpt>
      <trkpt lat="34.73985978" lon="135.17774912">
        <ele>465.77</ele>
        <time>2026-09-23T01:18:40Z</time>
      </trkpt>
      <trkpt lat="34.73976958" lon="135.17776653">
        <ele>461.39</ele>
        <time>2026-09-23T01:18:52Z</time>
      </trkpt>
      <trkpt lat="34.73967984" lon="135.17778008">
        <ele>457.78</ele>
        <time>2026-09-23T01:19:03Z</time>
      </trkpt>
      <trkpt lat="34.7395945" lon="135.17781855">
        <ele>457.17</ele>
        <time>2026-09-23T01:19:13Z</time>
      </trkpt>
      <trkpt lat="34.73950939" lon="135.17786988">
        <ele>457.28</ele>
        <time>2026-09-23T01:19:23Z</time>
      </trkpt>
      <trkpt lat="34.73942101" lon="135.17791924">
        <ele>457.04</ele>
        <time>2026-09-23T01:19:34Z</time>
      </trkpt>
      <trkpt lat="34.73934467" lon="135.17798847">
        <ele>450.65</ele>
        <time>2026-09-23T01:19:46Z</time>
      </trkpt>
      <trkpt lat="34.73928265" lon="135.17807973">
        <ele>449.41</ele>
        <time>2026-09-23T01:19:57Z</time>
      </trkpt>
      <trkpt lat="34.73924353" lon="135.17818223">
        <ele>449.28</ele>
        <time>2026-09-23T01:20:08Z</time>
      </trkpt>
      <trkpt lat="34.73922324" lon="135.17829773">
        <ele>450.84</ele>
        <time>2026-09-23T01:20:18Z</time>
      </trkpt>
      <trkpt lat="34.73916899" lon="135.1783988">
        <ele>453.14</ele>
        <time>2026-09-23T01:20:27Z</time>
      </trkpt>
      <trkpt lat="34.73909594" lon="135.17847236">
        <ele>450.75</ele>
        <time>2026-09-23T01:20:37Z</time>
      </trkpt>
      <trkpt lat="34.73900897" lon="135.17852183">
        <ele>454.22</ele>
        <time>2026-09-23T01:20:48Z</time>
      </trkpt>
      <trkpt lat="34.73891982" lon="135.17854315">
        <ele>451.96</ele>
        <time>2026-09-23T01:20:59Z</time>
      </trkpt>
      <trkpt lat="34.73882673" lon="135.17857615">
        <ele>454.87</ele>
        <time>2026-09-23T01:21:10Z</time>
      </trkpt>
      <trkpt lat="34.73873397" lon="135.17859321">
        <ele>456.39</ele>
        <time>2026-09-23T01:21:20Z</time>
      </trkpt>
      <trkpt lat="34.7386381" lon="135.17863932">
        <ele>453.21</ele>
        <time>2026-09-23T01:21:32Z</time>
      </trkpt>
      <trkpt lat="34.73855552" lon="135.17868577">
        <ele>453.06</ele>
        <time>2026-09-23T01:21:45Z</time>
      </trkpt>
      <trkpt lat="34.73847401" lon="135.17873254">
        <ele>450.81</ele>
        <time>2026-09-23T01:21:58Z</time>
      </trkpt>
      <trkpt lat="34.73838495" lon="135.1787634">
        <ele>452.51</ele>
        <time>2026-09-23T01:22:15Z</time>
      </trkpt>
      <trkpt lat="34.73830285" lon="135.17885345">
        <ele>453.08</ele>
        <time>2026-09-23T01:22:30Z</time>
      </trkpt>
      <trkpt lat="34.73826574" lon="135.17895914">
        <ele>456.02</ele>
        <time>2026-09-23T01:22:44Z</time>
      </trkpt>
      <trkpt lat="34.73825514" lon="135.17906805">
        <ele>460.34</ele>
        <time>2026-09-23T01:22:57Z</time>
      </trkpt>
      <trkpt lat="34.73821467" lon="135.17916721">
        <ele>457.87</ele>
        <time>2026-09-23T01:23:07Z</time>
      </trkpt>
      <trkpt lat="34.73815372" lon="135.17925478">
        <ele>458.59</ele>
        <time>2026-09-23T01:23:17Z</time>
      </trkpt>
      <trkpt lat="34.73810268" lon="135.17935012">
        <ele>456.19</ele>
        <time>2026-09-23T01:23:26Z</time>
      </trkpt>
      <trkpt lat="34.73804655" lon="135.17943869">
        <ele>452.5</ele>
        <time>2026-09-23T01:23:38Z</time>
      </trkpt>
      <trkpt lat="34.73797043" lon="135.17950171">
        <ele>453.27</ele>
        <time>2026-09-23T01:23:49Z</time>
      </trkpt>
      <trkpt lat="34.73788281" lon="135.17953642">
        <ele>449.52</ele>
        <time>2026-09-23T01:24:39Z</time>
      </trkpt>
      <trkpt lat="34.73778897" lon="135.17952775">
        <ele>453.64</ele>
        <time>2026-09-23T01:25:13Z</time>
      </trkpt>
      <trkpt lat="34.73772004" lon="135.17951059">
        <ele>464.18</ele>
        <time>2026-09-23T01:27:45Z</time>
      </trkpt>
      <trkpt lat="34.73764053" lon="135.17945075">
        <ele>465.69</ele>
        <time>2026-09-23T01:28:04Z</time>
      </trkpt>
      <trkpt lat="34.73754632" lon="135.17940049">
        <ele>464.21</ele>
        <time>2026-09-23T01:28:37Z</time>
      </trkpt>
      <trkpt lat="34.73746327" lon="135.1793499">
        <ele>464.61</ele>
        <time>2026-09-23T01:28:57Z</time>
      </trkpt>
      <trkpt lat="34.7373657" lon="135.17930753">
        <ele>463.44</ele>
        <time>2026-09-23T01:29:14Z</time>
      </trkpt>
      <trkpt lat="34.73727183" lon="135.17926313">
        <ele>460.85</ele>
        <time>2026-09-23T01:29:24Z</time>
      </trkpt>
      <trkpt lat="34.73716621" lon="135.17926189">
        <ele>460.85</ele>
        <time>2026-09-23T01:29:35Z</time>
      </trkpt>
      <trkpt lat="34.73708841" lon="135.17933185">
        <ele>462.64</ele>
        <time>2026-09-23T01:29:46Z</time>
      </trkpt>
      <trkpt lat="34.73708208" lon="135.17944711">
        <ele>467.39</ele>
        <time>2026-09-23T01:29:56Z</time>
      </trkpt>
      <trkpt lat="34.73711572" lon="135.17955282">
        <ele>469.79</ele>
        <time>2026-09-23T01:30:06Z</time>
      </trkpt>
      <trkpt lat="34.73713835" lon="135.17966622">
        <ele>472.48</ele>
        <time>2026-09-23T01:30:17Z</time>
      </trkpt>
      <trkpt lat="34.73716595" lon="135.17977091">
        <ele>471.53</ele>
        <time>2026-09-23T01:30:27Z</time>
      </trkpt>
      <trkpt lat="34.73717947" lon="135.17987956">
        <ele>474.45</ele>
        <time>2026-09-23T01:30:40Z</time>
      </trkpt>
      <trkpt lat="34.73719161" lon="135.17999594">
        <ele>476.8</ele>
        <time>2026-09-23T01:30:51Z</time>
      </trkpt>
      <trkpt lat="34.7372215" lon="135.18010924">
        <ele>478.78</ele>
        <time>2026-09-23T01:31:01Z</time>
      </trkpt>
      <trkpt lat="34.73725162" lon="135.18021352">
        <ele>479.24</ele>
        <time>2026-09-23T01:31:10Z</time>
      </trkpt>
      <trkpt lat="34.73729671" lon="135.18033097">
        <ele>478.02</ele>
        <time>2026-09-23T01:31:22Z</time>
      </trkpt>
      <trkpt lat="34.73732562" lon="135.18045331">
        <ele>477.05</ele>
        <time>2026-09-23T01:31:34Z</time>
      </trkpt>
      <trkpt lat="34.73735617" lon="135.18056306">
        <ele>476.74</ele>
        <time>2026-09-23T01:31:45Z</time>
      </trkpt>
      <trkpt lat="34.73737399" lon="135.18067124">
        <ele>475.22</ele>
        <time>2026-09-23T01:31:56Z</time>
      </trkpt>
      <trkpt lat="34.73737672" lon="135.18078896">
        <ele>474.71</ele>
        <time>2026-09-23T01:32:05Z</time>
      </trkpt>
      <trkpt lat="34.73738314" lon="135.18091585">
        <ele>474.53</ele>
        <time>2026-09-23T01:32:18Z</time>
      </trkpt>
      <trkpt lat="34.73742615" lon="135.18102262">
        <ele>474.4</ele>
        <time>2026-09-23T01:32:28Z</time>
      </trkpt>
      <trkpt lat="34.73749599" lon="135.18110442">
        <ele>470.54</ele>
        <time>2026-09-23T01:32:39Z</time>
      </trkpt>
      <trkpt lat="34.73758158" lon="135.18115315">
        <ele>468.96</ele>
        <time>2026-09-23T01:32:50Z</time>
      </trkpt>
      <trkpt lat="34.73764654" lon="135.18124876">
        <ele>466.63</ele>
        <time>2026-09-23T01:34:44Z</time>
      </trkpt>
      <trkpt lat="34.73769425" lon="135.18134159">
        <ele>465.93</ele>
        <time>2026-09-23T01:34:55Z</time>
      </trkpt>
      <trkpt lat="34.73774876" lon="135.1814307">
        <ele>464.95</ele>
        <time>2026-09-23T01:35:19Z</time>
      </trkpt>
      <trkpt lat="34.73778142" lon="135.1815339">
        <ele>467.48</ele>
        <time>2026-09-23T01:35:35Z</time>
      </trkpt>
      <trkpt lat="34.73778825" lon="135.18164744">
        <ele>469.35</ele>
        <time>2026-09-23T01:35:51Z</time>
      </trkpt>
      <trkpt lat="34.7377731" lon="135.18176912">
        <ele>468.53</ele>
        <time>2026-09-23T01:36:06Z</time>
      </trkpt>
      <trkpt lat="34.73779201" lon="135.18188491">
        <ele>468.5</ele>
        <time>2026-09-23T01:36:25Z</time>
      </trkpt>
      <trkpt lat="34.737835" lon="135.18198723">
        <ele>467.9</ele>
        <time>2026-09-23T01:36:46Z</time>
      </trkpt>
      <trkpt lat="34.73775908" lon="135.18191088">
        <ele>462.44</ele>
        <time>2026-09-23T01:37:40Z</time>
      </trkpt>
      <trkpt lat="34.73766528" lon="135.18189021">
        <ele>464.69</ele>
        <time>2026-09-23T01:38:05Z</time>
      </trkpt>
      <trkpt lat="34.73757277" lon="135.18187107">
        <ele>463.62</ele>
        <time>2026-09-23T01:38:15Z</time>
      </trkpt>
      <trkpt lat="34.73747959" lon="135.18186201">
        <ele>463.31</ele>
        <time>2026-09-23T01:38:26Z</time>
      </trkpt>
      <trkpt lat="34.73737874" lon="135.18190301">
        <ele>458.06</ele>
        <time>2026-09-23T01:38:40Z</time>
      </trkpt>
      <trkpt lat="34.73732742" lon="135.18199558">
        <ele>458.45</ele>
        <time>2026-09-23T01:38:50Z</time>
      </trkpt>
      <trkpt lat="34.73728992" lon="135.18210023">
        <ele>457.57</ele>
        <time>2026-09-23T01:39:00Z</time>
      </trkpt>
      <trkpt lat="34.73726566" lon="135.18220818">
        <ele>456.68</ele>
        <time>2026-09-23T01:39:11Z</time>
      </trkpt>
      <trkpt lat="34.73726141" lon="135.18232745">
        <ele>458.58</ele>
        <time>2026-09-23T01:39:22Z</time>
      </trkpt>
      <trkpt lat="34.7372612" lon="135.18245098">
        <ele>459.59</ele>
        <time>2026-09-23T01:39:35Z</time>
      </trkpt>
      <trkpt lat="34.73725472" lon="135.18256747">
        <ele>457.99</ele>
        <time>2026-09-23T01:39:48Z</time>
      </trkpt>
      <trkpt lat="34.73724693" lon="135.18268332">
        <ele>458.36</ele>
        <time>2026-09-23T01:40:00Z</time>
      </trkpt>
      <trkpt lat="34.7372302" lon="135.18279353">
        <ele>458.49</ele>
        <time>2026-09-23T01:40:18Z</time>
      </trkpt>
      <trkpt lat="34.73721827" lon="135.1829038">
        <ele>460.85</ele>
        <time>2026-09-23T01:40:30Z</time>
      </trkpt>
      <trkpt lat="34.7371626" lon="135.18281702">
        <ele>455.24</ele>
        <time>2026-09-23T01:40:48Z</time>
      </trkpt>
      <trkpt lat="34.73712343" lon="135.18271789">
        <ele>453.37</ele>
        <time>2026-09-23T01:40:58Z</time>
      </trkpt>
      <trkpt lat="34.73707948" lon="135.18262098">
        <ele>450.69</ele>
        <time>2026-09-23T01:41:11Z</time>
      </trkpt>
      <trkpt lat="34.73703329" lon="135.18251881">
        <ele>449.35</ele>
        <time>2026-09-23T01:41:22Z</time>
      </trkpt>
      <trkpt lat="34.73698146" lon="135.18242898">
        <ele>447.38</ele>
        <time>2026-09-23T01:41:33Z</time>
      </trkpt>
      <trkpt lat="34.73691519" lon="135.18234516">
        <ele>446.66</ele>
        <time>2026-09-23T01:41:44Z</time>
      </trkpt>
      <trkpt lat="34.73686091" lon="135.18225724">
        <ele>447.04</ele>
        <time>2026-09-23T01:41:54Z</time>
      </trkpt>
      <trkpt lat="34.73681398" lon="135.18216056">
        <ele>448.41</ele>
        <time>2026-09-23T01:42:24Z</time>
      </trkpt>
      <trkpt lat="34.73672251" lon="135.18214639">
        <ele>446.6</ele>
        <time>2026-09-23T01:42:34Z</time>
      </trkpt>
      <trkpt lat="34.73666092" lon="135.18223005">
        <ele>445.58</ele>
        <time>2026-09-23T01:42:44Z</time>
      </trkpt>
      <trkpt lat="34.73656506" lon="135.18224715">
        <ele>443.75</ele>
        <time>2026-09-23T01:42:56Z</time>
      </trkpt>
      <trkpt lat="34.73647412" lon="135.1822057">
        <ele>446.58</ele>
        <time>2026-09-23T01:43:07Z</time>
      </trkpt>
      <trkpt lat="34.73643349" lon="135.18210254">
        <ele>446.31</ele>
        <time>2026-09-23T01:43:19Z</time>
      </trkpt>
      <trkpt lat="34.73639156" lon="135.18200487">
        <ele>447.16</ele>
        <time>2026-09-23T01:43:29Z</time>
      </trkpt>
      <trkpt lat="34.73635832" lon="135.18189767">
        <ele>446.6</ele>
        <time>2026-09-23T01:43:41Z</time>
      </trkpt>
      <trkpt lat="34.73640472" lon="135.1817957">
        <ele>444.25</ele>
        <time>2026-09-23T01:44:00Z</time>
      </trkpt>
      <trkpt lat="34.73644434" lon="135.18169741">
        <ele>444.1</ele>
        <time>2026-09-23T01:44:14Z</time>
      </trkpt>
      <trkpt lat="34.7364158" lon="135.18157651">
        <ele>445.3</ele>
        <time>2026-09-23T01:44:26Z</time>
      </trkpt>
      <trkpt lat="34.73646088" lon="135.18147976">
        <ele>444.79</ele>
        <time>2026-09-23T01:44:37Z</time>
      </trkpt>
      <trkpt lat="34.73656224" lon="135.18150626">
        <ele>444.75</ele>
        <time>2026-09-23T01:44:48Z</time>
      </trkpt>
      <trkpt lat="34.73665665" lon="135.18150383">
        <ele>440.31</ele>
        <time>2026-09-23T01:45:01Z</time>
      </trkpt>
      <trkpt lat="34.73674475" lon="135.18145043">
        <ele>440.94</ele>
        <time>2026-09-23T01:45:19Z</time>
      </trkpt>
      <trkpt lat="34.73679857" lon="135.18134353">
        <ele>436.06</ele>
        <time>2026-09-23T01:45:29Z</time>
      </trkpt>
      <trkpt lat="34.73674537" lon="135.18124364">
        <ele>437.02</ele>
        <time>2026-09-23T01:45:39Z</time>
      </trkpt>
      <trkpt lat="34.73666481" lon="135.18114237">
        <ele>436.81</ele>
        <time>2026-09-23T01:45:50Z</time>
      </trkpt>
      <trkpt lat="34.7365939" lon="135.18105967">
        <ele>437.63</ele>
        <time>2026-09-23T01:46:01Z</time>
      </trkpt>
      <trkpt lat="34.73653935" lon="135.18096265">
        <ele>438.5</ele>
        <time>2026-09-23T01:46:11Z</time>
      </trkpt>
      <trkpt lat="34.73647319" lon="135.18087661">
        <ele>438.12</ele>
        <time>2026-09-23T01:46:22Z</time>
      </trkpt>
      <trkpt lat="34.7364104" lon="135.18078937">
        <ele>440.09</ele>
        <time>2026-09-23T01:46:32Z</time>
      </trkpt>
      <trkpt lat="34.73633375" lon="135.18072703">
        <ele>441.86</ele>
        <time>2026-09-23T01:46:44Z</time>
      </trkpt>
      <trkpt lat="34.73624219" lon="135.18074901">
        <ele>441.54</ele>
        <time>2026-09-23T01:46:53Z</time>
      </trkpt>
      <trkpt lat="34.73616458" lon="135.1808126">
        <ele>437.26</ele>
        <time>2026-09-23T01:47:10Z</time>
      </trkpt>
      <trkpt lat="34.73607125" lon="135.18077971">
        <ele>438.18</ele>
        <time>2026-09-23T01:47:23Z</time>
      </trkpt>
      <trkpt lat="34.73605213" lon="135.18067073">
        <ele>438.77</ele>
        <time>2026-09-23T01:47:37Z</time>
      </trkpt>
      <trkpt lat="34.736082" lon="135.18056524">
        <ele>438.67</ele>
        <time>2026-09-23T01:47:49Z</time>
      </trkpt>
      <trkpt lat="34.73605752" lon="135.1804571">
        <ele>438.52</ele>
        <time>2026-09-23T01:48:01Z</time>
      </trkpt>
      <trkpt lat="34.73597774" lon="135.18039125">
        <ele>436.79</ele>
        <time>2026-09-23T01:48:10Z</time>
      </trkpt>
      <trkpt lat="34.73590123" lon="135.1803224">
        <ele>436.35</ele>
        <time>2026-09-23T01:48:19Z</time>
      </trkpt>
      <trkpt lat="34.73583637" lon="135.18024119">
        <ele>437.42</ele>
        <time>2026-09-23T01:48:31Z</time>
      </trkpt>
      <trkpt lat="34.73579759" lon="135.18014059">
        <ele>440.1</ele>
        <time>2026-09-23T01:48:56Z</time>
      </trkpt>
      <trkpt lat="34.73578088" lon="135.18002977">
        <ele>441.28</ele>
        <time>2026-09-23T01:49:26Z</time>
      </trkpt>
      <trkpt lat="34.73581456" lon="135.17992135">
        <ele>442.14</ele>
        <time>2026-09-23T01:49:55Z</time>
      </trkpt>
      <trkpt lat="34.73588397" lon="135.17984974">
        <ele>441.18</ele>
        <time>2026-09-23T01:50:07Z</time>
      </trkpt>
      <trkpt lat="34.73594522" lon="135.17975833">
        <ele>440.88</ele>
        <time>2026-09-23T01:50:18Z</time>
      </trkpt>
      <trkpt lat="34.73600137" lon="135.17966291">
        <ele>442.53</ele>
        <time>2026-09-23T01:50:27Z</time>
      </trkpt>
      <trkpt lat="34.73599128" lon="135.17954754">
        <ele>444.6</ele>
        <time>2026-09-23T01:50:39Z</time>
      </trkpt>
      <trkpt lat="34.73590641" lon="135.17950525">
        <ele>445.13</ele>
        <time>2026-09-23T01:50:49Z</time>
      </trkpt>
      <trkpt lat="34.73582012" lon="135.17946166">
        <ele>444.9</ele>
        <time>2026-09-23T01:50:59Z</time>
      </trkpt>
      <trkpt lat="34.73573409" lon="135.17941211">
        <ele>444.81</ele>
        <time>2026-09-23T01:51:13Z</time>
      </trkpt>
      <trkpt lat="34.73565463" lon="135.17934148">
        <ele>448.09</ele>
        <time>2026-09-23T01:51:28Z</time>
      </trkpt>
      <trkpt lat="34.73562095" lon="135.17922746">
        <ele>446.76</ele>
        <time>2026-09-23T01:51:46Z</time>
      </trkpt>
      <trkpt lat="34.7355958" lon="135.1791193">
        <ele>447.24</ele>
        <time>2026-09-23T01:51:55Z</time>
      </trkpt>
      <trkpt lat="34.73564019" lon="135.17901715">
        <ele>446.77</ele>
        <time>2026-09-23T01:52:08Z</time>
      </trkpt>
      <trkpt lat="34.73566496" lon="135.17891134">
        <ele>449.31</ele>
        <time>2026-09-23T01:52:21Z</time>
      </trkpt>
      <trkpt lat="34.735593" lon="135.17883344">
        <ele>446.96</ele>
        <time>2026-09-23T01:52:38Z</time>
      </trkpt>
      <trkpt lat="34.73549655" lon="135.17881951">
        <ele>451.17</ele>
        <time>2026-09-23T01:52:50Z</time>
      </trkpt>
      <trkpt lat="34.7354457" lon="135.17872379">
        <ele>446.29</ele>
        <time>2026-09-23T01:53:10Z</time>
      </trkpt>
      <trkpt lat="34.73543918" lon="135.17861483">
        <ele>447.19</ele>
        <time>2026-09-23T01:53:19Z</time>
      </trkpt>
      <trkpt lat="34.73540927" lon="135.17850343">
        <ele>448.7</ele>
        <time>2026-09-23T01:53:35Z</time>
      </trkpt>
      <trkpt lat="34.73535811" lon="135.17841166">
        <ele>446.78</ele>
        <time>2026-09-23T01:53:46Z</time>
      </trkpt>
      <trkpt lat="34.73526963" lon="135.17835734">
        <ele>447.25</ele>
        <time>2026-09-23T01:54:00Z</time>
      </trkpt>
      <trkpt lat="34.73518267" lon="135.17831032">
        <ele>445.5</ele>
        <time>2026-09-23T01:54:14Z</time>
      </trkpt>
      <trkpt lat="34.73509584" lon="135.17827888">
        <ele>448.65</ele>
        <time>2026-09-23T01:54:27Z</time>
      </trkpt>
      <trkpt lat="34.73500045" lon="135.1782833">
        <ele>447.12</ele>
        <time>2026-09-23T01:54:39Z</time>
      </trkpt>
      <trkpt lat="34.73492859" lon="135.17820911">
        <ele>452.8</ele>
        <time>2026-09-23T01:54:53Z</time>
      </trkpt>
      <trkpt lat="34.7348492" lon="135.17814411">
        <ele>454.28</ele>
        <time>2026-09-23T01:55:06Z</time>
      </trkpt>
      <trkpt lat="34.73475984" lon="135.17812911">
        <ele>452.72</ele>
        <time>2026-09-23T01:55:21Z</time>
      </trkpt>
      <trkpt lat="34.73466775" lon="135.17810869">
        <ele>454.59</ele>
        <time>2026-09-23T01:55:37Z</time>
      </trkpt>
      <trkpt lat="34.73457987" lon="135.1780672">
        <ele>455.07</ele>
        <time>2026-09-23T01:56:05Z</time>
      </trkpt>
      <trkpt lat="34.73449045" lon="135.17802321">
        <ele>454.02</ele>
        <time>2026-09-23T01:56:32Z</time>
      </trkpt>
      <trkpt lat="34.73440256" lon="135.17799116">
        <ele>450.85</ele>
        <time>2026-09-23T01:56:50Z</time>
      </trkpt>
      <trkpt lat="34.73432567" lon="135.17793105">
        <ele>456.39</ele>
        <time>2026-09-23T01:57:06Z</time>
      </trkpt>
      <trkpt lat="34.73424792" lon="135.17786389">
        <ele>459.31</ele>
        <time>2026-09-23T01:57:18Z</time>
      </trkpt>
      <trkpt lat="34.73417828" lon="135.17778796">
        <ele>458.82</ele>
        <time>2026-09-23T01:57:31Z</time>
      </trkpt>
      <trkpt lat="34.73409295" lon="135.17773058">
        <ele>457.63</ele>
        <time>2026-09-23T01:57:45Z</time>
      </trkpt>
      <trkpt lat="34.73401237" lon="135.17767256">
        <ele>460.31</ele>
        <time>2026-09-23T01:58:00Z</time>
      </trkpt>
      <trkpt lat="34.73395791" lon="135.17757503">
        <ele>462.49</ele>
        <time>2026-09-23T01:58:11Z</time>
      </trkpt>
      <trkpt lat="34.73394404" lon="135.17746476">
        <ele>462.81</ele>
        <time>2026-09-23T01:58:24Z</time>
      </trkpt>
      <trkpt lat="34.73393966" lon="135.17734384">
        <ele>469.2</ele>
        <time>2026-09-23T01:58:40Z</time>
      </trkpt>
      <trkpt lat="34.73390619" lon="135.17723173">
        <ele>469.56</ele>
        <time>2026-09-23T01:58:47Z</time>
      </trkpt>
      <trkpt lat="34.73382418" lon="135.17716305">
        <ele>474.13</ele>
        <time>2026-09-23T01:59:00Z</time>
      </trkpt>
      <trkpt lat="34.73373314" lon="135.17714088">
        <ele>475.34</ele>
        <time>2026-09-23T01:59:14Z</time>
      </trkpt>
      <trkpt lat="34.73364525" lon="135.17711055">
        <ele>474.73</ele>
        <time>2026-09-23T01:59:34Z</time>
      </trkpt>
      <trkpt lat="34.73355736" lon="135.17621199">
        <ele>471.82</ele>
        <time>2026-09-23T02:00:50Z</time>
      </trkpt>
      <trkpt lat="34.73356039" lon="135.17609617">
        <ele>485.02</ele>
        <time>2026-09-23T02:00:59Z</time>
      </trkpt>
      <trkpt lat="34.73361826" lon="135.17599655">
        <ele>485.65</ele>
        <time>2026-09-23T02:01:08Z</time>
      </trkpt>
      <trkpt lat="34.73364409" lon="135.17589115">
        <ele>475.89</ele>
        <time>2026-09-23T02:01:20Z</time>
      </trkpt>
      <trkpt lat="34.73365644" lon="135.1757795">
        <ele>476.18</ele>
        <time>2026-09-23T02:01:36Z</time>
      </trkpt>
      <trkpt lat="34.73368425" lon="135.1756696">
        <ele>478.86</ele>
        <time>2026-09-23T02:01:50Z</time>
      </trkpt>
      <trkpt lat="34.73371877" lon="135.1755611">
        <ele>476.63</ele>
        <time>2026-09-23T02:02:12Z</time>
      </trkpt>
      <trkpt lat="34.73377631" lon="135.17547631">
        <ele>470.93</ele>
        <time>2026-09-23T02:02:28Z</time>
      </trkpt>
      <trkpt lat="34.73382373" lon="135.17538307">
        <ele>468.84</ele>
        <time>2026-09-23T02:02:42Z</time>
      </trkpt>
      <trkpt lat="34.73385375" lon="135.17527581">
        <ele>465.96</ele>
        <time>2026-09-23T02:03:35Z</time>
      </trkpt>
      <trkpt lat="34.73383961" lon="135.17516502">
        <ele>464.45</ele>
        <time>2026-09-23T02:04:06Z</time>
      </trkpt>
      <trkpt lat="34.73385168" lon="135.17505096">
        <ele>465.15</ele>
        <time>2026-09-23T02:04:22Z</time>
      </trkpt>
      <trkpt lat="34.73390478" lon="135.17494943">
        <ele>464.42</ele>
        <time>2026-09-23T02:04:39Z</time>
      </trkpt>
      <trkpt lat="34.73391637" lon="135.1748406">
        <ele>469.4</ele>
        <time>2026-09-23T02:04:50Z</time>
      </trkpt>
      <trkpt lat="34.73389788" lon="135.17473254">
        <ele>464.45</ele>
        <time>2026-09-23T02:05:02Z</time>
      </trkpt>
      <trkpt lat="34.73389001" lon="135.17462128">
        <ele>460.9</ele>
        <time>2026-09-23T02:05:23Z</time>
      </trkpt>
      <trkpt lat="34.7339283" lon="135.17452147">
        <ele>458.31</ele>
        <time>2026-09-23T02:05:37Z</time>
      </trkpt>
      <trkpt lat="34.73399463" lon="135.17442957">
        <ele>453.95</ele>
        <time>2026-09-23T02:05:48Z</time>
      </trkpt>
      <trkpt lat="34.73404307" lon="135.17430064">
        <ele>454.24</ele>
        <time>2026-09-23T02:06:03Z</time>
      </trkpt>
      <trkpt lat="34.73409984" lon="135.17421564">
        <ele>452.7</ele>
        <time>2026-09-23T02:06:13Z</time>
      </trkpt>
      <trkpt lat="34.73411256" lon="135.17410469">
        <ele>454.83</ele>
        <time>2026-09-23T02:06:30Z</time>
      </trkpt>
      <trkpt lat="34.73412231" lon="135.17399187">
        <ele>458.18</ele>
        <time>2026-09-23T02:06:40Z</time>
      </trkpt>
      <trkpt lat="34.73415176" lon="135.17387478">
        <ele>452.37</ele>
        <time>2026-09-23T02:06:52Z</time>
      </trkpt>
      <trkpt lat="34.73416664" lon="135.1737649">
        <ele>454.14</ele>
        <time>2026-09-23T02:07:03Z</time>
      </trkpt>
      <trkpt lat="34.73417709" lon="135.17364996">
        <ele>457.83</ele>
        <time>2026-09-23T02:07:14Z</time>
      </trkpt>
      <trkpt lat="34.73421506" lon="135.17353678">
        <ele>457.81</ele>
        <time>2026-09-23T02:07:25Z</time>
      </trkpt>
      <trkpt lat="34.73427489" lon="135.1734543">
        <ele>459.89</ele>
        <time>2026-09-23T02:07:36Z</time>
      </trkpt>
      <trkpt lat="34.73436303" lon="135.17341391">
        <ele>457.89</ele>
        <time>2026-09-23T02:07:51Z</time>
      </trkpt>
      <trkpt lat="34.73445238" lon="135.17344126">
        <ele>453.15</ele>
        <time>2026-09-23T02:08:10Z</time>
      </trkpt>
      <trkpt lat="34.73453035" lon="135.1735008">
        <ele>452.49</ele>
        <time>2026-09-23T02:08:21Z</time>
      </trkpt>
      <trkpt lat="34.73461551" lon="135.17355036">
        <ele>451.8</ele>
        <time>2026-09-23T02:08:32Z</time>
      </trkpt>
      <trkpt lat="34.73469486" lon="135.17361272">
        <ele>450.89</ele>
        <time>2026-09-23T02:08:43Z</time>
      </trkpt>
      <trkpt lat="34.73476344" lon="135.17368606">
        <ele>451.45</ele>
        <time>2026-09-23T02:08:53Z</time>
      </trkpt>
      <trkpt lat="34.73484173" lon="135.17374199">
        <ele>451.81</ele>
        <time>2026-09-23T02:09:05Z</time>
      </trkpt>
      <trkpt lat="34.7349248" lon="135.17378579">
        <ele>454.08</ele>
        <time>2026-09-23T02:09:19Z</time>
      </trkpt>
      <trkpt lat="34.73501309" lon="135.17383551">
        <ele>454.33</ele>
        <time>2026-09-23T02:09:31Z</time>
      </trkpt>
      <trkpt lat="34.73510178" lon="135.17390525">
        <ele>451.66</ele>
        <time>2026-09-23T02:09:42Z</time>
      </trkpt>
      <trkpt lat="34.73518981" lon="135.1739452">
        <ele>453.81</ele>
        <time>2026-09-23T02:09:56Z</time>
      </trkpt>
      <trkpt lat="34.73527712" lon="135.17399379">
        <ele>454.21</ele>
        <time>2026-09-23T02:10:10Z</time>
      </trkpt>
      <trkpt lat="34.73535948" lon="135.17404545">
        <ele>455.9</ele>
        <time>2026-09-23T02:10:24Z</time>
      </trkpt>
      <trkpt lat="34.73546387" lon="135.17406929">
        <ele>454.17</ele>
        <time>2026-09-23T02:10:38Z</time>
      </trkpt>
      <trkpt lat="34.73555059" lon="135.17410844">
        <ele>456.38</ele>
        <time>2026-09-23T02:10:49Z</time>
      </trkpt>
      <trkpt lat="34.73564249" lon="135.17413114">
        <ele>452.78</ele>
        <time>2026-09-23T02:11:05Z</time>
      </trkpt>
      <trkpt lat="34.73573041" lon="135.17410556">
        <ele>457.36</ele>
        <time>2026-09-23T02:11:53Z</time>
      </trkpt>
      <trkpt lat="34.73575671" lon="135.17413035">
        <ele>460.68</ele>
        <time>2026-09-23T02:13:54Z</time>
      </trkpt>
      <trkpt lat="34.73585159" lon="135.17418303">
        <ele>463.69</ele>
        <time>2026-09-23T02:14:43Z</time>
      </trkpt>
      <trkpt lat="34.73593867" lon="135.17424081">
        <ele>466.14</ele>
        <time>2026-09-23T02:14:53Z</time>
      </trkpt>
      <trkpt lat="34.73601314" lon="135.17431809">
        <ele>467.72</ele>
        <time>2026-09-23T02:15:14Z</time>
      </trkpt>
      <trkpt lat="34.73604788" lon="135.1743898">
        <ele>471.08</ele>
        <time>2026-09-23T02:17:15Z</time>
      </trkpt>
      <trkpt lat="34.73600404" lon="135.17448852">
        <ele>465.24</ele>
        <time>2026-09-23T02:18:32Z</time>
      </trkpt>
      <trkpt lat="34.73599354" lon="135.17461163">
        <ele>472.65</ele>
        <time>2026-09-23T02:18:55Z</time>
      </trkpt>
      <trkpt lat="34.73599659" lon="135.17468626">
        <ele>472</ele>
        <time>2026-09-23T02:20:56Z</time>
      </trkpt>
      <trkpt lat="34.73603259" lon="135.17478957">
        <ele>473.11</ele>
        <time>2026-09-23T02:21:13Z</time>
      </trkpt>
      <trkpt lat="34.73611909" lon="135.1747489">
        <ele>472.22</ele>
        <time>2026-09-23T02:21:35Z</time>
      </trkpt>
      <trkpt lat="34.73619558" lon="135.17481058">
        <ele>471.46</ele>
        <time>2026-09-23T02:21:52Z</time>
      </trkpt>
      <trkpt lat="34.73615376" lon="135.17478228">
        <ele>473.64</ele>
        <time>2026-09-23T02:23:53Z</time>
      </trkpt>
      <trkpt lat="34.73614456" lon="135.17475914">
        <ele>475.18</ele>
        <time>2026-09-23T02:27:51Z</time>
      </trkpt>
      <trkpt lat="34.73619314" lon="135.17466273">
        <ele>479.11</ele>
        <time>2026-09-23T02:28:48Z</time>
      </trkpt>
      <trkpt lat="34.73624277" lon="135.17456697">
        <ele>477.79</ele>
        <time>2026-09-23T02:28:59Z</time>
      </trkpt>
      <trkpt lat="34.73629194" lon="135.17446478">
        <ele>474.97</ele>
        <time>2026-09-23T02:29:12Z</time>
      </trkpt>
      <trkpt lat="34.7363929" lon="135.1744683">
        <ele>471.68</ele>
        <time>2026-09-23T02:29:25Z</time>
      </trkpt>
      <trkpt lat="34.7364791" lon="135.17453057">
        <ele>474.08</ele>
        <time>2026-09-23T02:29:37Z</time>
      </trkpt>
      <trkpt lat="34.73656587" lon="135.17458118">
        <ele>474.59</ele>
        <time>2026-09-23T02:29:46Z</time>
      </trkpt>
      <trkpt lat="34.73664985" lon="135.17464148">
        <ele>475.84</ele>
        <time>2026-09-23T02:29:56Z</time>
      </trkpt>
      <trkpt lat="34.73673907" lon="135.17470105">
        <ele>474.14</ele>
        <time>2026-09-23T02:30:08Z</time>
      </trkpt>
      <trkpt lat="34.73680362" lon="135.1747832">
        <ele>475.47</ele>
        <time>2026-09-23T02:30:52Z</time>
      </trkpt>
      <trkpt lat="34.73689006" lon="135.17483742">
        <ele>478.04</ele>
        <time>2026-09-23T02:31:13Z</time>
      </trkpt>
      <trkpt lat="34.73698173" lon="135.17489538">
        <ele>477.61</ele>
        <time>2026-09-23T02:31:30Z</time>
      </trkpt>
      <trkpt lat="34.73707552" lon="135.17491816">
        <ele>481.5</ele>
        <time>2026-09-23T02:31:49Z</time>
      </trkpt>
      <trkpt lat="34.73717124" lon="135.17490083">
        <ele>479.9</ele>
        <time>2026-09-23T02:32:14Z</time>
      </trkpt>
      <trkpt lat="34.73726318" lon="135.17487645">
        <ele>477.37</ele>
        <time>2026-09-23T02:32:26Z</time>
      </trkpt>
      <trkpt lat="34.73736848" lon="135.17485593">
        <ele>476.86</ele>
        <time>2026-09-23T02:32:39Z</time>
      </trkpt>
      <trkpt lat="34.73745869" lon="135.17484558">
        <ele>477.99</ele>
        <time>2026-09-23T02:32:49Z</time>
      </trkpt>
      <trkpt lat="34.73755509" lon="135.1748599">
        <ele>478.68</ele>
        <time>2026-09-23T02:32:59Z</time>
      </trkpt>
      <trkpt lat="34.73764268" lon="135.17490267">
        <ele>477.2</ele>
        <time>2026-09-23T02:33:10Z</time>
      </trkpt>
      <trkpt lat="34.73771842" lon="135.17496566">
        <ele>477.36</ele>
        <time>2026-09-23T02:33:20Z</time>
      </trkpt>
      <trkpt lat="34.73779196" lon="135.17504533">
        <ele>479.89</ele>
        <time>2026-09-23T02:33:30Z</time>
      </trkpt>
      <trkpt lat="34.73787793" lon="135.17510011">
        <ele>479.06</ele>
        <time>2026-09-23T02:33:41Z</time>
      </trkpt>
      <trkpt lat="34.73797134" lon="135.17512879">
        <ele>480.21</ele>
        <time>2026-09-23T02:34:01Z</time>
      </trkpt>
      <trkpt lat="34.73805151" lon="135.17519089">
        <ele>479.02</ele>
        <time>2026-09-23T02:34:17Z</time>
      </trkpt>
      <trkpt lat="34.73809909" lon="135.1752864">
        <ele>475.5</ele>
        <time>2026-09-23T02:34:28Z</time>
      </trkpt>
      <trkpt lat="34.73814854" lon="135.17538669">
        <ele>475.13</ele>
        <time>2026-09-23T02:34:41Z</time>
      </trkpt>
      <trkpt lat="34.73819561" lon="135.17549242">
        <ele>478.94</ele>
        <time>2026-09-23T02:34:52Z</time>
      </trkpt>
      <trkpt lat="34.73821014" lon="135.17560184">
        <ele>477.53</ele>
        <time>2026-09-23T02:35:02Z</time>
      </trkpt>
      <trkpt lat="34.73819749" lon="135.17571899">
        <ele>478.29</ele>
        <time>2026-09-23T02:35:13Z</time>
      </trkpt>
      <trkpt lat="34.73817925" lon="135.17583202">
        <ele>477.5</ele>
        <time>2026-09-23T02:35:23Z</time>
      </trkpt>
      <trkpt lat="34.73813041" lon="135.17593031">
        <ele>475.96</ele>
        <time>2026-09-23T02:35:33Z</time>
      </trkpt>
      <trkpt lat="34.73807646" lon="135.17602608">
        <ele>476.62</ele>
        <time>2026-09-23T02:35:45Z</time>
      </trkpt>
      <trkpt lat="34.73803634" lon="135.1761239">
        <ele>475.95</ele>
        <time>2026-09-23T02:35:56Z</time>
      </trkpt>
      <trkpt lat="34.7380628" lon="135.17623512">
        <ele>475.39</ele>
        <time>2026-09-23T02:36:05Z</time>
      </trkpt>
      <trkpt lat="34.73814181" lon="135.17629511">
        <ele>474.55</ele>
        <time>2026-09-23T02:36:16Z</time>
      </trkpt>
      <trkpt lat="34.73823623" lon="135.17631666">
        <ele>474.53</ele>
        <time>2026-09-23T02:36:28Z</time>
      </trkpt>
      <trkpt lat="34.73833135" lon="135.17632107">
        <ele>473.16</ele>
        <time>2026-09-23T02:36:41Z</time>
      </trkpt>
      <trkpt lat="34.73841154" lon="135.17637826">
        <ele>472.05</ele>
        <time>2026-09-23T02:36:52Z</time>
      </trkpt>
      <trkpt lat="34.7384665" lon="135.17647843">
        <ele>471.81</ele>
        <time>2026-09-23T02:37:04Z</time>
      </trkpt>
      <trkpt lat="34.73845457" lon="135.17659072">
        <ele>475.73</ele>
        <time>2026-09-23T02:37:16Z</time>
      </trkpt>
      <trkpt lat="34.73839902" lon="135.17668549">
        <ele>475.76</ele>
        <time>2026-09-23T02:37:29Z</time>
      </trkpt>
      <trkpt lat="34.73834205" lon="135.1767797">
        <ele>477.41</ele>
        <time>2026-09-23T02:37:40Z</time>
      </trkpt>
      <trkpt lat="34.738294" lon="135.17687679">
        <ele>478.34</ele>
        <time>2026-09-23T02:37:52Z</time>
      </trkpt>
      <trkpt lat="34.73829465" lon="135.1769934">
        <ele>480.64</ele>
        <time>2026-09-23T02:38:03Z</time>
      </trkpt>
      <trkpt lat="34.73832435" lon="135.17711354">
        <ele>482.19</ele>
        <time>2026-09-23T02:38:14Z</time>
      </trkpt>
      <trkpt lat="34.7383685" lon="135.17721837">
        <ele>483.59</ele>
        <time>2026-09-23T02:38:24Z</time>
      </trkpt>
      <trkpt lat="34.73842174" lon="135.17730985">
        <ele>485.61</ele>
        <time>2026-09-23T02:38:34Z</time>
      </trkpt>
      <trkpt lat="34.73847699" lon="135.17740024">
        <ele>488.39</ele>
        <time>2026-09-23T02:38:44Z</time>
      </trkpt>
      <trkpt lat="34.73855092" lon="135.17746933">
        <ele>486</ele>
        <time>2026-09-23T02:38:58Z</time>
      </trkpt>
      <trkpt lat="34.73863133" lon="135.17751981">
        <ele>484.04</ele>
        <time>2026-09-23T02:39:33Z</time>
      </trkpt>
      <trkpt lat="34.73872511" lon="135.17752365">
        <ele>482.07</ele>
        <time>2026-09-23T02:39:55Z</time>
      </trkpt>
      <trkpt lat="34.73881928" lon="135.17752044">
        <ele>481.38</ele>
        <time>2026-09-23T02:40:06Z</time>
      </trkpt>
      <trkpt lat="34.73892218" lon="135.17752141">
        <ele>480.46</ele>
        <time>2026-09-23T02:40:19Z</time>
      </trkpt>
      <trkpt lat="34.73900742" lon="135.17758096">
        <ele>479.96</ele>
        <time>2026-09-23T02:40:32Z</time>
      </trkpt>
      <trkpt lat="34.73905199" lon="135.17767769">
        <ele>477.76</ele>
        <time>2026-09-23T02:40:43Z</time>
      </trkpt>
      <trkpt lat="34.73909218" lon="135.17777944">
        <ele>476.77</ele>
        <time>2026-09-23T02:40:54Z</time>
      </trkpt>
      <trkpt lat="34.73913623" lon="135.17788166">
        <ele>476.2</ele>
        <time>2026-09-23T02:41:05Z</time>
      </trkpt>
      <trkpt lat="34.73920104" lon="135.17797034">
        <ele>474.6</ele>
        <time>2026-09-23T02:41:17Z</time>
      </trkpt>
      <trkpt lat="34.73926474" lon="135.17807982">
        <ele>472.55</ele>
        <time>2026-09-23T02:41:31Z</time>
      </trkpt>
      <trkpt lat="34.73924751" lon="135.17819686">
        <ele>470.46</ele>
        <time>2026-09-23T02:41:42Z</time>
      </trkpt>
      <trkpt lat="34.73922558" lon="135.17830788">
        <ele>470.5</ele>
        <time>2026-09-23T02:41:52Z</time>
      </trkpt>
      <trkpt lat="34.73921993" lon="135.17841795">
        <ele>469.19</ele>
        <time>2026-09-23T02:42:04Z</time>
      </trkpt>
      <trkpt lat="34.73926428" lon="135.17851613">
        <ele>468.47</ele>
        <time>2026-09-23T02:42:14Z</time>
      </trkpt>
      <trkpt lat="34.73930821" lon="135.17862693">
        <ele>465.43</ele>
        <time>2026-09-23T02:42:27Z</time>
      </trkpt>
      <trkpt lat="34.73937338" lon="135.17870918">
        <ele>464.26</ele>
        <time>2026-09-23T02:42:41Z</time>
      </trkpt>
      <trkpt lat="34.73941738" lon="135.17881514">
        <ele>466.35</ele>
        <time>2026-09-23T02:42:53Z</time>
      </trkpt>
      <trkpt lat="34.73943998" lon="135.17876914">
        <ele>473.72</ele>
        <time>2026-09-23T02:44:55Z</time>
      </trkpt>
      <trkpt lat="34.73945114" lon="135.17876902">
        <ele>473.53</ele>
        <time>2026-09-23T02:46:56Z</time>
      </trkpt>
      <trkpt lat="34.73945372" lon="135.17872161">
        <ele>476.96</ele>
        <time>2026-09-23T02:50:57Z</time>
      </trkpt>
      <trkpt lat="34.73943923" lon="135.17871395">
        <ele>481.04</ele>
        <time>2026-09-23T02:52:58Z</time>
      </trkpt>
      <trkpt lat="34.73944204" lon="135.1787015">
        <ele>482.55</ele>
        <time>2026-09-23T02:54:59Z</time>
      </trkpt>
      <trkpt lat="34.73944219" lon="135.17867509">
        <ele>481.96</ele>
        <time>2026-09-23T02:57:00Z</time>
      </trkpt>
      <trkpt lat="34.73938582" lon="135.17860793">
        <ele>481.3</ele>
        <time>2026-09-23T02:59:01Z</time>
      </trkpt>
      <trkpt lat="34.73929352" lon="135.17857707">
        <ele>483.9</ele>
        <time>2026-09-23T02:59:19Z</time>
      </trkpt>
      <trkpt lat="34.73920762" lon="135.17852333">
        <ele>486.04</ele>
        <time>2026-09-23T02:59:36Z</time>
      </trkpt>
      <trkpt lat="34.73918565" lon="135.17840666">
        <ele>489.5</ele>
        <time>2026-09-23T02:59:50Z</time>
      </trkpt>
      <trkpt lat="34.73916502" lon="135.17829596">
        <ele>485.88</ele>
        <time>2026-09-23T03:00:00Z</time>
      </trkpt>
      <trkpt lat="34.7391975" lon="135.17818584">
        <ele>482.65</ele>
        <time>2026-09-23T03:00:10Z</time>
      </trkpt>
      <trkpt lat="34.73924585" lon="135.17808536">
        <ele>481.42</ele>
        <time>2026-09-23T03:00:20Z</time>
      </trkpt>
      <trkpt lat="34.73931056" lon="135.17799349">
        <ele>481.21</ele>
        <time>2026-09-23T03:00:47Z</time>
      </trkpt>
      <trkpt lat="34.73938503" lon="135.17792946">
        <ele>482.08</ele>
        <time>2026-09-23T03:00:59Z</time>
      </trkpt>
      <trkpt lat="34.73947059" lon="135.17787348">
        <ele>481.68</ele>
        <time>2026-09-23T03:01:10Z</time>
      </trkpt>
      <trkpt lat="34.73955632" lon="135.17783195">
        <ele>481.87</ele>
        <time>2026-09-23T03:01:21Z</time>
      </trkpt>
      <trkpt lat="34.73964323" lon="135.17780271">
        <ele>482.53</ele>
        <time>2026-09-23T03:01:33Z</time>
      </trkpt>
      <trkpt lat="34.73973829" lon="135.17778056">
        <ele>482.65</ele>
        <time>2026-09-23T03:01:46Z</time>
      </trkpt>
      <trkpt lat="34.73983091" lon="135.17775021">
        <ele>481.59</ele>
        <time>2026-09-23T03:01:59Z</time>
      </trkpt>
      <trkpt lat="34.73992328" lon="135.17773131">
        <ele>482.21</ele>
        <time>2026-09-23T03:02:10Z</time>
      </trkpt>
      <trkpt lat="34.74001815" lon="135.17772186">
        <ele>482.75</ele>
        <time>2026-09-23T03:02:21Z</time>
      </trkpt>
      <trkpt lat="34.74011428" lon="135.17772285">
        <ele>485.34</ele>
        <time>2026-09-23T03:02:34Z</time>
      </trkpt>
      <trkpt lat="34.74021314" lon="135.1777266">
        <ele>485.97</ele>
        <time>2026-09-23T03:02:47Z</time>
      </trkpt>
      <trkpt lat="34.74030529" lon="135.17775531">
        <ele>487</ele>
        <time>2026-09-23T03:02:57Z</time>
      </trkpt>
      <trkpt lat="34.74039523" lon="135.17772777">
        <ele>488.92</ele>
        <time>2026-09-23T03:03:09Z</time>
      </trkpt>
      <trkpt lat="34.74049305" lon="135.17772971">
        <ele>489.46</ele>
        <time>2026-09-23T03:03:19Z</time>
      </trkpt>
      <trkpt lat="34.74058481" lon="135.17774928">
        <ele>490.73</ele>
        <time>2026-09-23T03:03:28Z</time>
      </trkpt>
      <trkpt lat="34.74067072" lon="135.17779029">
        <ele>490.96</ele>
        <time>2026-09-23T03:03:38Z</time>
      </trkpt>
      <trkpt lat="34.74077586" lon="135.17780861">
        <ele>492.08</ele>
        <time>2026-09-23T03:03:50Z</time>
      </trkpt>
      <trkpt lat="34.74086749" lon="135.17785627">
        <ele>493.02</ele>
        <time>2026-09-23T03:04:01Z</time>
      </trkpt>
      <trkpt lat="34.74095709" lon="135.17787302">
        <ele>493.41</ele>
        <time>2026-09-23T03:04:10Z</time>
      </trkpt>
      <trkpt lat="34.74102832" lon="135.17780381">
        <ele>489.78</ele>
        <time>2026-09-23T03:04:23Z</time>
      </trkpt>
      <trkpt lat="34.74111847" lon="135.17777466">
        <ele>491.12</ele>
        <time>2026-09-23T03:04:34Z</time>
      </trkpt>
      <trkpt lat="34.74120812" lon="135.17775182">
        <ele>490.81</ele>
        <time>2026-09-23T03:04:44Z</time>
      </trkpt>
      <trkpt lat="34.74126888" lon="135.17766978">
        <ele>488.18</ele>
        <time>2026-09-23T03:04:58Z</time>
      </trkpt>
      <trkpt lat="34.74134271" lon="135.1775932">
        <ele>489.51</ele>
        <time>2026-09-23T03:05:06Z</time>
      </trkpt>
      <trkpt lat="34.74140014" lon="135.17750759">
        <ele>489.07</ele>
        <time>2026-09-23T03:05:17Z</time>
      </trkpt>
      <trkpt lat="34.74148056" lon="135.17743961">
        <ele>491.36</ele>
        <time>2026-09-23T03:05:27Z</time>
      </trkpt>
      <trkpt lat="34.74155776" lon="135.17737012">
        <ele>489.54</ele>
        <time>2026-09-23T03:05:37Z</time>
      </trkpt>
      <trkpt lat="34.7416414" lon="135.17731735">
        <ele>487.84</ele>
        <time>2026-09-23T03:05:48Z</time>
      </trkpt>
      <trkpt lat="34.74172178" lon="135.17725408">
        <ele>487.34</ele>
        <time>2026-09-23T03:05:58Z</time>
      </trkpt>
      <trkpt lat="34.74181186" lon="135.17721228">
        <ele>487.41</ele>
        <time>2026-09-23T03:06:08Z</time>
      </trkpt>
      <trkpt lat="34.74188181" lon="135.17728763">
        <ele>486.47</ele>
        <time>2026-09-23T03:06:18Z</time>
      </trkpt>
      <trkpt lat="34.74193181" lon="135.17738855">
        <ele>485.96</ele>
        <time>2026-09-23T03:06:28Z</time>
      </trkpt>
      <trkpt lat="34.74199521" lon="135.17747293">
        <ele>484.98</ele>
        <time>2026-09-23T03:06:39Z</time>
      </trkpt>
      <trkpt lat="34.74204835" lon="135.17756569">
        <ele>485.52</ele>
        <time>2026-09-23T03:06:50Z</time>
      </trkpt>
      <trkpt lat="34.74210003" lon="135.17767061">
        <ele>486.42</ele>
        <time>2026-09-23T03:07:02Z</time>
      </trkpt>
      <trkpt lat="34.74216309" lon="135.1777569">
        <ele>489.75</ele>
        <time>2026-09-23T03:07:12Z</time>
      </trkpt>
      <trkpt lat="34.74222239" lon="135.17784148">
        <ele>489.19</ele>
        <time>2026-09-23T03:07:22Z</time>
      </trkpt>
      <trkpt lat="34.74229174" lon="135.17792509">
        <ele>490.07</ele>
        <time>2026-09-23T03:07:32Z</time>
      </trkpt>
      <trkpt lat="34.74237059" lon="135.17798876">
        <ele>489.27</ele>
        <time>2026-09-23T03:07:43Z</time>
      </trkpt>
      <trkpt lat="34.74243233" lon="135.17808648">
        <ele>488.67</ele>
        <time>2026-09-23T03:07:55Z</time>
      </trkpt>
      <trkpt lat="34.7425142" lon="135.17813372">
        <ele>489.03</ele>
        <time>2026-09-23T03:08:06Z</time>
      </trkpt>
      <trkpt lat="34.74260462" lon="135.17811494">
        <ele>489.04</ele>
        <time>2026-09-23T03:08:15Z</time>
      </trkpt>
      <trkpt lat="34.74270202" lon="135.17810563">
        <ele>489.5</ele>
        <time>2026-09-23T03:08:26Z</time>
      </trkpt>
      <trkpt lat="34.74279753" lon="135.17808687">
        <ele>488.79</ele>
        <time>2026-09-23T03:08:36Z</time>
      </trkpt>
      <trkpt lat="34.74289231" lon="135.17806197">
        <ele>489.45</ele>
        <time>2026-09-23T03:08:46Z</time>
      </trkpt>
      <trkpt lat="34.74298345" lon="135.17807937">
        <ele>488.63</ele>
        <time>2026-09-23T03:08:56Z</time>
      </trkpt>
      <trkpt lat="34.74310457" lon="135.1781235">
        <ele>487.08</ele>
        <time>2026-09-23T03:09:09Z</time>
      </trkpt>
      <trkpt lat="34.74319309" lon="135.17815974">
        <ele>487.75</ele>
        <time>2026-09-23T03:09:20Z</time>
      </trkpt>
      <trkpt lat="34.74328149" lon="135.17820743">
        <ele>489.55</ele>
        <time>2026-09-23T03:09:29Z</time>
      </trkpt>
      <trkpt lat="34.74336854" lon="135.17826138">
        <ele>488.22</ele>
        <time>2026-09-23T03:09:39Z</time>
      </trkpt>
      <trkpt lat="34.74344703" lon="135.17832241">
        <ele>488.86</ele>
        <time>2026-09-23T03:09:49Z</time>
      </trkpt>
      <trkpt lat="34.74352196" lon="135.17839014">
        <ele>487.3</ele>
        <time>2026-09-23T03:09:59Z</time>
      </trkpt>
      <trkpt lat="34.74358539" lon="135.1784747">
        <ele>488.03</ele>
        <time>2026-09-23T03:10:09Z</time>
      </trkpt>
      <trkpt lat="34.74366271" lon="135.17857475">
        <ele>488.24</ele>
        <time>2026-09-23T03:10:20Z</time>
      </trkpt>
      <trkpt lat="34.74365121" lon="135.17845457">
        <ele>485.43</ele>
        <time>2026-09-23T03:10:44Z</time>
      </trkpt>
      <trkpt lat="34.74372589" lon="135.17853055">
        <ele>487.01</ele>
        <time>2026-09-23T03:11:47Z</time>
      </trkpt>
      <trkpt lat="34.74368665" lon="135.17863688">
        <ele>488.32</ele>
        <time>2026-09-23T03:11:59Z</time>
      </trkpt>
      <trkpt lat="34.74361837" lon="135.17871045">
        <ele>492.4</ele>
        <time>2026-09-23T03:12:09Z</time>
      </trkpt>
      <trkpt lat="34.74355473" lon="135.17878906">
        <ele>493.56</ele>
        <time>2026-09-23T03:12:21Z</time>
      </trkpt>
      <trkpt lat="34.74348475" lon="135.17888106">
        <ele>495.35</ele>
        <time>2026-09-23T03:12:38Z</time>
      </trkpt>
      <trkpt lat="34.7434164" lon="135.17896108">
        <ele>498.66</ele>
        <time>2026-09-23T03:12:54Z</time>
      </trkpt>
      <trkpt lat="34.7433518" lon="135.17905156">
        <ele>500.72</ele>
        <time>2026-09-23T03:13:07Z</time>
      </trkpt>
      <trkpt lat="34.74325971" lon="135.17907087">
        <ele>499.71</ele>
        <time>2026-09-23T03:14:00Z</time>
      </trkpt>
      <trkpt lat="34.74322144" lon="135.17897194">
        <ele>499.9</ele>
        <time>2026-09-23T03:15:30Z</time>
      </trkpt>
      <trkpt lat="34.74321939" lon="135.17897014">
        <ele>499.36</ele>
        <time>2026-09-23T03:18:28Z</time>
      </trkpt>
      <trkpt lat="34.74321939" lon="135.17897014">
        <ele>499.36</ele>
        <time>2026-09-23T03:36:39Z</time>
      </trkpt>
      <trkpt lat="34.74321939" lon="135.17897014">
        <ele>499.36</ele>
        <time>2026-09-23T03:38:46Z</time>
      </trkpt>
      <trkpt lat="34.74321939" lon="135.17897014">
        <ele>499.36</ele>
        <time>2026-09-23T03:40:46Z</time>
      </trkpt>
    </trkseg>
  </trk>
</gpx>