<?xml version='1.0' encoding='UTF-8' standalone='yes' ?>
<gpx xmlns="http://www.topografix.com/GPX/1/1" xmlns:geotracker="http://ilyabogdanovich.com/gpx/extensions/geotracker" xmlns:xsi="http://www.w3.org/2001/XMLSchema-instance" xsi:schemaLocation="http://www.topografix.com/GPX/1/1 http://www.topografix.com/GPX/1/1/gpx.xsd" version="1.1" creator="Recorded in Geo Tracker for Android from Ilya Bogdanovich">
  <metadata>
    <name>2026/07/30 10:12:30</name>
    <author>
      <name>Recorded in Geo Tracker for Android from Ilya Bogdanovich</name>
      <link href="https://play.google.com/store/apps/details?id=com.ilyabogdanovich.geotracker" />
    </author>
    <link href="https://play.google.com/store/apps/details?id=com.ilyabogdanovich.geotracker" />
    <time>2026-07-30T01:12:30Z</time>
  </metadata>
  <wpt lat="34.7390673" lon="135.17847483">
    <ele>473.51</ele>
    <time>2026-07-30T01:23:28Z</time>
    <name>Stop for ~2 min</name>
    <desc>Elevation: 474 m
Time from start: 00:10:57
Distance from start: 392 m</desc>
    <extensions>
      <geotracker:meta emoji="⏱️" />
    </extensions>
  </wpt>
  <wpt lat="34.73712421" lon="135.18083786">
    <ele>469.25</ele>
    <time>2026-07-30T01:38:53Z</time>
    <name>Stop for ~4 min</name>
    <desc>Elevation: 469 m
Time from start: 00:26:22
Distance from start: 0.83 km</desc>
    <extensions>
      <geotracker:meta emoji="⏱️" />
    </extensions>
  </wpt>
  <wpt lat="34.73562561" lon="135.17913365">
    <ele>452.51</ele>
    <time>2026-07-30T01:58:13Z</time>
    <name>Stop for ~5 min</name>
    <desc>Elevation: 453 m
Time from start: 00:45:42
Distance from start: 1.18 km</desc>
    <extensions>
      <geotracker:meta emoji="⏱️" />
    </extensions>
  </wpt>
  <wpt lat="34.73857506" lon="135.17625996">
    <ele>476.57</ele>
    <time>2026-07-30T02:48:36Z</time>
    <name>Stop for ~6 min</name>
    <desc>Elevation: 477 m
Time from start: 01:36:05
Distance from start: 2.53 km</desc>
    <extensions>
      <geotracker:meta emoji="⏱️" />
    </extensions>
  </wpt>
  <wpt lat="34.73935003" lon="135.17715609">
    <ele>497.6</ele>
    <time>2026-07-30T03:13:57Z</time>
    <name>Stop for ~9 min</name>
    <desc>Elevation: 498 m
Time from start: 02:01:26
Distance from start: 2.67 km</desc>
    <extensions>
      <geotracker:meta emoji="⏱️" />
    </extensions>
  </wpt>
  <trk>
    <name>2026/07/30 10:12:30</name>
    <src>Recorded in Geo Tracker for Android from Ilya Bogdanovich</src>
    <link href="https://play.google.com/store/apps/details?id=com.ilyabogdanovich.geotracker" />
    <extensions>
      <geotracker:meta>
        <geotracker:length>3199.26</geotracker:length>
        <geotracker:duration>9065622</geotracker:duration>
        <geotracker:creationtime>2026-07-30T01:12:30Z</geotracker:creationtime>
        <geotracker:activity>0</geotracker:activity>
      </geotracker:meta>
    </extensions>
    <trkseg>
      <trkpt lat="34.74204941" lon="135.17701539">
        <ele>478.8</ele>
        <time>2026-07-30T01:12:38Z</time>
      </trkpt>
      <trkpt lat="34.74197322" lon="135.17709359">
        <ele>481.71</ele>
        <time>2026-07-30T01:12:48Z</time>
      </trkpt>
      <trkpt lat="34.74188429" lon="135.1771343">
        <ele>482.8</ele>
        <time>2026-07-30T01:12:58Z</time>
      </trkpt>
      <trkpt lat="34.7417983" lon="135.17717594">
        <ele>484.19</ele>
        <time>2026-07-30T01:13:09Z</time>
      </trkpt>
      <trkpt lat="34.74171077" lon="135.17723018">
        <ele>484.33</ele>
        <time>2026-07-30T01:13:20Z</time>
      </trkpt>
      <trkpt lat="34.74164862" lon="135.17731812">
        <ele>485.14</ele>
        <time>2026-07-30T01:13:29Z</time>
      </trkpt>
      <trkpt lat="34.74158284" lon="135.17740943">
        <ele>485.79</ele>
        <time>2026-07-30T01:13:43Z</time>
      </trkpt>
      <trkpt lat="34.74149111" lon="135.1774434">
        <ele>485.73</ele>
        <time>2026-07-30T01:13:53Z</time>
      </trkpt>
      <trkpt lat="34.74140926" lon="135.17750342">
        <ele>485.65</ele>
        <time>2026-07-30T01:14:03Z</time>
      </trkpt>
      <trkpt lat="34.74133275" lon="135.17756559">
        <ele>484.85</ele>
        <time>2026-07-30T01:14:12Z</time>
      </trkpt>
      <trkpt lat="34.74128779" lon="135.17766206">
        <ele>482.18</ele>
        <time>2026-07-30T01:14:20Z</time>
      </trkpt>
      <trkpt lat="34.74121617" lon="135.17773541">
        <ele>482.59</ele>
        <time>2026-07-30T01:14:28Z</time>
      </trkpt>
      <trkpt lat="34.74112378" lon="135.17776316">
        <ele>486.14</ele>
        <time>2026-07-30T01:14:38Z</time>
      </trkpt>
      <trkpt lat="34.74102638" lon="135.1777724">
        <ele>486.03</ele>
        <time>2026-07-30T01:14:48Z</time>
      </trkpt>
      <trkpt lat="34.74093383" lon="135.17780288">
        <ele>486.44</ele>
        <time>2026-07-30T01:14:59Z</time>
      </trkpt>
      <trkpt lat="34.74084773" lon="135.17783804">
        <ele>490.37</ele>
        <time>2026-07-30T01:15:09Z</time>
      </trkpt>
      <trkpt lat="34.74075468" lon="135.17781784">
        <ele>491.26</ele>
        <time>2026-07-30T01:15:17Z</time>
      </trkpt>
      <trkpt lat="34.74065809" lon="135.17780097">
        <ele>492.97</ele>
        <time>2026-07-30T01:15:25Z</time>
      </trkpt>
      <trkpt lat="34.7405625" lon="135.1777628">
        <ele>495.3</ele>
        <time>2026-07-30T01:15:34Z</time>
      </trkpt>
      <trkpt lat="34.740489" lon="135.17769599">
        <ele>492.71</ele>
        <time>2026-07-30T01:17:06Z</time>
      </trkpt>
      <trkpt lat="34.74037983" lon="135.17768639">
        <ele>493.32</ele>
        <time>2026-07-30T01:17:21Z</time>
      </trkpt>
      <trkpt lat="34.74029141" lon="135.17773393">
        <ele>495.63</ele>
        <time>2026-07-30T01:17:42Z</time>
      </trkpt>
      <trkpt lat="34.74020247" lon="135.17776011">
        <ele>493.56</ele>
        <time>2026-07-30T01:17:57Z</time>
      </trkpt>
      <trkpt lat="34.74011203" lon="135.17774141">
        <ele>494.12</ele>
        <time>2026-07-30T01:18:22Z</time>
      </trkpt>
      <trkpt lat="34.74001682" lon="135.17775765">
        <ele>493.57</ele>
        <time>2026-07-30T01:18:34Z</time>
      </trkpt>
      <trkpt lat="34.73992235" lon="135.1777727">
        <ele>491.86</ele>
        <time>2026-07-30T01:18:48Z</time>
      </trkpt>
      <trkpt lat="34.73983151" lon="135.17778117">
        <ele>489.67</ele>
        <time>2026-07-30T01:19:00Z</time>
      </trkpt>
      <trkpt lat="34.73973923" lon="135.1777887">
        <ele>489.21</ele>
        <time>2026-07-30T01:19:14Z</time>
      </trkpt>
      <trkpt lat="34.73963422" lon="135.1777932">
        <ele>486.57</ele>
        <time>2026-07-30T01:19:45Z</time>
      </trkpt>
      <trkpt lat="34.73954094" lon="135.17781985">
        <ele>485.55</ele>
        <time>2026-07-30T01:20:01Z</time>
      </trkpt>
      <trkpt lat="34.73946034" lon="135.17788674">
        <ele>482.58</ele>
        <time>2026-07-30T01:20:15Z</time>
      </trkpt>
      <trkpt lat="34.73938679" lon="135.17795514">
        <ele>482.68</ele>
        <time>2026-07-30T01:20:26Z</time>
      </trkpt>
      <trkpt lat="34.73929743" lon="135.17803276">
        <ele>481.51</ele>
        <time>2026-07-30T01:20:40Z</time>
      </trkpt>
      <trkpt lat="34.73924558" lon="135.17812855">
        <ele>479.29</ele>
        <time>2026-07-30T01:20:52Z</time>
      </trkpt>
      <trkpt lat="34.739208" lon="135.17822866">
        <ele>478.73</ele>
        <time>2026-07-30T01:21:02Z</time>
      </trkpt>
      <trkpt lat="34.73917297" lon="135.17833885">
        <ele>476.99</ele>
        <time>2026-07-30T01:21:14Z</time>
      </trkpt>
      <trkpt lat="34.73912829" lon="135.17845209">
        <ele>479.04</ele>
        <time>2026-07-30T01:21:27Z</time>
      </trkpt>
      <trkpt lat="34.7390673" lon="135.17847483">
        <ele>473.51</ele>
        <time>2026-07-30T01:23:28Z</time>
      </trkpt>
      <trkpt lat="34.73890681" lon="135.17852022">
        <ele>475.09</ele>
        <time>2026-07-30T01:23:54Z</time>
      </trkpt>
      <trkpt lat="34.73881999" lon="135.17855441">
        <ele>473.63</ele>
        <time>2026-07-30T01:24:08Z</time>
      </trkpt>
      <trkpt lat="34.73873042" lon="135.17859706">
        <ele>474.99</ele>
        <time>2026-07-30T01:24:23Z</time>
      </trkpt>
      <trkpt lat="34.7386471" lon="135.17863998">
        <ele>475.13</ele>
        <time>2026-07-30T01:24:35Z</time>
      </trkpt>
      <trkpt lat="34.73853761" lon="135.17867384">
        <ele>476</ele>
        <time>2026-07-30T01:24:51Z</time>
      </trkpt>
      <trkpt lat="34.73844891" lon="135.1787158">
        <ele>477.04</ele>
        <time>2026-07-30T01:25:03Z</time>
      </trkpt>
      <trkpt lat="34.73836193" lon="135.17874613">
        <ele>476.78</ele>
        <time>2026-07-30T01:25:15Z</time>
      </trkpt>
      <trkpt lat="34.73829004" lon="135.17881529">
        <ele>479.67</ele>
        <time>2026-07-30T01:25:29Z</time>
      </trkpt>
      <trkpt lat="34.73822556" lon="135.17891295">
        <ele>477.96</ele>
        <time>2026-07-30T01:25:43Z</time>
      </trkpt>
      <trkpt lat="34.73820828" lon="135.1790293">
        <ele>477.86</ele>
        <time>2026-07-30T01:25:53Z</time>
      </trkpt>
      <trkpt lat="34.73818327" lon="135.17915374">
        <ele>478.43</ele>
        <time>2026-07-30T01:26:04Z</time>
      </trkpt>
      <trkpt lat="34.73812743" lon="135.17925106">
        <ele>481.35</ele>
        <time>2026-07-30T01:26:14Z</time>
      </trkpt>
      <trkpt lat="34.73806824" lon="135.179334">
        <ele>481.94</ele>
        <time>2026-07-30T01:26:26Z</time>
      </trkpt>
      <trkpt lat="34.73799081" lon="135.17941967">
        <ele>482.07</ele>
        <time>2026-07-30T01:26:42Z</time>
      </trkpt>
      <trkpt lat="34.73791786" lon="135.17949647">
        <ele>480.54</ele>
        <time>2026-07-30T01:27:03Z</time>
      </trkpt>
      <trkpt lat="34.73782947" lon="135.17952224">
        <ele>481.76</ele>
        <time>2026-07-30T01:27:16Z</time>
      </trkpt>
      <trkpt lat="34.73769358" lon="135.17949363">
        <ele>482.55</ele>
        <time>2026-07-30T01:28:50Z</time>
      </trkpt>
      <trkpt lat="34.73761005" lon="135.17945218">
        <ele>482.98</ele>
        <time>2026-07-30T01:29:01Z</time>
      </trkpt>
      <trkpt lat="34.73749696" lon="135.17937923">
        <ele>483.38</ele>
        <time>2026-07-30T01:30:46Z</time>
      </trkpt>
      <trkpt lat="34.73740988" lon="135.17933498">
        <ele>481.78</ele>
        <time>2026-07-30T01:30:58Z</time>
      </trkpt>
      <trkpt lat="34.73732445" lon="135.17928527">
        <ele>479.38</ele>
        <time>2026-07-30T01:31:10Z</time>
      </trkpt>
      <trkpt lat="34.73723129" lon="135.17926335">
        <ele>479.03</ele>
        <time>2026-07-30T01:31:21Z</time>
      </trkpt>
      <trkpt lat="34.73713782" lon="135.17926991">
        <ele>480.18</ele>
        <time>2026-07-30T01:31:40Z</time>
      </trkpt>
      <trkpt lat="34.7370444" lon="135.17931544">
        <ele>480.88</ele>
        <time>2026-07-30T01:31:53Z</time>
      </trkpt>
      <trkpt lat="34.73707335" lon="135.17942517">
        <ele>482.33</ele>
        <time>2026-07-30T01:32:08Z</time>
      </trkpt>
      <trkpt lat="34.73709815" lon="135.17953639">
        <ele>480.17</ele>
        <time>2026-07-30T01:32:18Z</time>
      </trkpt>
      <trkpt lat="34.73712907" lon="135.17963944">
        <ele>478.72</ele>
        <time>2026-07-30T01:32:28Z</time>
      </trkpt>
      <trkpt lat="34.73715047" lon="135.17975631">
        <ele>477.74</ele>
        <time>2026-07-30T01:32:40Z</time>
      </trkpt>
      <trkpt lat="34.73718676" lon="135.17986155">
        <ele>475.02</ele>
        <time>2026-07-30T01:32:52Z</time>
      </trkpt>
      <trkpt lat="34.73721649" lon="135.17997199">
        <ele>475.76</ele>
        <time>2026-07-30T01:33:29Z</time>
      </trkpt>
      <trkpt lat="34.73723913" lon="135.18007993">
        <ele>475.46</ele>
        <time>2026-07-30T01:33:37Z</time>
      </trkpt>
      <trkpt lat="34.73726773" lon="135.18020179">
        <ele>476.11</ele>
        <time>2026-07-30T01:33:47Z</time>
      </trkpt>
      <trkpt lat="34.73729362" lon="135.18031214">
        <ele>474.83</ele>
        <time>2026-07-30T01:34:15Z</time>
      </trkpt>
      <trkpt lat="34.73730799" lon="135.18042294">
        <ele>472.72</ele>
        <time>2026-07-30T01:34:27Z</time>
      </trkpt>
      <trkpt lat="34.73733137" lon="135.18053333">
        <ele>471.56</ele>
        <time>2026-07-30T01:34:38Z</time>
      </trkpt>
      <trkpt lat="34.73734681" lon="135.18064111">
        <ele>470.43</ele>
        <time>2026-07-30T01:34:50Z</time>
      </trkpt>
      <trkpt lat="34.73734619" lon="135.18076278">
        <ele>469.07</ele>
        <time>2026-07-30T01:35:03Z</time>
      </trkpt>
      <trkpt lat="34.73730976" lon="135.18086684">
        <ele>468.97</ele>
        <time>2026-07-30T01:35:16Z</time>
      </trkpt>
      <trkpt lat="34.73721611" lon="135.1808835">
        <ele>469.74</ele>
        <time>2026-07-30T01:36:28Z</time>
      </trkpt>
      <trkpt lat="34.7371265" lon="135.18085339">
        <ele>469.98</ele>
        <time>2026-07-30T01:36:51Z</time>
      </trkpt>
      <trkpt lat="34.73712421" lon="135.18083786">
        <ele>469.25</ele>
        <time>2026-07-30T01:38:53Z</time>
      </trkpt>
      <trkpt lat="34.73712409" lon="135.18082281">
        <ele>468.17</ele>
        <time>2026-07-30T01:41:34Z</time>
      </trkpt>
      <trkpt lat="34.73703422" lon="135.18080749">
        <ele>467.33</ele>
        <time>2026-07-30T01:41:47Z</time>
      </trkpt>
      <trkpt lat="34.73692988" lon="135.18079018">
        <ele>466.12</ele>
        <time>2026-07-30T01:42:02Z</time>
      </trkpt>
      <trkpt lat="34.73683921" lon="135.18077912">
        <ele>464.42</ele>
        <time>2026-07-30T01:42:20Z</time>
      </trkpt>
      <trkpt lat="34.73674724" lon="135.18078106">
        <ele>461.64</ele>
        <time>2026-07-30T01:42:38Z</time>
      </trkpt>
      <trkpt lat="34.73666345" lon="135.18072242">
        <ele>461.64</ele>
        <time>2026-07-30T01:42:51Z</time>
      </trkpt>
      <trkpt lat="34.73657722" lon="135.18076323">
        <ele>456.51</ele>
        <time>2026-07-30T01:43:45Z</time>
      </trkpt>
      <trkpt lat="34.7365212" lon="135.18084891">
        <ele>454.03</ele>
        <time>2026-07-30T01:44:16Z</time>
      </trkpt>
      <trkpt lat="34.73642788" lon="135.18083358">
        <ele>453.04</ele>
        <time>2026-07-30T01:44:49Z</time>
      </trkpt>
      <trkpt lat="34.73638022" lon="135.18073706">
        <ele>454.12</ele>
        <time>2026-07-30T01:45:03Z</time>
      </trkpt>
      <trkpt lat="34.73629145" lon="135.18071336">
        <ele>454.1</ele>
        <time>2026-07-30T01:45:26Z</time>
      </trkpt>
      <trkpt lat="34.73623179" lon="135.18080089">
        <ele>453.6</ele>
        <time>2026-07-30T01:45:38Z</time>
      </trkpt>
      <trkpt lat="34.73615504" lon="135.18086501">
        <ele>453.06</ele>
        <time>2026-07-30T01:45:53Z</time>
      </trkpt>
      <trkpt lat="34.73605867" lon="135.18082768">
        <ele>454.55</ele>
        <time>2026-07-30T01:46:07Z</time>
      </trkpt>
      <trkpt lat="34.73602605" lon="135.18072012">
        <ele>454.11</ele>
        <time>2026-07-30T01:47:00Z</time>
      </trkpt>
      <trkpt lat="34.73603062" lon="135.1806104">
        <ele>454.61</ele>
        <time>2026-07-30T01:47:10Z</time>
      </trkpt>
      <trkpt lat="34.7360497" lon="135.18049791">
        <ele>452.95</ele>
        <time>2026-07-30T01:47:20Z</time>
      </trkpt>
      <trkpt lat="34.73605345" lon="135.18038436">
        <ele>448.44</ele>
        <time>2026-07-30T01:47:50Z</time>
      </trkpt>
      <trkpt lat="34.73596052" lon="135.18037138">
        <ele>448.56</ele>
        <time>2026-07-30T01:48:05Z</time>
      </trkpt>
      <trkpt lat="34.73587307" lon="135.18033911">
        <ele>450.39</ele>
        <time>2026-07-30T01:48:24Z</time>
      </trkpt>
      <trkpt lat="34.73580864" lon="135.18025917">
        <ele>450.87</ele>
        <time>2026-07-30T01:48:37Z</time>
      </trkpt>
      <trkpt lat="34.73578815" lon="135.18015031">
        <ele>452.5</ele>
        <time>2026-07-30T01:48:51Z</time>
      </trkpt>
      <trkpt lat="34.73576799" lon="135.1800365">
        <ele>454.81</ele>
        <time>2026-07-30T01:49:13Z</time>
      </trkpt>
      <trkpt lat="34.73576851" lon="135.17992264">
        <ele>456.37</ele>
        <time>2026-07-30T01:49:26Z</time>
      </trkpt>
      <trkpt lat="34.73581086" lon="135.17982334">
        <ele>457.79</ele>
        <time>2026-07-30T01:49:38Z</time>
      </trkpt>
      <trkpt lat="34.73588416" lon="135.17974407">
        <ele>456.85</ele>
        <time>2026-07-30T01:50:22Z</time>
      </trkpt>
      <trkpt lat="34.73594976" lon="135.17965787">
        <ele>457.61</ele>
        <time>2026-07-30T01:50:37Z</time>
      </trkpt>
      <trkpt lat="34.73598697" lon="135.17955534">
        <ele>456.99</ele>
        <time>2026-07-30T01:50:56Z</time>
      </trkpt>
      <trkpt lat="34.73592265" lon="135.17947296">
        <ele>454.75</ele>
        <time>2026-07-30T01:51:14Z</time>
      </trkpt>
      <trkpt lat="34.73583054" lon="135.17944724">
        <ele>453.41</ele>
        <time>2026-07-30T01:51:29Z</time>
      </trkpt>
      <trkpt lat="34.73574492" lon="135.17940845">
        <ele>452.72</ele>
        <time>2026-07-30T01:51:42Z</time>
      </trkpt>
      <trkpt lat="34.7356769" lon="135.1793248">
        <ele>451.75</ele>
        <time>2026-07-30T01:51:56Z</time>
      </trkpt>
      <trkpt lat="34.73564589" lon="135.17921963">
        <ele>451.12</ele>
        <time>2026-07-30T01:52:09Z</time>
      </trkpt>
      <trkpt lat="34.73562848" lon="135.17913311">
        <ele>452.3</ele>
        <time>2026-07-30T01:54:10Z</time>
      </trkpt>
      <trkpt lat="34.7356272" lon="135.1791345">
        <ele>452.32</ele>
        <time>2026-07-30T01:56:12Z</time>
      </trkpt>
      <trkpt lat="34.73562561" lon="135.17913365">
        <ele>452.51</ele>
        <time>2026-07-30T01:58:13Z</time>
      </trkpt>
      <trkpt lat="34.73562133" lon="135.17913261">
        <ele>451.96</ele>
        <time>2026-07-30T02:02:02Z</time>
      </trkpt>
      <trkpt lat="34.73562371" lon="135.1790139">
        <ele>454.94</ele>
        <time>2026-07-30T02:02:21Z</time>
      </trkpt>
      <trkpt lat="34.73567196" lon="135.17888072">
        <ele>455.92</ele>
        <time>2026-07-30T02:02:36Z</time>
      </trkpt>
      <trkpt lat="34.73560928" lon="135.1787983">
        <ele>454.32</ele>
        <time>2026-07-30T02:02:59Z</time>
      </trkpt>
      <trkpt lat="34.73551336" lon="135.17879792">
        <ele>452.34</ele>
        <time>2026-07-30T02:03:12Z</time>
      </trkpt>
      <trkpt lat="34.73543683" lon="135.17872602">
        <ele>451.74</ele>
        <time>2026-07-30T02:03:31Z</time>
      </trkpt>
      <trkpt lat="34.73541958" lon="135.17861746">
        <ele>453.94</ele>
        <time>2026-07-30T02:03:46Z</time>
      </trkpt>
      <trkpt lat="34.73539758" lon="135.17850632">
        <ele>457.54</ele>
        <time>2026-07-30T02:04:05Z</time>
      </trkpt>
      <trkpt lat="34.73535533" lon="135.1784038">
        <ele>459.48</ele>
        <time>2026-07-30T02:04:36Z</time>
      </trkpt>
      <trkpt lat="34.73527249" lon="135.17834722">
        <ele>458.77</ele>
        <time>2026-07-30T02:05:11Z</time>
      </trkpt>
      <trkpt lat="34.73518814" lon="135.17828586">
        <ele>457.64</ele>
        <time>2026-07-30T02:05:39Z</time>
      </trkpt>
      <trkpt lat="34.73509443" lon="135.17827515">
        <ele>459.08</ele>
        <time>2026-07-30T02:05:58Z</time>
      </trkpt>
      <trkpt lat="34.73500602" lon="135.17823219">
        <ele>459.28</ele>
        <time>2026-07-30T02:06:29Z</time>
      </trkpt>
      <trkpt lat="34.73492059" lon="135.1781882">
        <ele>457.31</ele>
        <time>2026-07-30T02:07:01Z</time>
      </trkpt>
      <trkpt lat="34.73482982" lon="135.1781824">
        <ele>458.47</ele>
        <time>2026-07-30T02:07:56Z</time>
      </trkpt>
      <trkpt lat="34.73473688" lon="135.1781725">
        <ele>457.3</ele>
        <time>2026-07-30T02:08:10Z</time>
      </trkpt>
      <trkpt lat="34.73464283" lon="135.17813611">
        <ele>458.14</ele>
        <time>2026-07-30T02:08:41Z</time>
      </trkpt>
      <trkpt lat="34.73456584" lon="135.17807525">
        <ele>455.98</ele>
        <time>2026-07-30T02:09:12Z</time>
      </trkpt>
      <trkpt lat="34.73447888" lon="135.17803152">
        <ele>462.46</ele>
        <time>2026-07-30T02:09:29Z</time>
      </trkpt>
      <trkpt lat="34.73438969" lon="135.17799094">
        <ele>463.93</ele>
        <time>2026-07-30T02:09:55Z</time>
      </trkpt>
      <trkpt lat="34.7343096" lon="135.17793492">
        <ele>468.09</ele>
        <time>2026-07-30T02:10:22Z</time>
      </trkpt>
      <trkpt lat="34.73426104" lon="135.17783589">
        <ele>471.42</ele>
        <time>2026-07-30T02:11:54Z</time>
      </trkpt>
      <trkpt lat="34.73419989" lon="135.17774989">
        <ele>472.42</ele>
        <time>2026-07-30T02:12:07Z</time>
      </trkpt>
      <trkpt lat="34.73413289" lon="135.17766907">
        <ele>474.78</ele>
        <time>2026-07-30T02:12:22Z</time>
      </trkpt>
      <trkpt lat="34.73405192" lon="135.17761126">
        <ele>480.43</ele>
        <time>2026-07-30T02:12:46Z</time>
      </trkpt>
      <trkpt lat="34.73397417" lon="135.17754692">
        <ele>483.61</ele>
        <time>2026-07-30T02:12:59Z</time>
      </trkpt>
      <trkpt lat="34.73394477" lon="135.17744157">
        <ele>483.97</ele>
        <time>2026-07-30T02:13:22Z</time>
      </trkpt>
      <trkpt lat="34.73392627" lon="135.17732013">
        <ele>488.38</ele>
        <time>2026-07-30T02:13:41Z</time>
      </trkpt>
      <trkpt lat="34.73389136" lon="135.17721849">
        <ele>490.57</ele>
        <time>2026-07-30T02:13:56Z</time>
      </trkpt>
      <trkpt lat="34.73380009" lon="135.17717975">
        <ele>490.95</ele>
        <time>2026-07-30T02:14:09Z</time>
      </trkpt>
      <trkpt lat="34.73371352" lon="135.17714043">
        <ele>489.39</ele>
        <time>2026-07-30T02:14:26Z</time>
      </trkpt>
      <trkpt lat="34.73366711" lon="135.17704353">
        <ele>490.44</ele>
        <time>2026-07-30T02:14:47Z</time>
      </trkpt>
      <trkpt lat="34.73365074" lon="135.17691654">
        <ele>490.72</ele>
        <time>2026-07-30T02:14:56Z</time>
      </trkpt>
      <trkpt lat="34.73365642" lon="135.17617891">
        <ele>486.37</ele>
        <time>2026-07-30T02:18:24Z</time>
      </trkpt>
      <trkpt lat="34.73361922" lon="135.17607626">
        <ele>488.97</ele>
        <time>2026-07-30T02:18:36Z</time>
      </trkpt>
      <trkpt lat="34.73364168" lon="135.1759677">
        <ele>490.37</ele>
        <time>2026-07-30T02:18:51Z</time>
      </trkpt>
      <trkpt lat="34.73368419" lon="135.1758689">
        <ele>489.26</ele>
        <time>2026-07-30T02:19:08Z</time>
      </trkpt>
      <trkpt lat="34.73370428" lon="135.1757334">
        <ele>485.48</ele>
        <time>2026-07-30T02:19:24Z</time>
      </trkpt>
      <trkpt lat="34.73373488" lon="135.17562412">
        <ele>481.93</ele>
        <time>2026-07-30T02:19:39Z</time>
      </trkpt>
      <trkpt lat="34.73377789" lon="135.1755277">
        <ele>479.98</ele>
        <time>2026-07-30T02:19:54Z</time>
      </trkpt>
      <trkpt lat="34.73381655" lon="135.17542311">
        <ele>477.92</ele>
        <time>2026-07-30T02:20:06Z</time>
      </trkpt>
      <trkpt lat="34.73386311" lon="135.17532153">
        <ele>477.68</ele>
        <time>2026-07-30T02:20:19Z</time>
      </trkpt>
      <trkpt lat="34.73387823" lon="135.17521041">
        <ele>477.88</ele>
        <time>2026-07-30T02:20:38Z</time>
      </trkpt>
      <trkpt lat="34.7338722" lon="135.17509699">
        <ele>476.79</ele>
        <time>2026-07-30T02:20:55Z</time>
      </trkpt>
      <trkpt lat="34.73388465" lon="135.17498554">
        <ele>476.33</ele>
        <time>2026-07-30T02:21:08Z</time>
      </trkpt>
      <trkpt lat="34.73390016" lon="135.17486983">
        <ele>473.95</ele>
        <time>2026-07-30T02:21:22Z</time>
      </trkpt>
      <trkpt lat="34.73391481" lon="135.17475579">
        <ele>473.78</ele>
        <time>2026-07-30T02:21:36Z</time>
      </trkpt>
      <trkpt lat="34.73391822" lon="135.17463718">
        <ele>473.53</ele>
        <time>2026-07-30T02:21:53Z</time>
      </trkpt>
      <trkpt lat="34.73392577" lon="135.17452575">
        <ele>473.44</ele>
        <time>2026-07-30T02:22:30Z</time>
      </trkpt>
      <trkpt lat="34.73399532" lon="135.1744463">
        <ele>473.47</ele>
        <time>2026-07-30T02:23:38Z</time>
      </trkpt>
      <trkpt lat="34.73403037" lon="135.17434488">
        <ele>470.68</ele>
        <time>2026-07-30T02:24:01Z</time>
      </trkpt>
      <trkpt lat="34.73408322" lon="135.17425367">
        <ele>469.73</ele>
        <time>2026-07-30T02:24:13Z</time>
      </trkpt>
      <trkpt lat="34.73412932" lon="135.17415412">
        <ele>467.78</ele>
        <time>2026-07-30T02:24:27Z</time>
      </trkpt>
      <trkpt lat="34.73414424" lon="135.17404639">
        <ele>467.54</ele>
        <time>2026-07-30T02:24:41Z</time>
      </trkpt>
      <trkpt lat="34.73415832" lon="135.17393453">
        <ele>468.72</ele>
        <time>2026-07-30T02:24:56Z</time>
      </trkpt>
      <trkpt lat="34.7341696" lon="135.17381793">
        <ele>468</ele>
        <time>2026-07-30T02:25:12Z</time>
      </trkpt>
      <trkpt lat="34.73415456" lon="135.17393004">
        <ele>463.5</ele>
        <time>2026-07-30T02:25:43Z</time>
      </trkpt>
      <trkpt lat="34.73413142" lon="135.1740377">
        <ele>461.99</ele>
        <time>2026-07-30T02:25:53Z</time>
      </trkpt>
      <trkpt lat="34.73418128" lon="135.1738997">
        <ele>462.7</ele>
        <time>2026-07-30T02:26:52Z</time>
      </trkpt>
      <trkpt lat="34.73419647" lon="135.17378724">
        <ele>461.73</ele>
        <time>2026-07-30T02:27:03Z</time>
      </trkpt>
      <trkpt lat="34.73421167" lon="135.17366741">
        <ele>459.8</ele>
        <time>2026-07-30T02:27:16Z</time>
      </trkpt>
      <trkpt lat="34.73424206" lon="135.17355985">
        <ele>458.24</ele>
        <time>2026-07-30T02:27:29Z</time>
      </trkpt>
      <trkpt lat="34.73430782" lon="135.17348061">
        <ele>458.27</ele>
        <time>2026-07-30T02:27:43Z</time>
      </trkpt>
      <trkpt lat="34.7343924" lon="135.17342927">
        <ele>458.38</ele>
        <time>2026-07-30T02:28:05Z</time>
      </trkpt>
      <trkpt lat="34.73449042" lon="135.17343877">
        <ele>458.62</ele>
        <time>2026-07-30T02:28:16Z</time>
      </trkpt>
      <trkpt lat="34.73457729" lon="135.17348634">
        <ele>461.45</ele>
        <time>2026-07-30T02:28:28Z</time>
      </trkpt>
      <trkpt lat="34.73465654" lon="135.17354591">
        <ele>461.93</ele>
        <time>2026-07-30T02:28:41Z</time>
      </trkpt>
      <trkpt lat="34.73473999" lon="135.17359935">
        <ele>463.55</ele>
        <time>2026-07-30T02:29:02Z</time>
      </trkpt>
      <trkpt lat="34.73482664" lon="135.17366779">
        <ele>465.28</ele>
        <time>2026-07-30T02:29:19Z</time>
      </trkpt>
      <trkpt lat="34.73490529" lon="135.17373016">
        <ele>467.9</ele>
        <time>2026-07-30T02:29:33Z</time>
      </trkpt>
      <trkpt lat="34.73498383" lon="135.1737897">
        <ele>467.65</ele>
        <time>2026-07-30T02:29:47Z</time>
      </trkpt>
      <trkpt lat="34.73507021" lon="135.17383178">
        <ele>468.63</ele>
        <time>2026-07-30T02:30:01Z</time>
      </trkpt>
      <trkpt lat="34.73515171" lon="135.17387965">
        <ele>470.79</ele>
        <time>2026-07-30T02:30:17Z</time>
      </trkpt>
      <trkpt lat="34.73522407" lon="135.17394566">
        <ele>470.76</ele>
        <time>2026-07-30T02:30:34Z</time>
      </trkpt>
      <trkpt lat="34.73531015" lon="135.17400195">
        <ele>470.69</ele>
        <time>2026-07-30T02:30:52Z</time>
      </trkpt>
      <trkpt lat="34.73540103" lon="135.17402636">
        <ele>473.23</ele>
        <time>2026-07-30T02:31:08Z</time>
      </trkpt>
      <trkpt lat="34.73549471" lon="135.17406566">
        <ele>474.47</ele>
        <time>2026-07-30T02:31:23Z</time>
      </trkpt>
      <trkpt lat="34.73558624" lon="135.17410096">
        <ele>476.51</ele>
        <time>2026-07-30T02:31:38Z</time>
      </trkpt>
      <trkpt lat="34.73567871" lon="135.1741275">
        <ele>477.66</ele>
        <time>2026-07-30T02:31:57Z</time>
      </trkpt>
      <trkpt lat="34.73578222" lon="135.17412683">
        <ele>480.06</ele>
        <time>2026-07-30T02:32:29Z</time>
      </trkpt>
      <trkpt lat="34.73587167" lon="135.17415068">
        <ele>476.31</ele>
        <time>2026-07-30T02:32:43Z</time>
      </trkpt>
      <trkpt lat="34.7359517" lon="135.17420138">
        <ele>476.01</ele>
        <time>2026-07-30T02:32:59Z</time>
      </trkpt>
      <trkpt lat="34.73601688" lon="135.17429706">
        <ele>477.08</ele>
        <time>2026-07-30T02:33:17Z</time>
      </trkpt>
      <trkpt lat="34.73609056" lon="135.17437549">
        <ele>476.25</ele>
        <time>2026-07-30T02:33:28Z</time>
      </trkpt>
      <trkpt lat="34.73617851" lon="135.17440131">
        <ele>475.6</ele>
        <time>2026-07-30T02:33:39Z</time>
      </trkpt>
      <trkpt lat="34.73627053" lon="135.17441525">
        <ele>473.87</ele>
        <time>2026-07-30T02:33:52Z</time>
      </trkpt>
      <trkpt lat="34.73635258" lon="135.17448133">
        <ele>476.51</ele>
        <time>2026-07-30T02:34:05Z</time>
      </trkpt>
      <trkpt lat="34.73644706" lon="135.17453816">
        <ele>477.77</ele>
        <time>2026-07-30T02:34:26Z</time>
      </trkpt>
      <trkpt lat="34.73653263" lon="135.17458379">
        <ele>484.21</ele>
        <time>2026-07-30T02:34:41Z</time>
      </trkpt>
      <trkpt lat="34.73662364" lon="135.17461491">
        <ele>485.14</ele>
        <time>2026-07-30T02:34:55Z</time>
      </trkpt>
      <trkpt lat="34.73669776" lon="135.17467957">
        <ele>482.1</ele>
        <time>2026-07-30T02:36:03Z</time>
      </trkpt>
      <trkpt lat="34.73678474" lon="135.17472168">
        <ele>484.25</ele>
        <time>2026-07-30T02:36:32Z</time>
      </trkpt>
      <trkpt lat="34.73686599" lon="135.17477476">
        <ele>484.98</ele>
        <time>2026-07-30T02:37:06Z</time>
      </trkpt>
      <trkpt lat="34.7369396" lon="135.17485196">
        <ele>485.82</ele>
        <time>2026-07-30T02:37:19Z</time>
      </trkpt>
      <trkpt lat="34.73702637" lon="135.17489981">
        <ele>487.08</ele>
        <time>2026-07-30T02:37:32Z</time>
      </trkpt>
      <trkpt lat="34.73712029" lon="135.17488167">
        <ele>486.6</ele>
        <time>2026-07-30T02:38:11Z</time>
      </trkpt>
      <trkpt lat="34.73721281" lon="135.17486516">
        <ele>486.71</ele>
        <time>2026-07-30T02:38:22Z</time>
      </trkpt>
      <trkpt lat="34.73729908" lon="135.17483287">
        <ele>485.93</ele>
        <time>2026-07-30T02:38:33Z</time>
      </trkpt>
      <trkpt lat="34.73739241" lon="135.17485061">
        <ele>483.86</ele>
        <time>2026-07-30T02:38:45Z</time>
      </trkpt>
      <trkpt lat="34.73748672" lon="135.17484193">
        <ele>482.96</ele>
        <time>2026-07-30T02:38:57Z</time>
      </trkpt>
      <trkpt lat="34.73758214" lon="135.1748844">
        <ele>484.4</ele>
        <time>2026-07-30T02:39:10Z</time>
      </trkpt>
      <trkpt lat="34.73766745" lon="135.17493341">
        <ele>484.3</ele>
        <time>2026-07-30T02:39:21Z</time>
      </trkpt>
      <trkpt lat="34.7377445" lon="135.17499964">
        <ele>485.48</ele>
        <time>2026-07-30T02:39:32Z</time>
      </trkpt>
      <trkpt lat="34.73781691" lon="135.17506494">
        <ele>484.88</ele>
        <time>2026-07-30T02:39:44Z</time>
      </trkpt>
      <trkpt lat="34.73790142" lon="135.17511279">
        <ele>483.49</ele>
        <time>2026-07-30T02:39:57Z</time>
      </trkpt>
      <trkpt lat="34.73800606" lon="135.1751446">
        <ele>484.11</ele>
        <time>2026-07-30T02:40:14Z</time>
      </trkpt>
      <trkpt lat="34.73807263" lon="135.17523051">
        <ele>483.35</ele>
        <time>2026-07-30T02:40:27Z</time>
      </trkpt>
      <trkpt lat="34.73813209" lon="135.17531691">
        <ele>482.08</ele>
        <time>2026-07-30T02:40:40Z</time>
      </trkpt>
      <trkpt lat="34.73818324" lon="135.17541563">
        <ele>482.8</ele>
        <time>2026-07-30T02:40:53Z</time>
      </trkpt>
      <trkpt lat="34.73820059" lon="135.17552648">
        <ele>481.76</ele>
        <time>2026-07-30T02:41:06Z</time>
      </trkpt>
      <trkpt lat="34.73821704" lon="135.17563598">
        <ele>480.48</ele>
        <time>2026-07-30T02:41:17Z</time>
      </trkpt>
      <trkpt lat="34.73821976" lon="135.17574528">
        <ele>479.57</ele>
        <time>2026-07-30T02:41:27Z</time>
      </trkpt>
      <trkpt lat="34.73818134" lon="135.17585488">
        <ele>479.26</ele>
        <time>2026-07-30T02:41:38Z</time>
      </trkpt>
      <trkpt lat="34.73812962" lon="135.17595209">
        <ele>479.2</ele>
        <time>2026-07-30T02:41:49Z</time>
      </trkpt>
      <trkpt lat="34.73806628" lon="135.17607935">
        <ele>478.57</ele>
        <time>2026-07-30T02:42:04Z</time>
      </trkpt>
      <trkpt lat="34.73807224" lon="135.17618952">
        <ele>479.04</ele>
        <time>2026-07-30T02:42:15Z</time>
      </trkpt>
      <trkpt lat="34.73814799" lon="135.17626465">
        <ele>479.74</ele>
        <time>2026-07-30T02:42:28Z</time>
      </trkpt>
      <trkpt lat="34.73823873" lon="135.17628354">
        <ele>478.7</ele>
        <time>2026-07-30T02:42:38Z</time>
      </trkpt>
      <trkpt lat="34.73833623" lon="135.17629965">
        <ele>478.16</ele>
        <time>2026-07-30T02:42:49Z</time>
      </trkpt>
      <trkpt lat="34.73841991" lon="135.17625753">
        <ele>475.93</ele>
        <time>2026-07-30T02:44:11Z</time>
      </trkpt>
      <trkpt lat="34.73849546" lon="135.17632123">
        <ele>476.38</ele>
        <time>2026-07-30T02:44:22Z</time>
      </trkpt>
      <trkpt lat="34.73858494" lon="135.17634565">
        <ele>476.98</ele>
        <time>2026-07-30T02:44:34Z</time>
      </trkpt>
      <trkpt lat="34.73856668" lon="135.17625584">
        <ele>477.53</ele>
        <time>2026-07-30T02:46:35Z</time>
      </trkpt>
      <trkpt lat="34.73857506" lon="135.17625996">
        <ele>476.57</ele>
        <time>2026-07-30T02:48:36Z</time>
      </trkpt>
      <trkpt lat="34.73857581" lon="135.17625914">
        <ele>476.7</ele>
        <time>2026-07-30T02:52:38Z</time>
      </trkpt>
      <trkpt lat="34.73857666" lon="135.17625831">
        <ele>476.73</ele>
        <time>2026-07-30T02:54:39Z</time>
      </trkpt>
      <trkpt lat="34.73857827" lon="135.17625725">
        <ele>477.11</ele>
        <time>2026-07-30T02:56:40Z</time>
      </trkpt>
      <trkpt lat="34.73857871" lon="135.1762571">
        <ele>477.47</ele>
        <time>2026-07-30T02:58:42Z</time>
      </trkpt>
      <trkpt lat="34.73857851" lon="135.1762565">
        <ele>477.77</ele>
        <time>2026-07-30T03:00:43Z</time>
      </trkpt>
      <trkpt lat="34.73857881" lon="135.17624896">
        <ele>478.02</ele>
        <time>2026-07-30T03:02:44Z</time>
      </trkpt>
      <trkpt lat="34.73862251" lon="135.17634901">
        <ele>478.06</ele>
        <time>2026-07-30T03:04:04Z</time>
      </trkpt>
      <trkpt lat="34.73871171" lon="135.17639174">
        <ele>478.77</ele>
        <time>2026-07-30T03:04:15Z</time>
      </trkpt>
      <trkpt lat="34.73880396" lon="135.17643285">
        <ele>478.63</ele>
        <time>2026-07-30T03:04:28Z</time>
      </trkpt>
      <trkpt lat="34.73888901" lon="135.17647969">
        <ele>479.36</ele>
        <time>2026-07-30T03:04:55Z</time>
      </trkpt>
      <trkpt lat="34.7389535" lon="135.17656069">
        <ele>479.44</ele>
        <time>2026-07-30T03:05:13Z</time>
      </trkpt>
      <trkpt lat="34.73903968" lon="135.17662818">
        <ele>481.6</ele>
        <time>2026-07-30T03:05:54Z</time>
      </trkpt>
      <trkpt lat="34.73911537" lon="135.17668891">
        <ele>481.84</ele>
        <time>2026-07-30T03:06:11Z</time>
      </trkpt>
      <trkpt lat="34.73919758" lon="135.17674403">
        <ele>483.43</ele>
        <time>2026-07-30T03:06:34Z</time>
      </trkpt>
      <trkpt lat="34.73926886" lon="135.17682492">
        <ele>485.72</ele>
        <time>2026-07-30T03:06:49Z</time>
      </trkpt>
      <trkpt lat="34.73933826" lon="135.17690583">
        <ele>490.27</ele>
        <time>2026-07-30T03:07:03Z</time>
      </trkpt>
      <trkpt lat="34.73940439" lon="135.17698966">
        <ele>494.09</ele>
        <time>2026-07-30T03:07:21Z</time>
      </trkpt>
      <trkpt lat="34.73943154" lon="135.1770987">
        <ele>498.1</ele>
        <time>2026-07-30T03:07:39Z</time>
      </trkpt>
      <trkpt lat="34.73934893" lon="135.17714746">
        <ele>497.62</ele>
        <time>2026-07-30T03:07:54Z</time>
      </trkpt>
      <trkpt lat="34.7393506" lon="135.17715406">
        <ele>497.54</ele>
        <time>2026-07-30T03:09:55Z</time>
      </trkpt>
      <trkpt lat="34.73935007" lon="135.17715586">
        <ele>497.58</ele>
        <time>2026-07-30T03:11:56Z</time>
      </trkpt>
      <trkpt lat="34.73935003" lon="135.17715609">
        <ele>497.6</ele>
        <time>2026-07-30T03:13:57Z</time>
      </trkpt>
      <trkpt lat="34.73935343" lon="135.17715313">
        <ele>497.83</ele>
        <time>2026-07-30T03:16:07Z</time>
      </trkpt>
      <trkpt lat="34.7393525" lon="135.17714466">
        <ele>497.77</ele>
        <time>2026-07-30T03:18:56Z</time>
      </trkpt>
      <trkpt lat="34.73935461" lon="135.17714326">
        <ele>497.78</ele>
        <time>2026-07-30T03:21:42Z</time>
      </trkpt>
      <trkpt lat="34.73935506" lon="135.177142">
        <ele>497.63</ele>
        <time>2026-07-30T03:23:43Z</time>
      </trkpt>
      <trkpt lat="34.73937397" lon="135.17713236">
        <ele>494.68</ele>
        <time>2026-07-30T03:25:44Z</time>
      </trkpt>
      <trkpt lat="34.73928095" lon="135.177123">
        <ele>492.6</ele>
        <time>2026-07-30T03:26:04Z</time>
      </trkpt>
      <trkpt lat="34.73918859" lon="135.17709673">
        <ele>492.72</ele>
        <time>2026-07-30T03:26:16Z</time>
      </trkpt>
      <trkpt lat="34.73909952" lon="135.1770694">
        <ele>490.94</ele>
        <time>2026-07-30T03:26:27Z</time>
      </trkpt>
      <trkpt lat="34.73900744" lon="135.17705637">
        <ele>488.41</ele>
        <time>2026-07-30T03:26:40Z</time>
      </trkpt>
      <trkpt lat="34.73891675" lon="135.17703139">
        <ele>489.07</ele>
        <time>2026-07-30T03:26:50Z</time>
      </trkpt>
      <trkpt lat="34.73881847" lon="135.17703305">
        <ele>490.19</ele>
        <time>2026-07-30T03:27:01Z</time>
      </trkpt>
      <trkpt lat="34.73873619" lon="135.1770868">
        <ele>489.37</ele>
        <time>2026-07-30T03:27:13Z</time>
      </trkpt>
      <trkpt lat="34.73866158" lon="135.17715024">
        <ele>486.73</ele>
        <time>2026-07-30T03:27:31Z</time>
      </trkpt>
      <trkpt lat="34.73866068" lon="135.17726306">
        <ele>483.34</ele>
        <time>2026-07-30T03:27:50Z</time>
      </trkpt>
      <trkpt lat="34.73857012" lon="135.17723666">
        <ele>480.59</ele>
        <time>2026-07-30T03:28:19Z</time>
      </trkpt>
      <trkpt lat="34.7384807" lon="135.17721236">
        <ele>478.22</ele>
        <time>2026-07-30T03:28:47Z</time>
      </trkpt>
      <trkpt lat="34.73849301" lon="135.17732721">
        <ele>476.14</ele>
        <time>2026-07-30T03:29:25Z</time>
      </trkpt>
      <trkpt lat="34.73856387" lon="135.17740282">
        <ele>476.22</ele>
        <time>2026-07-30T03:29:37Z</time>
      </trkpt>
      <trkpt lat="34.73865301" lon="135.17746751">
        <ele>478.29</ele>
        <time>2026-07-30T03:29:52Z</time>
      </trkpt>
      <trkpt lat="34.73875883" lon="135.17747281">
        <ele>478.7</ele>
        <time>2026-07-30T03:30:06Z</time>
      </trkpt>
      <trkpt lat="34.73885369" lon="135.17748389">
        <ele>479.81</ele>
        <time>2026-07-30T03:30:19Z</time>
      </trkpt>
      <trkpt lat="34.73894442" lon="135.17751001">
        <ele>479</ele>
        <time>2026-07-30T03:30:32Z</time>
      </trkpt>
      <trkpt lat="34.73902745" lon="135.17759112">
        <ele>477.55</ele>
        <time>2026-07-30T03:30:46Z</time>
      </trkpt>
      <trkpt lat="34.73908809" lon="135.17771314">
        <ele>476.42</ele>
        <time>2026-07-30T03:31:01Z</time>
      </trkpt>
      <trkpt lat="34.73913516" lon="135.17780667">
        <ele>476.98</ele>
        <time>2026-07-30T03:31:12Z</time>
      </trkpt>
      <trkpt lat="34.73918491" lon="135.17791743">
        <ele>476.01</ele>
        <time>2026-07-30T03:31:29Z</time>
      </trkpt>
      <trkpt lat="34.73923938" lon="135.17801355">
        <ele>475.09</ele>
        <time>2026-07-30T03:31:40Z</time>
      </trkpt>
      <trkpt lat="34.73926187" lon="135.17812082">
        <ele>473.32</ele>
        <time>2026-07-30T03:31:51Z</time>
      </trkpt>
      <trkpt lat="34.73923143" lon="135.17825368">
        <ele>472.35</ele>
        <time>2026-07-30T03:32:04Z</time>
      </trkpt>
      <trkpt lat="34.73920591" lon="135.17835865">
        <ele>472.66</ele>
        <time>2026-07-30T03:32:14Z</time>
      </trkpt>
      <trkpt lat="34.73916575" lon="135.17845771">
        <ele>471.17</ele>
        <time>2026-07-30T03:32:26Z</time>
      </trkpt>
      <trkpt lat="34.73920438" lon="135.17855724">
        <ele>471.27</ele>
        <time>2026-07-30T03:33:11Z</time>
      </trkpt>
      <trkpt lat="34.7392588" lon="135.17864558">
        <ele>471.28</ele>
        <time>2026-07-30T03:34:20Z</time>
      </trkpt>
      <trkpt lat="34.73919384" lon="135.17856365">
        <ele>470.14</ele>
        <time>2026-07-30T03:35:44Z</time>
      </trkpt>
      <trkpt lat="34.73911704" lon="135.17846455">
        <ele>471.3</ele>
        <time>2026-07-30T03:35:57Z</time>
      </trkpt>
      <trkpt lat="34.73914703" lon="135.17835847">
        <ele>471.72</ele>
        <time>2026-07-30T03:36:07Z</time>
      </trkpt>
      <trkpt lat="34.73918655" lon="135.178255">
        <ele>474.07</ele>
        <time>2026-07-30T03:36:18Z</time>
      </trkpt>
      <trkpt lat="34.73922074" lon="135.17814945">
        <ele>474.12</ele>
        <time>2026-07-30T03:36:29Z</time>
      </trkpt>
      <trkpt lat="34.73927692" lon="135.17805996">
        <ele>472.32</ele>
        <time>2026-07-30T03:36:41Z</time>
      </trkpt>
      <trkpt lat="34.73934688" lon="135.1779844">
        <ele>472.28</ele>
        <time>2026-07-30T03:36:52Z</time>
      </trkpt>
      <trkpt lat="34.7394307" lon="135.17793933">
        <ele>470.16</ele>
        <time>2026-07-30T03:37:03Z</time>
      </trkpt>
      <trkpt lat="34.73952066" lon="135.17786406">
        <ele>470.79</ele>
        <time>2026-07-30T03:37:19Z</time>
      </trkpt>
      <trkpt lat="34.739613" lon="135.17781974">
        <ele>471.55</ele>
        <time>2026-07-30T03:37:32Z</time>
      </trkpt>
      <trkpt lat="34.73970733" lon="135.17779759">
        <ele>472.23</ele>
        <time>2026-07-30T03:37:44Z</time>
      </trkpt>
      <trkpt lat="34.73979627" lon="135.17777108">
        <ele>474.17</ele>
        <time>2026-07-30T03:37:57Z</time>
      </trkpt>
      <trkpt lat="34.73989467" lon="135.17774991">
        <ele>476.73</ele>
        <time>2026-07-30T03:38:10Z</time>
      </trkpt>
      <trkpt lat="34.73999375" lon="135.17775152">
        <ele>477.19</ele>
        <time>2026-07-30T03:38:23Z</time>
      </trkpt>
      <trkpt lat="34.74008944" lon="135.17773529">
        <ele>478.62</ele>
        <time>2026-07-30T03:38:36Z</time>
      </trkpt>
      <trkpt lat="34.74018435" lon="135.17774903">
        <ele>479.34</ele>
        <time>2026-07-30T03:38:47Z</time>
      </trkpt>
      <trkpt lat="34.74027835" lon="135.17774617">
        <ele>482.41</ele>
        <time>2026-07-30T03:38:58Z</time>
      </trkpt>
      <trkpt lat="34.74037399" lon="135.17773246">
        <ele>481.87</ele>
        <time>2026-07-30T03:39:08Z</time>
      </trkpt>
      <trkpt lat="34.74047379" lon="135.17771976">
        <ele>481.89</ele>
        <time>2026-07-30T03:39:19Z</time>
      </trkpt>
      <trkpt lat="34.7405685" lon="135.17774235">
        <ele>480.6</ele>
        <time>2026-07-30T03:39:32Z</time>
      </trkpt>
      <trkpt lat="34.74060756" lon="135.17764142">
        <ele>480.37</ele>
        <time>2026-07-30T03:39:58Z</time>
      </trkpt>
      <trkpt lat="34.74060111" lon="135.1775961">
        <ele>481.21</ele>
        <time>2026-07-30T03:41:59Z</time>
      </trkpt>
    </trkseg>
  </trk>
</gpx>