<?xml version='1.0' encoding='UTF-8' standalone='yes' ?>
<gpx xmlns="http://www.topografix.com/GPX/1/1" xmlns:geotracker="http://ilyabogdanovich.com/gpx/extensions/geotracker" xmlns:xsi="http://www.w3.org/2001/XMLSchema-instance" xsi:schemaLocation="http://www.topografix.com/GPX/1/1 http://www.topografix.com/GPX/1/1/gpx.xsd" version="1.1" creator="Recorded in Geo Tracker for Android from Ilya Bogdanovich">
  <metadata>
    <name>2026/10/08 10:18:12</name>
    <author>
      <name>Recorded in Geo Tracker for Android from Ilya Bogdanovich</name>
      <link href="https://play.google.com/store/apps/details?id=com.ilyabogdanovich.geotracker" />
    </author>
    <link href="https://play.google.com/store/apps/details?id=com.ilyabogdanovich.geotracker" />
    <time>2026-10-08T01:18:12Z</time>
  </metadata>
  <wpt lat="34.72831448" lon="135.11099614">
    <ele>335.9</ele>
    <time>2026-10-08T01:55:52Z</time>
    <name>Stop for ~5 min</name>
    <desc>Elevation: 336 m
Time from start: 00:37:39
Distance from start: 1.46 km</desc>
    <extensions>
      <geotracker:meta emoji="⏱️" />
    </extensions>
  </wpt>
  <wpt lat="34.72601992" lon="135.10963659">
    <ele>304.71</ele>
    <time>2026-10-08T02:38:39Z</time>
    <name>Stop for ~3 min</name>
    <desc>Elevation: 305 m
Time from start: 01:20:26
Distance from start: 2.82 km</desc>
    <extensions>
      <geotracker:meta emoji="⏱️" />
    </extensions>
  </wpt>
  <wpt lat="34.72766009" lon="135.10773534">
    <ele>282.23</ele>
    <time>2026-10-08T02:56:41Z</time>
    <name>Stop for ~5 min</name>
    <desc>Elevation: 282 m
Time from start: 01:38:28
Distance from start: 3.33 km</desc>
    <extensions>
      <geotracker:meta emoji="⏱️" />
    </extensions>
  </wpt>
  <wpt lat="34.72868244" lon="135.1090498">
    <ele>322.41</ele>
    <time>2026-10-08T04:13:45Z</time>
    <name>Stop for ~9 min</name>
    <desc>Elevation: 322 m
Time from start: 02:55:32
Distance from start: 4.95 km</desc>
    <extensions>
      <geotracker:meta emoji="⏱️" />
    </extensions>
  </wpt>
  <trk>
    <name>2026/10/08 10:18:12</name>
    <src>Recorded in Geo Tracker for Android from Ilya Bogdanovich</src>
    <link href="https://play.google.com/store/apps/details?id=com.ilyabogdanovich.geotracker" />
    <extensions>
      <geotracker:meta>
        <geotracker:length>6153.63</geotracker:length>
        <geotracker:duration>12595841</geotracker:duration>
        <geotracker:creationtime>2026-10-08T01:18:12Z</geotracker:creationtime>
        <geotracker:activity>0</geotracker:activity>
      </geotracker:meta>
    </extensions>
    <trkseg>
      <trkpt lat="34.73252627" lon="135.11813941">
        <ele>261.22</ele>
        <time>2026-10-08T01:18:20Z</time>
      </trkpt>
      <trkpt lat="34.73254993" lon="135.118033">
        <ele>268.56</ele>
        <time>2026-10-08T01:18:34Z</time>
      </trkpt>
      <trkpt lat="34.73253132" lon="135.11791912">
        <ele>265.52</ele>
        <time>2026-10-08T01:18:44Z</time>
      </trkpt>
      <trkpt lat="34.732517" lon="135.11779826">
        <ele>264.81</ele>
        <time>2026-10-08T01:18:54Z</time>
      </trkpt>
      <trkpt lat="34.73249266" lon="135.11768878">
        <ele>263.96</ele>
        <time>2026-10-08T01:19:03Z</time>
      </trkpt>
      <trkpt lat="34.73247773" lon="135.11757229">
        <ele>264.37</ele>
        <time>2026-10-08T01:19:12Z</time>
      </trkpt>
      <trkpt lat="34.73245452" lon="135.11746035">
        <ele>263.81</ele>
        <time>2026-10-08T01:19:21Z</time>
      </trkpt>
      <trkpt lat="34.73245394" lon="135.11735093">
        <ele>264.11</ele>
        <time>2026-10-08T01:19:30Z</time>
      </trkpt>
      <trkpt lat="34.73246324" lon="135.11720986">
        <ele>264.31</ele>
        <time>2026-10-08T01:19:42Z</time>
      </trkpt>
      <trkpt lat="34.7324729" lon="135.11709506">
        <ele>264.85</ele>
        <time>2026-10-08T01:19:51Z</time>
      </trkpt>
      <trkpt lat="34.73248894" lon="135.1169769">
        <ele>265.05</ele>
        <time>2026-10-08T01:20:00Z</time>
      </trkpt>
      <trkpt lat="34.73251363" lon="135.11686543">
        <ele>266.79</ele>
        <time>2026-10-08T01:20:09Z</time>
      </trkpt>
      <trkpt lat="34.73254794" lon="135.1167595">
        <ele>266.29</ele>
        <time>2026-10-08T01:20:19Z</time>
      </trkpt>
      <trkpt lat="34.73258481" lon="135.11665144">
        <ele>266.19</ele>
        <time>2026-10-08T01:20:28Z</time>
      </trkpt>
      <trkpt lat="34.73261663" lon="135.11654858">
        <ele>264.81</ele>
        <time>2026-10-08T01:20:36Z</time>
      </trkpt>
      <trkpt lat="34.73267426" lon="135.11643947">
        <ele>263.71</ele>
        <time>2026-10-08T01:20:46Z</time>
      </trkpt>
      <trkpt lat="34.73273318" lon="135.11634266">
        <ele>263.43</ele>
        <time>2026-10-08T01:20:55Z</time>
      </trkpt>
      <trkpt lat="34.73279156" lon="135.11624803">
        <ele>263.93</ele>
        <time>2026-10-08T01:21:04Z</time>
      </trkpt>
      <trkpt lat="34.73281537" lon="135.11613396">
        <ele>262.82</ele>
        <time>2026-10-08T01:21:14Z</time>
      </trkpt>
      <trkpt lat="34.73287023" lon="135.11601788">
        <ele>263.18</ele>
        <time>2026-10-08T01:21:25Z</time>
      </trkpt>
      <trkpt lat="34.73287363" lon="135.11589865">
        <ele>264.66</ele>
        <time>2026-10-08T01:21:33Z</time>
      </trkpt>
      <trkpt lat="34.73291151" lon="135.11579334">
        <ele>264.6</ele>
        <time>2026-10-08T01:21:42Z</time>
      </trkpt>
      <trkpt lat="34.73296655" lon="135.11570101">
        <ele>265.95</ele>
        <time>2026-10-08T01:21:51Z</time>
      </trkpt>
      <trkpt lat="34.73300396" lon="135.1155955">
        <ele>266.21</ele>
        <time>2026-10-08T01:22:01Z</time>
      </trkpt>
      <trkpt lat="34.7329828" lon="135.1154845">
        <ele>264.46</ele>
        <time>2026-10-08T01:22:11Z</time>
      </trkpt>
      <trkpt lat="34.73290211" lon="135.11541292">
        <ele>262.6</ele>
        <time>2026-10-08T01:22:37Z</time>
      </trkpt>
      <trkpt lat="34.73288398" lon="135.11529725">
        <ele>263.3</ele>
        <time>2026-10-08T01:22:51Z</time>
      </trkpt>
      <trkpt lat="34.73286534" lon="135.11518778">
        <ele>264.39</ele>
        <time>2026-10-08T01:23:01Z</time>
      </trkpt>
      <trkpt lat="34.73282312" lon="135.11508773">
        <ele>264.69</ele>
        <time>2026-10-08T01:23:11Z</time>
      </trkpt>
      <trkpt lat="34.73274596" lon="135.11502238">
        <ele>264.38</ele>
        <time>2026-10-08T01:23:28Z</time>
      </trkpt>
      <trkpt lat="34.73265646" lon="135.11500343">
        <ele>261.54</ele>
        <time>2026-10-08T01:23:58Z</time>
      </trkpt>
      <trkpt lat="34.73257298" lon="135.11494654">
        <ele>262.98</ele>
        <time>2026-10-08T01:24:08Z</time>
      </trkpt>
      <trkpt lat="34.73247629" lon="135.11494343">
        <ele>263.65</ele>
        <time>2026-10-08T01:24:19Z</time>
      </trkpt>
      <trkpt lat="34.73238361" lon="135.11495462">
        <ele>264.29</ele>
        <time>2026-10-08T01:24:31Z</time>
      </trkpt>
      <trkpt lat="34.73230749" lon="135.11488409">
        <ele>266.01</ele>
        <time>2026-10-08T01:24:43Z</time>
      </trkpt>
      <trkpt lat="34.73229729" lon="135.11476872">
        <ele>269.29</ele>
        <time>2026-10-08T01:24:53Z</time>
      </trkpt>
      <trkpt lat="34.73232013" lon="135.11464346">
        <ele>270.66</ele>
        <time>2026-10-08T01:25:05Z</time>
      </trkpt>
      <trkpt lat="34.73234984" lon="135.11453104">
        <ele>270.99</ele>
        <time>2026-10-08T01:25:15Z</time>
      </trkpt>
      <trkpt lat="34.73233017" lon="135.11442424">
        <ele>272.05</ele>
        <time>2026-10-08T01:25:25Z</time>
      </trkpt>
      <trkpt lat="34.73228152" lon="135.11433063">
        <ele>272.83</ele>
        <time>2026-10-08T01:25:38Z</time>
      </trkpt>
      <trkpt lat="34.73221162" lon="135.11425121">
        <ele>274.12</ele>
        <time>2026-10-08T01:25:51Z</time>
      </trkpt>
      <trkpt lat="34.73214492" lon="135.11416949">
        <ele>273.68</ele>
        <time>2026-10-08T01:26:06Z</time>
      </trkpt>
      <trkpt lat="34.73217915" lon="135.1140667">
        <ele>274.31</ele>
        <time>2026-10-08T01:26:21Z</time>
      </trkpt>
      <trkpt lat="34.73227416" lon="135.11403962">
        <ele>273.32</ele>
        <time>2026-10-08T01:26:32Z</time>
      </trkpt>
      <trkpt lat="34.73234562" lon="135.11396606">
        <ele>274.86</ele>
        <time>2026-10-08T01:26:45Z</time>
      </trkpt>
      <trkpt lat="34.73241923" lon="135.11388598">
        <ele>274.61</ele>
        <time>2026-10-08T01:26:56Z</time>
      </trkpt>
      <trkpt lat="34.73247538" lon="135.11378111">
        <ele>272.86</ele>
        <time>2026-10-08T01:27:08Z</time>
      </trkpt>
      <trkpt lat="34.73244079" lon="135.11367598">
        <ele>272.5</ele>
        <time>2026-10-08T01:27:19Z</time>
      </trkpt>
      <trkpt lat="34.73243228" lon="135.11356247">
        <ele>272.64</ele>
        <time>2026-10-08T01:27:33Z</time>
      </trkpt>
      <trkpt lat="34.73235362" lon="135.11349678">
        <ele>277.47</ele>
        <time>2026-10-08T01:27:47Z</time>
      </trkpt>
      <trkpt lat="34.732363" lon="135.11338372">
        <ele>278.3</ele>
        <time>2026-10-08T01:28:03Z</time>
      </trkpt>
      <trkpt lat="34.73229379" lon="135.11330575">
        <ele>275.41</ele>
        <time>2026-10-08T01:28:22Z</time>
      </trkpt>
      <trkpt lat="34.73222776" lon="135.11322854">
        <ele>279.47</ele>
        <time>2026-10-08T01:28:59Z</time>
      </trkpt>
      <trkpt lat="34.73216515" lon="135.11314563">
        <ele>285.37</ele>
        <time>2026-10-08T01:29:12Z</time>
      </trkpt>
      <trkpt lat="34.73209305" lon="135.11307864">
        <ele>289.22</ele>
        <time>2026-10-08T01:29:23Z</time>
      </trkpt>
      <trkpt lat="34.7320221" lon="135.11300261">
        <ele>291.76</ele>
        <time>2026-10-08T01:29:54Z</time>
      </trkpt>
      <trkpt lat="34.73193911" lon="135.11294204">
        <ele>292.07</ele>
        <time>2026-10-08T01:30:08Z</time>
      </trkpt>
      <trkpt lat="34.73186514" lon="135.11286712">
        <ele>295.48</ele>
        <time>2026-10-08T01:30:20Z</time>
      </trkpt>
      <trkpt lat="34.73183392" lon="135.1127637">
        <ele>297.02</ele>
        <time>2026-10-08T01:30:35Z</time>
      </trkpt>
      <trkpt lat="34.73178252" lon="135.11267375">
        <ele>301.6</ele>
        <time>2026-10-08T01:30:49Z</time>
      </trkpt>
      <trkpt lat="34.73173408" lon="135.11257695">
        <ele>303.58</ele>
        <time>2026-10-08T01:31:18Z</time>
      </trkpt>
      <trkpt lat="34.73175685" lon="135.11246483">
        <ele>301.75</ele>
        <time>2026-10-08T01:31:34Z</time>
      </trkpt>
      <trkpt lat="34.7317662" lon="135.11234612">
        <ele>306.2</ele>
        <time>2026-10-08T01:31:51Z</time>
      </trkpt>
      <trkpt lat="34.73177634" lon="135.11223625">
        <ele>308.49</ele>
        <time>2026-10-08T01:32:03Z</time>
      </trkpt>
      <trkpt lat="34.73183827" lon="135.11214759">
        <ele>308.67</ele>
        <time>2026-10-08T01:32:13Z</time>
      </trkpt>
      <trkpt lat="34.73187547" lon="135.11204385">
        <ele>307.62</ele>
        <time>2026-10-08T01:32:24Z</time>
      </trkpt>
      <trkpt lat="34.73184815" lon="135.11193966">
        <ele>307.04</ele>
        <time>2026-10-08T01:32:34Z</time>
      </trkpt>
      <trkpt lat="34.73178137" lon="135.11186382">
        <ele>306.26</ele>
        <time>2026-10-08T01:32:44Z</time>
      </trkpt>
      <trkpt lat="34.73174786" lon="135.1117612">
        <ele>306.73</ele>
        <time>2026-10-08T01:32:54Z</time>
      </trkpt>
      <trkpt lat="34.73174236" lon="135.11164914">
        <ele>307.27</ele>
        <time>2026-10-08T01:33:06Z</time>
      </trkpt>
      <trkpt lat="34.731708" lon="135.11153373">
        <ele>306.56</ele>
        <time>2026-10-08T01:33:22Z</time>
      </trkpt>
      <trkpt lat="34.731654" lon="135.11144003">
        <ele>305.64</ele>
        <time>2026-10-08T01:33:54Z</time>
      </trkpt>
      <trkpt lat="34.73163146" lon="135.11132454">
        <ele>305.13</ele>
        <time>2026-10-08T01:34:05Z</time>
      </trkpt>
      <trkpt lat="34.73161536" lon="135.11120653">
        <ele>304.31</ele>
        <time>2026-10-08T01:34:24Z</time>
      </trkpt>
      <trkpt lat="34.7315592" lon="135.11111176">
        <ele>303.66</ele>
        <time>2026-10-08T01:34:35Z</time>
      </trkpt>
      <trkpt lat="34.73151727" lon="135.11101192">
        <ele>303.09</ele>
        <time>2026-10-08T01:34:45Z</time>
      </trkpt>
      <trkpt lat="34.73145318" lon="135.11092825">
        <ele>303.9</ele>
        <time>2026-10-08T01:34:57Z</time>
      </trkpt>
      <trkpt lat="34.73138296" lon="135.1108481">
        <ele>303.87</ele>
        <time>2026-10-08T01:35:14Z</time>
      </trkpt>
      <trkpt lat="34.73132774" lon="135.11075852">
        <ele>305.06</ele>
        <time>2026-10-08T01:35:30Z</time>
      </trkpt>
      <trkpt lat="34.73124044" lon="135.11072525">
        <ele>304.54</ele>
        <time>2026-10-08T01:35:40Z</time>
      </trkpt>
      <trkpt lat="34.73114563" lon="135.1107226">
        <ele>305.06</ele>
        <time>2026-10-08T01:35:50Z</time>
      </trkpt>
      <trkpt lat="34.73105701" lon="135.11074478">
        <ele>304.61</ele>
        <time>2026-10-08T01:36:03Z</time>
      </trkpt>
      <trkpt lat="34.73095988" lon="135.1107539">
        <ele>305.26</ele>
        <time>2026-10-08T01:36:16Z</time>
      </trkpt>
      <trkpt lat="34.73087215" lon="135.11071257">
        <ele>305.66</ele>
        <time>2026-10-08T01:36:33Z</time>
      </trkpt>
      <trkpt lat="34.73078482" lon="135.11066742">
        <ele>306.83</ele>
        <time>2026-10-08T01:36:47Z</time>
      </trkpt>
      <trkpt lat="34.7307102" lon="135.11059726">
        <ele>309.89</ele>
        <time>2026-10-08T01:37:13Z</time>
      </trkpt>
      <trkpt lat="34.73063941" lon="135.11051832">
        <ele>312.87</ele>
        <time>2026-10-08T01:37:26Z</time>
      </trkpt>
      <trkpt lat="34.73056081" lon="135.11045623">
        <ele>313.86</ele>
        <time>2026-10-08T01:37:41Z</time>
      </trkpt>
      <trkpt lat="34.73051568" lon="135.11035981">
        <ele>320.36</ele>
        <time>2026-10-08T01:38:00Z</time>
      </trkpt>
      <trkpt lat="34.73055639" lon="135.11026132">
        <ele>321.33</ele>
        <time>2026-10-08T01:38:19Z</time>
      </trkpt>
      <trkpt lat="34.73057707" lon="135.11015424">
        <ele>320.96</ele>
        <time>2026-10-08T01:38:33Z</time>
      </trkpt>
      <trkpt lat="34.73050636" lon="135.11008163">
        <ele>322.57</ele>
        <time>2026-10-08T01:38:47Z</time>
      </trkpt>
      <trkpt lat="34.73043206" lon="135.11001909">
        <ele>324.69</ele>
        <time>2026-10-08T01:38:57Z</time>
      </trkpt>
      <trkpt lat="34.73039021" lon="135.10990645">
        <ele>326.79</ele>
        <time>2026-10-08T01:39:08Z</time>
      </trkpt>
      <trkpt lat="34.73039508" lon="135.10979277">
        <ele>323.07</ele>
        <time>2026-10-08T01:39:18Z</time>
      </trkpt>
      <trkpt lat="34.73035791" lon="135.10968769">
        <ele>325.71</ele>
        <time>2026-10-08T01:39:27Z</time>
      </trkpt>
      <trkpt lat="34.73034661" lon="135.1095753">
        <ele>325.53</ele>
        <time>2026-10-08T01:39:36Z</time>
      </trkpt>
      <trkpt lat="34.73035756" lon="135.10946492">
        <ele>323.39</ele>
        <time>2026-10-08T01:39:48Z</time>
      </trkpt>
      <trkpt lat="34.73026659" lon="135.10946192">
        <ele>324.21</ele>
        <time>2026-10-08T01:40:32Z</time>
      </trkpt>
      <trkpt lat="34.7301759" lon="135.10949567">
        <ele>322.93</ele>
        <time>2026-10-08T01:40:43Z</time>
      </trkpt>
      <trkpt lat="34.73009539" lon="135.10955013">
        <ele>322.14</ele>
        <time>2026-10-08T01:40:52Z</time>
      </trkpt>
      <trkpt lat="34.73001" lon="135.10960026">
        <ele>320.74</ele>
        <time>2026-10-08T01:41:03Z</time>
      </trkpt>
      <trkpt lat="34.72991933" lon="135.10959754">
        <ele>320.94</ele>
        <time>2026-10-08T01:41:13Z</time>
      </trkpt>
      <trkpt lat="34.72982433" lon="135.10956974">
        <ele>322.08</ele>
        <time>2026-10-08T01:41:24Z</time>
      </trkpt>
      <trkpt lat="34.72974567" lon="135.10951522">
        <ele>323.61</ele>
        <time>2026-10-08T01:41:34Z</time>
      </trkpt>
      <trkpt lat="34.72965405" lon="135.10948468">
        <ele>323.78</ele>
        <time>2026-10-08T01:43:03Z</time>
      </trkpt>
      <trkpt lat="34.72958814" lon="135.10940938">
        <ele>325.84</ele>
        <time>2026-10-08T01:43:14Z</time>
      </trkpt>
      <trkpt lat="34.72951084" lon="135.10934347">
        <ele>326.51</ele>
        <time>2026-10-08T01:43:24Z</time>
      </trkpt>
      <trkpt lat="34.72950811" lon="135.10946019">
        <ele>326.47</ele>
        <time>2026-10-08T01:44:28Z</time>
      </trkpt>
      <trkpt lat="34.72942838" lon="135.10952456">
        <ele>327.78</ele>
        <time>2026-10-08T01:44:46Z</time>
      </trkpt>
      <trkpt lat="34.72934744" lon="135.10958253">
        <ele>328.07</ele>
        <time>2026-10-08T01:45:00Z</time>
      </trkpt>
      <trkpt lat="34.72931149" lon="135.10969631">
        <ele>327.53</ele>
        <time>2026-10-08T01:45:12Z</time>
      </trkpt>
      <trkpt lat="34.72925613" lon="135.10979399">
        <ele>327.01</ele>
        <time>2026-10-08T01:45:34Z</time>
      </trkpt>
      <trkpt lat="34.72918059" lon="135.10985846">
        <ele>325.8</ele>
        <time>2026-10-08T01:46:01Z</time>
      </trkpt>
      <trkpt lat="34.72912378" lon="135.10994678">
        <ele>325.54</ele>
        <time>2026-10-08T01:46:11Z</time>
      </trkpt>
      <trkpt lat="34.7290978" lon="135.1100525">
        <ele>325.64</ele>
        <time>2026-10-08T01:46:21Z</time>
      </trkpt>
      <trkpt lat="34.72916125" lon="135.1101331">
        <ele>326.71</ele>
        <time>2026-10-08T01:46:31Z</time>
      </trkpt>
      <trkpt lat="34.7292294" lon="135.1102055">
        <ele>328.04</ele>
        <time>2026-10-08T01:46:41Z</time>
      </trkpt>
      <trkpt lat="34.72922378" lon="135.1103151">
        <ele>329.55</ele>
        <time>2026-10-08T01:47:01Z</time>
      </trkpt>
      <trkpt lat="34.72928573" lon="135.11040652">
        <ele>331</ele>
        <time>2026-10-08T01:47:18Z</time>
      </trkpt>
      <trkpt lat="34.72924561" lon="135.11050897">
        <ele>333.37</ele>
        <time>2026-10-08T01:47:34Z</time>
      </trkpt>
      <trkpt lat="34.72915342" lon="135.11053428">
        <ele>333.87</ele>
        <time>2026-10-08T01:48:01Z</time>
      </trkpt>
      <trkpt lat="34.72906389" lon="135.11050417">
        <ele>336.99</ele>
        <time>2026-10-08T01:48:13Z</time>
      </trkpt>
      <trkpt lat="34.72900448" lon="135.11059141">
        <ele>337.06</ele>
        <time>2026-10-08T01:48:47Z</time>
      </trkpt>
      <trkpt lat="34.72891136" lon="135.11060755">
        <ele>338.86</ele>
        <time>2026-10-08T01:49:18Z</time>
      </trkpt>
      <trkpt lat="34.72882513" lon="135.11064132">
        <ele>338.34</ele>
        <time>2026-10-08T01:49:41Z</time>
      </trkpt>
      <trkpt lat="34.72883535" lon="135.11076777">
        <ele>338.66</ele>
        <time>2026-10-08T01:49:57Z</time>
      </trkpt>
      <trkpt lat="34.72885774" lon="135.11087714">
        <ele>340.82</ele>
        <time>2026-10-08T01:50:17Z</time>
      </trkpt>
      <trkpt lat="34.7287784" lon="135.11094923">
        <ele>342.05</ele>
        <time>2026-10-08T01:50:49Z</time>
      </trkpt>
      <trkpt lat="34.72885714" lon="135.1108899">
        <ele>340.76</ele>
        <time>2026-10-08T01:51:22Z</time>
      </trkpt>
      <trkpt lat="34.72882792" lon="135.11078165">
        <ele>339.74</ele>
        <time>2026-10-08T01:51:35Z</time>
      </trkpt>
      <trkpt lat="34.72873668" lon="135.1108719">
        <ele>338.53</ele>
        <time>2026-10-08T01:51:54Z</time>
      </trkpt>
      <trkpt lat="34.72866658" lon="135.11095015">
        <ele>339.1</ele>
        <time>2026-10-08T01:52:09Z</time>
      </trkpt>
      <trkpt lat="34.72858504" lon="135.1110104">
        <ele>338.47</ele>
        <time>2026-10-08T01:52:22Z</time>
      </trkpt>
      <trkpt lat="34.72849271" lon="135.11098693">
        <ele>338.49</ele>
        <time>2026-10-08T01:52:45Z</time>
      </trkpt>
      <trkpt lat="34.72840899" lon="135.11093721">
        <ele>338.36</ele>
        <time>2026-10-08T01:52:56Z</time>
      </trkpt>
      <trkpt lat="34.72832673" lon="135.11099029">
        <ele>338.36</ele>
        <time>2026-10-08T01:53:19Z</time>
      </trkpt>
      <trkpt lat="34.72827147" lon="135.1108996">
        <ele>338.8</ele>
        <time>2026-10-08T01:55:07Z</time>
      </trkpt>
      <trkpt lat="34.72831448" lon="135.11099614">
        <ele>335.9</ele>
        <time>2026-10-08T01:55:52Z</time>
      </trkpt>
      <trkpt lat="34.72831375" lon="135.11100227">
        <ele>335.83</ele>
        <time>2026-10-08T02:00:11Z</time>
      </trkpt>
      <trkpt lat="34.7283144" lon="135.11100324">
        <ele>335.79</ele>
        <time>2026-10-08T02:02:12Z</time>
      </trkpt>
      <trkpt lat="34.72831485" lon="135.11100397">
        <ele>335.74</ele>
        <time>2026-10-08T02:04:13Z</time>
      </trkpt>
      <trkpt lat="34.7284004" lon="135.11105452">
        <ele>335.76</ele>
        <time>2026-10-08T02:04:48Z</time>
      </trkpt>
      <trkpt lat="34.72843054" lon="135.11094748">
        <ele>335.46</ele>
        <time>2026-10-08T02:05:05Z</time>
      </trkpt>
      <trkpt lat="34.72847945" lon="135.11085221">
        <ele>332.41</ele>
        <time>2026-10-08T02:06:11Z</time>
      </trkpt>
      <trkpt lat="34.7285632" lon="135.11080861">
        <ele>330.77</ele>
        <time>2026-10-08T02:06:36Z</time>
      </trkpt>
      <trkpt lat="34.72862919" lon="135.11073151">
        <ele>328.57</ele>
        <time>2026-10-08T02:07:37Z</time>
      </trkpt>
      <trkpt lat="34.72861566" lon="135.11062291">
        <ele>329.15</ele>
        <time>2026-10-08T02:07:53Z</time>
      </trkpt>
      <trkpt lat="34.72854988" lon="135.11054094">
        <ele>330.16</ele>
        <time>2026-10-08T02:08:28Z</time>
      </trkpt>
      <trkpt lat="34.72848864" lon="135.11045757">
        <ele>330.6</ele>
        <time>2026-10-08T02:08:43Z</time>
      </trkpt>
      <trkpt lat="34.72841451" lon="135.11038945">
        <ele>331.5</ele>
        <time>2026-10-08T02:08:56Z</time>
      </trkpt>
      <trkpt lat="34.72834086" lon="135.11031937">
        <ele>331.76</ele>
        <time>2026-10-08T02:09:08Z</time>
      </trkpt>
      <trkpt lat="34.72832399" lon="135.1104304">
        <ele>327.07</ele>
        <time>2026-10-08T02:09:20Z</time>
      </trkpt>
      <trkpt lat="34.72826056" lon="135.11051011">
        <ele>324.95</ele>
        <time>2026-10-08T02:09:31Z</time>
      </trkpt>
      <trkpt lat="34.72827083" lon="135.11039985">
        <ele>322.55</ele>
        <time>2026-10-08T02:09:54Z</time>
      </trkpt>
      <trkpt lat="34.72817499" lon="135.1104575">
        <ele>321.32</ele>
        <time>2026-10-08T02:10:14Z</time>
      </trkpt>
      <trkpt lat="34.72809197" lon="135.11051199">
        <ele>319.94</ele>
        <time>2026-10-08T02:10:24Z</time>
      </trkpt>
      <trkpt lat="34.72800918" lon="135.11057565">
        <ele>318.67</ele>
        <time>2026-10-08T02:10:35Z</time>
      </trkpt>
      <trkpt lat="34.727959" lon="135.11066737">
        <ele>317.38</ele>
        <time>2026-10-08T02:10:45Z</time>
      </trkpt>
      <trkpt lat="34.72793992" lon="135.11077576">
        <ele>316.44</ele>
        <time>2026-10-08T02:10:55Z</time>
      </trkpt>
      <trkpt lat="34.72790421" lon="135.11066519">
        <ele>316.42</ele>
        <time>2026-10-08T02:11:18Z</time>
      </trkpt>
      <trkpt lat="34.72793175" lon="135.11055797">
        <ele>315.96</ele>
        <time>2026-10-08T02:11:28Z</time>
      </trkpt>
      <trkpt lat="34.72800658" lon="135.11047678">
        <ele>314.98</ele>
        <time>2026-10-08T02:11:39Z</time>
      </trkpt>
      <trkpt lat="34.72807056" lon="135.11039726">
        <ele>314.41</ele>
        <time>2026-10-08T02:11:49Z</time>
      </trkpt>
      <trkpt lat="34.72798051" lon="135.11036373">
        <ele>313.4</ele>
        <time>2026-10-08T02:12:32Z</time>
      </trkpt>
      <trkpt lat="34.72789652" lon="135.11042945">
        <ele>312.67</ele>
        <time>2026-10-08T02:12:43Z</time>
      </trkpt>
      <trkpt lat="34.72784792" lon="135.11052961">
        <ele>312.82</ele>
        <time>2026-10-08T02:12:54Z</time>
      </trkpt>
      <trkpt lat="34.72783468" lon="135.11064256">
        <ele>312.17</ele>
        <time>2026-10-08T02:13:05Z</time>
      </trkpt>
      <trkpt lat="34.72783275" lon="135.11075763">
        <ele>311.62</ele>
        <time>2026-10-08T02:13:16Z</time>
      </trkpt>
      <trkpt lat="34.72784608" lon="135.11086705">
        <ele>311.59</ele>
        <time>2026-10-08T02:13:27Z</time>
      </trkpt>
      <trkpt lat="34.72785927" lon="135.11098065">
        <ele>311.53</ele>
        <time>2026-10-08T02:13:38Z</time>
      </trkpt>
      <trkpt lat="34.72787214" lon="135.1110987">
        <ele>310.93</ele>
        <time>2026-10-08T02:13:49Z</time>
      </trkpt>
      <trkpt lat="34.7278486" lon="135.11121138">
        <ele>310.46</ele>
        <time>2026-10-08T02:14:00Z</time>
      </trkpt>
      <trkpt lat="34.7278097" lon="135.11131644">
        <ele>311.72</ele>
        <time>2026-10-08T02:14:10Z</time>
      </trkpt>
      <trkpt lat="34.72776933" lon="135.1114254">
        <ele>312.08</ele>
        <time>2026-10-08T02:14:21Z</time>
      </trkpt>
      <trkpt lat="34.72773891" lon="135.11152874">
        <ele>313.92</ele>
        <time>2026-10-08T02:14:44Z</time>
      </trkpt>
      <trkpt lat="34.72774056" lon="135.11165283">
        <ele>313.72</ele>
        <time>2026-10-08T02:14:56Z</time>
      </trkpt>
      <trkpt lat="34.72773194" lon="135.11176676">
        <ele>313.45</ele>
        <time>2026-10-08T02:15:08Z</time>
      </trkpt>
      <trkpt lat="34.72770677" lon="135.11188393">
        <ele>316</ele>
        <time>2026-10-08T02:15:19Z</time>
      </trkpt>
      <trkpt lat="34.72768668" lon="135.11199651">
        <ele>317.48</ele>
        <time>2026-10-08T02:15:30Z</time>
      </trkpt>
      <trkpt lat="34.72765429" lon="135.11210579">
        <ele>318.36</ele>
        <time>2026-10-08T02:15:42Z</time>
      </trkpt>
      <trkpt lat="34.72763447" lon="135.1122159">
        <ele>317.24</ele>
        <time>2026-10-08T02:15:53Z</time>
      </trkpt>
      <trkpt lat="34.72763004" lon="135.11232734">
        <ele>317.52</ele>
        <time>2026-10-08T02:16:04Z</time>
      </trkpt>
      <trkpt lat="34.72755049" lon="135.11238194">
        <ele>317.26</ele>
        <time>2026-10-08T02:16:22Z</time>
      </trkpt>
      <trkpt lat="34.72746101" lon="135.1124287">
        <ele>317.13</ele>
        <time>2026-10-08T02:16:34Z</time>
      </trkpt>
      <trkpt lat="34.72736527" lon="135.11239881">
        <ele>315.78</ele>
        <time>2026-10-08T02:16:45Z</time>
      </trkpt>
      <trkpt lat="34.72728743" lon="135.11233449">
        <ele>315.72</ele>
        <time>2026-10-08T02:16:55Z</time>
      </trkpt>
      <trkpt lat="34.72719384" lon="135.11234557">
        <ele>317.52</ele>
        <time>2026-10-08T02:17:04Z</time>
      </trkpt>
      <trkpt lat="34.72712722" lon="135.11226144">
        <ele>317.15</ele>
        <time>2026-10-08T02:17:21Z</time>
      </trkpt>
      <trkpt lat="34.72713289" lon="135.11214618">
        <ele>316.4</ele>
        <time>2026-10-08T02:17:33Z</time>
      </trkpt>
      <trkpt lat="34.72715115" lon="135.11203812">
        <ele>314.11</ele>
        <time>2026-10-08T02:17:45Z</time>
      </trkpt>
      <trkpt lat="34.72717157" lon="135.11192565">
        <ele>314.28</ele>
        <time>2026-10-08T02:18:08Z</time>
      </trkpt>
      <trkpt lat="34.7271637" lon="135.11181465">
        <ele>314.42</ele>
        <time>2026-10-08T02:18:18Z</time>
      </trkpt>
      <trkpt lat="34.72714134" lon="135.11170609">
        <ele>315.74</ele>
        <time>2026-10-08T02:18:28Z</time>
      </trkpt>
      <trkpt lat="34.72716205" lon="135.1115934">
        <ele>316.87</ele>
        <time>2026-10-08T02:18:55Z</time>
      </trkpt>
      <trkpt lat="34.72721467" lon="135.11149635">
        <ele>318.25</ele>
        <time>2026-10-08T02:19:07Z</time>
      </trkpt>
      <trkpt lat="34.7272717" lon="135.1113995">
        <ele>319.19</ele>
        <time>2026-10-08T02:19:25Z</time>
      </trkpt>
      <trkpt lat="34.72733261" lon="135.11130929">
        <ele>318.55</ele>
        <time>2026-10-08T02:20:00Z</time>
      </trkpt>
      <trkpt lat="34.72737009" lon="135.11120684">
        <ele>313.9</ele>
        <time>2026-10-08T02:20:15Z</time>
      </trkpt>
      <trkpt lat="34.72740875" lon="135.11110763">
        <ele>313.6</ele>
        <time>2026-10-08T02:20:29Z</time>
      </trkpt>
      <trkpt lat="34.72740711" lon="135.11099728">
        <ele>313.72</ele>
        <time>2026-10-08T02:20:51Z</time>
      </trkpt>
      <trkpt lat="34.72740782" lon="135.11088491">
        <ele>314.58</ele>
        <time>2026-10-08T02:21:04Z</time>
      </trkpt>
      <trkpt lat="34.727447" lon="135.11078222">
        <ele>311.74</ele>
        <time>2026-10-08T02:21:55Z</time>
      </trkpt>
      <trkpt lat="34.7274878" lon="135.11068072">
        <ele>311.87</ele>
        <time>2026-10-08T02:22:13Z</time>
      </trkpt>
      <trkpt lat="34.7274969" lon="135.11056412">
        <ele>315.05</ele>
        <time>2026-10-08T02:22:33Z</time>
      </trkpt>
      <trkpt lat="34.72750798" lon="135.11043722">
        <ele>312.11</ele>
        <time>2026-10-08T02:22:47Z</time>
      </trkpt>
      <trkpt lat="34.72751162" lon="135.11032128">
        <ele>310.15</ele>
        <time>2026-10-08T02:23:01Z</time>
      </trkpt>
      <trkpt lat="34.72753032" lon="135.11021153">
        <ele>311.16</ele>
        <time>2026-10-08T02:23:55Z</time>
      </trkpt>
      <trkpt lat="34.72755207" lon="135.11010547">
        <ele>312.45</ele>
        <time>2026-10-08T02:24:13Z</time>
      </trkpt>
      <trkpt lat="34.72746912" lon="135.11005496">
        <ele>315.36</ele>
        <time>2026-10-08T02:24:28Z</time>
      </trkpt>
      <trkpt lat="34.72738774" lon="135.1099985">
        <ele>317.59</ele>
        <time>2026-10-08T02:24:39Z</time>
      </trkpt>
      <trkpt lat="34.72730649" lon="135.10993716">
        <ele>319.41</ele>
        <time>2026-10-08T02:24:50Z</time>
      </trkpt>
      <trkpt lat="34.72724386" lon="135.10985721">
        <ele>318.95</ele>
        <time>2026-10-08T02:25:11Z</time>
      </trkpt>
      <trkpt lat="34.72716141" lon="135.10990575">
        <ele>317.77</ele>
        <time>2026-10-08T02:25:21Z</time>
      </trkpt>
      <trkpt lat="34.72708758" lon="135.10998361">
        <ele>318.14</ele>
        <time>2026-10-08T02:25:32Z</time>
      </trkpt>
      <trkpt lat="34.72701606" lon="135.11005798">
        <ele>318.05</ele>
        <time>2026-10-08T02:25:43Z</time>
      </trkpt>
      <trkpt lat="34.72697892" lon="135.11018959">
        <ele>318.16</ele>
        <time>2026-10-08T02:25:57Z</time>
      </trkpt>
      <trkpt lat="34.72696152" lon="135.11030689">
        <ele>318.78</ele>
        <time>2026-10-08T02:26:08Z</time>
      </trkpt>
      <trkpt lat="34.72690661" lon="135.11040278">
        <ele>318.71</ele>
        <time>2026-10-08T02:26:19Z</time>
      </trkpt>
      <trkpt lat="34.72683731" lon="135.11047699">
        <ele>317.21</ele>
        <time>2026-10-08T02:26:31Z</time>
      </trkpt>
      <trkpt lat="34.72677598" lon="135.11056937">
        <ele>316.86</ele>
        <time>2026-10-08T02:26:44Z</time>
      </trkpt>
      <trkpt lat="34.72671308" lon="135.11065469">
        <ele>315.57</ele>
        <time>2026-10-08T02:26:58Z</time>
      </trkpt>
      <trkpt lat="34.72662696" lon="135.11070935">
        <ele>315.42</ele>
        <time>2026-10-08T02:27:10Z</time>
      </trkpt>
      <trkpt lat="34.72655132" lon="135.11077387">
        <ele>314.97</ele>
        <time>2026-10-08T02:27:22Z</time>
      </trkpt>
      <trkpt lat="34.72652342" lon="135.11087985">
        <ele>314.15</ele>
        <time>2026-10-08T02:27:35Z</time>
      </trkpt>
      <trkpt lat="34.72650516" lon="135.11098745">
        <ele>314.39</ele>
        <time>2026-10-08T02:27:46Z</time>
      </trkpt>
      <trkpt lat="34.72646677" lon="135.11109174">
        <ele>313.62</ele>
        <time>2026-10-08T02:27:58Z</time>
      </trkpt>
      <trkpt lat="34.72642437" lon="135.11120921">
        <ele>312.38</ele>
        <time>2026-10-08T02:28:11Z</time>
      </trkpt>
      <trkpt lat="34.72634115" lon="135.11126922">
        <ele>311.07</ele>
        <time>2026-10-08T02:28:22Z</time>
      </trkpt>
      <trkpt lat="34.72625308" lon="135.11122103">
        <ele>310.03</ele>
        <time>2026-10-08T02:28:32Z</time>
      </trkpt>
      <trkpt lat="34.72617988" lon="135.11114702">
        <ele>310.59</ele>
        <time>2026-10-08T02:28:43Z</time>
      </trkpt>
      <trkpt lat="34.72609735" lon="135.11108747">
        <ele>310.86</ele>
        <time>2026-10-08T02:28:55Z</time>
      </trkpt>
      <trkpt lat="34.72599651" lon="135.11104457">
        <ele>310.15</ele>
        <time>2026-10-08T02:29:08Z</time>
      </trkpt>
      <trkpt lat="34.72590491" lon="135.11104165">
        <ele>310.12</ele>
        <time>2026-10-08T02:29:25Z</time>
      </trkpt>
      <trkpt lat="34.72580729" lon="135.11103498">
        <ele>310.69</ele>
        <time>2026-10-08T02:29:37Z</time>
      </trkpt>
      <trkpt lat="34.7257113" lon="135.1110421">
        <ele>311.24</ele>
        <time>2026-10-08T02:29:52Z</time>
      </trkpt>
      <trkpt lat="34.7256255" lon="135.11107597">
        <ele>312.39</ele>
        <time>2026-10-08T02:30:04Z</time>
      </trkpt>
      <trkpt lat="34.72553094" lon="135.11110678">
        <ele>314.07</ele>
        <time>2026-10-08T02:30:16Z</time>
      </trkpt>
      <trkpt lat="34.72543514" lon="135.11108974">
        <ele>314.68</ele>
        <time>2026-10-08T02:30:29Z</time>
      </trkpt>
      <trkpt lat="34.72536232" lon="135.11101467">
        <ele>315.94</ele>
        <time>2026-10-08T02:30:40Z</time>
      </trkpt>
      <trkpt lat="34.72532284" lon="135.11089962">
        <ele>319.28</ele>
        <time>2026-10-08T02:30:54Z</time>
      </trkpt>
      <trkpt lat="34.72532662" lon="135.11078005">
        <ele>319.78</ele>
        <time>2026-10-08T02:31:06Z</time>
      </trkpt>
      <trkpt lat="34.72532097" lon="135.11066412">
        <ele>324.59</ele>
        <time>2026-10-08T02:31:17Z</time>
      </trkpt>
      <trkpt lat="34.72531721" lon="135.11055081">
        <ele>325.12</ele>
        <time>2026-10-08T02:31:28Z</time>
      </trkpt>
      <trkpt lat="34.72528832" lon="135.11043987">
        <ele>325.91</ele>
        <time>2026-10-08T02:31:40Z</time>
      </trkpt>
      <trkpt lat="34.72526746" lon="135.11032361">
        <ele>325.87</ele>
        <time>2026-10-08T02:31:55Z</time>
      </trkpt>
      <trkpt lat="34.72532462" lon="135.11022852">
        <ele>323.49</ele>
        <time>2026-10-08T02:32:06Z</time>
      </trkpt>
      <trkpt lat="34.72538831" lon="135.11013235">
        <ele>322.78</ele>
        <time>2026-10-08T02:32:17Z</time>
      </trkpt>
      <trkpt lat="34.72543811" lon="135.11003592">
        <ele>322.62</ele>
        <time>2026-10-08T02:32:30Z</time>
      </trkpt>
      <trkpt lat="34.72546342" lon="135.10992984">
        <ele>320.49</ele>
        <time>2026-10-08T02:32:44Z</time>
      </trkpt>
      <trkpt lat="34.72550094" lon="135.10982222">
        <ele>320.44</ele>
        <time>2026-10-08T02:32:55Z</time>
      </trkpt>
      <trkpt lat="34.72552131" lon="135.10993814">
        <ele>316.89</ele>
        <time>2026-10-08T02:33:27Z</time>
      </trkpt>
      <trkpt lat="34.72551995" lon="135.11005045">
        <ele>316.64</ele>
        <time>2026-10-08T02:33:37Z</time>
      </trkpt>
      <trkpt lat="34.72558183" lon="135.11015175">
        <ele>316.21</ele>
        <time>2026-10-08T02:33:48Z</time>
      </trkpt>
      <trkpt lat="34.72561698" lon="135.1102615">
        <ele>315.41</ele>
        <time>2026-10-08T02:34:00Z</time>
      </trkpt>
      <trkpt lat="34.72571559" lon="135.11032319">
        <ele>312.71</ele>
        <time>2026-10-08T02:34:15Z</time>
      </trkpt>
      <trkpt lat="34.72566951" lon="135.11022076">
        <ele>311.56</ele>
        <time>2026-10-08T02:34:29Z</time>
      </trkpt>
      <trkpt lat="34.72575939" lon="135.11023209">
        <ele>309.73</ele>
        <time>2026-10-08T02:34:53Z</time>
      </trkpt>
      <trkpt lat="34.72574128" lon="135.11012326">
        <ele>308.56</ele>
        <time>2026-10-08T02:35:03Z</time>
      </trkpt>
      <trkpt lat="34.725739" lon="135.11000801">
        <ele>307.62</ele>
        <time>2026-10-08T02:35:29Z</time>
      </trkpt>
      <trkpt lat="34.72582741" lon="135.1100883">
        <ele>306.56</ele>
        <time>2026-10-08T02:36:10Z</time>
      </trkpt>
      <trkpt lat="34.72591802" lon="135.11010478">
        <ele>304.63</ele>
        <time>2026-10-08T02:36:23Z</time>
      </trkpt>
      <trkpt lat="34.7260159" lon="135.11010213">
        <ele>304.17</ele>
        <time>2026-10-08T02:36:34Z</time>
      </trkpt>
      <trkpt lat="34.72603921" lon="135.10998899">
        <ele>304.86</ele>
        <time>2026-10-08T02:36:51Z</time>
      </trkpt>
      <trkpt lat="34.72601318" lon="135.1098828">
        <ele>305.08</ele>
        <time>2026-10-08T02:37:00Z</time>
      </trkpt>
      <trkpt lat="34.726019" lon="135.1097585">
        <ele>306.23</ele>
        <time>2026-10-08T02:37:16Z</time>
      </trkpt>
      <trkpt lat="34.72603331" lon="135.10964913">
        <ele>307.2</ele>
        <time>2026-10-08T02:37:30Z</time>
      </trkpt>
      <trkpt lat="34.72609433" lon="135.10956563">
        <ele>307.83</ele>
        <time>2026-10-08T02:37:45Z</time>
      </trkpt>
      <trkpt lat="34.72618024" lon="135.10952318">
        <ele>307.63</ele>
        <time>2026-10-08T02:38:00Z</time>
      </trkpt>
      <trkpt lat="34.72610138" lon="135.10958919">
        <ele>304.92</ele>
        <time>2026-10-08T02:38:20Z</time>
      </trkpt>
      <trkpt lat="34.72601992" lon="135.10963659">
        <ele>304.71</ele>
        <time>2026-10-08T02:38:39Z</time>
      </trkpt>
      <trkpt lat="34.72600526" lon="135.10962382">
        <ele>306.67</ele>
        <time>2026-10-08T02:41:40Z</time>
      </trkpt>
      <trkpt lat="34.72609702" lon="135.109591">
        <ele>307.07</ele>
        <time>2026-10-08T02:41:59Z</time>
      </trkpt>
      <trkpt lat="34.72617892" lon="135.1095414">
        <ele>307.18</ele>
        <time>2026-10-08T02:42:11Z</time>
      </trkpt>
      <trkpt lat="34.72625617" lon="135.10947223">
        <ele>308.17</ele>
        <time>2026-10-08T02:42:21Z</time>
      </trkpt>
      <trkpt lat="34.72631236" lon="135.10937811">
        <ele>310.81</ele>
        <time>2026-10-08T02:42:32Z</time>
      </trkpt>
      <trkpt lat="34.72637367" lon="135.10929288">
        <ele>310.9</ele>
        <time>2026-10-08T02:42:43Z</time>
      </trkpt>
      <trkpt lat="34.72643168" lon="135.1092055">
        <ele>309.82</ele>
        <time>2026-10-08T02:42:52Z</time>
      </trkpt>
      <trkpt lat="34.7264539" lon="135.10909462">
        <ele>311.99</ele>
        <time>2026-10-08T02:43:05Z</time>
      </trkpt>
      <trkpt lat="34.72643109" lon="135.10898461">
        <ele>308.97</ele>
        <time>2026-10-08T02:43:19Z</time>
      </trkpt>
      <trkpt lat="34.72640425" lon="135.10887703">
        <ele>311.56</ele>
        <time>2026-10-08T02:43:33Z</time>
      </trkpt>
      <trkpt lat="34.72631321" lon="135.10885391">
        <ele>310.97</ele>
        <time>2026-10-08T02:43:48Z</time>
      </trkpt>
      <trkpt lat="34.72623312" lon="135.10891003">
        <ele>310.14</ele>
        <time>2026-10-08T02:44:02Z</time>
      </trkpt>
      <trkpt lat="34.72613991" lon="135.10888009">
        <ele>309.78</ele>
        <time>2026-10-08T02:44:15Z</time>
      </trkpt>
      <trkpt lat="34.72605016" lon="135.10885081">
        <ele>310.85</ele>
        <time>2026-10-08T02:44:27Z</time>
      </trkpt>
      <trkpt lat="34.72595169" lon="135.10886027">
        <ele>310.91</ele>
        <time>2026-10-08T02:44:40Z</time>
      </trkpt>
      <trkpt lat="34.72585914" lon="135.10887161">
        <ele>309.82</ele>
        <time>2026-10-08T02:44:52Z</time>
      </trkpt>
      <trkpt lat="34.72577015" lon="135.10883776">
        <ele>310.06</ele>
        <time>2026-10-08T02:45:16Z</time>
      </trkpt>
      <trkpt lat="34.72569242" lon="135.10876446">
        <ele>310.81</ele>
        <time>2026-10-08T02:45:29Z</time>
      </trkpt>
      <trkpt lat="34.7256251" lon="135.10869127">
        <ele>310.47</ele>
        <time>2026-10-08T02:45:39Z</time>
      </trkpt>
      <trkpt lat="34.72559174" lon="135.10857853">
        <ele>308.65</ele>
        <time>2026-10-08T02:45:51Z</time>
      </trkpt>
      <trkpt lat="34.72563518" lon="135.10846024">
        <ele>308.55</ele>
        <time>2026-10-08T02:46:04Z</time>
      </trkpt>
      <trkpt lat="34.72567419" lon="135.10836096">
        <ele>308.18</ele>
        <time>2026-10-08T02:46:16Z</time>
      </trkpt>
      <trkpt lat="34.7257046" lon="135.10824466">
        <ele>307.59</ele>
        <time>2026-10-08T02:46:29Z</time>
      </trkpt>
      <trkpt lat="34.72575653" lon="135.10814729">
        <ele>306</ele>
        <time>2026-10-08T02:46:42Z</time>
      </trkpt>
      <trkpt lat="34.72584989" lon="135.10815374">
        <ele>304.08</ele>
        <time>2026-10-08T02:46:54Z</time>
      </trkpt>
      <trkpt lat="34.72594618" lon="135.10815905">
        <ele>302.96</ele>
        <time>2026-10-08T02:47:05Z</time>
      </trkpt>
      <trkpt lat="34.7260381" lon="135.10817195">
        <ele>302.62</ele>
        <time>2026-10-08T02:47:17Z</time>
      </trkpt>
      <trkpt lat="34.72611621" lon="135.10822871">
        <ele>303.49</ele>
        <time>2026-10-08T02:47:54Z</time>
      </trkpt>
      <trkpt lat="34.72618061" lon="135.10831155">
        <ele>304.03</ele>
        <time>2026-10-08T02:48:09Z</time>
      </trkpt>
      <trkpt lat="34.72623043" lon="135.10840323">
        <ele>305.08</ele>
        <time>2026-10-08T02:48:21Z</time>
      </trkpt>
      <trkpt lat="34.72630136" lon="135.10847653">
        <ele>304.3</ele>
        <time>2026-10-08T02:48:34Z</time>
      </trkpt>
      <trkpt lat="34.72639901" lon="135.10847204">
        <ele>302.62</ele>
        <time>2026-10-08T02:48:50Z</time>
      </trkpt>
      <trkpt lat="34.7264835" lon="135.1084297">
        <ele>300.97</ele>
        <time>2026-10-08T02:49:01Z</time>
      </trkpt>
      <trkpt lat="34.72657505" lon="135.10841032">
        <ele>300.68</ele>
        <time>2026-10-08T02:49:49Z</time>
      </trkpt>
      <trkpt lat="34.72667037" lon="135.10839266">
        <ele>299.31</ele>
        <time>2026-10-08T02:50:08Z</time>
      </trkpt>
      <trkpt lat="34.72676735" lon="135.10839622">
        <ele>295.57</ele>
        <time>2026-10-08T02:50:21Z</time>
      </trkpt>
      <trkpt lat="34.72683978" lon="135.10831994">
        <ele>294.64</ele>
        <time>2026-10-08T02:50:33Z</time>
      </trkpt>
      <trkpt lat="34.72693309" lon="135.10830006">
        <ele>293.44</ele>
        <time>2026-10-08T02:50:45Z</time>
      </trkpt>
      <trkpt lat="34.72702952" lon="135.10829137">
        <ele>292.32</ele>
        <time>2026-10-08T02:50:57Z</time>
      </trkpt>
      <trkpt lat="34.72712008" lon="135.10824356">
        <ele>292.07</ele>
        <time>2026-10-08T02:51:08Z</time>
      </trkpt>
      <trkpt lat="34.72717322" lon="135.1081534">
        <ele>292.23</ele>
        <time>2026-10-08T02:51:19Z</time>
      </trkpt>
      <trkpt lat="34.72720337" lon="135.10804391">
        <ele>293.85</ele>
        <time>2026-10-08T02:51:29Z</time>
      </trkpt>
      <trkpt lat="34.72724429" lon="135.10794388">
        <ele>293.74</ele>
        <time>2026-10-08T02:51:40Z</time>
      </trkpt>
      <trkpt lat="34.72728959" lon="135.10784921">
        <ele>292.61</ele>
        <time>2026-10-08T02:51:51Z</time>
      </trkpt>
      <trkpt lat="34.72733164" lon="135.10774689">
        <ele>292.8</ele>
        <time>2026-10-08T02:52:02Z</time>
      </trkpt>
      <trkpt lat="34.7274093" lon="135.10767727">
        <ele>292.39</ele>
        <time>2026-10-08T02:52:14Z</time>
      </trkpt>
      <trkpt lat="34.72750609" lon="135.10766035">
        <ele>291.32</ele>
        <time>2026-10-08T02:52:26Z</time>
      </trkpt>
      <trkpt lat="34.72760428" lon="135.10767461">
        <ele>289.03</ele>
        <time>2026-10-08T02:52:39Z</time>
      </trkpt>
      <trkpt lat="34.72765542" lon="135.10773811">
        <ele>282.31</ele>
        <time>2026-10-08T02:54:40Z</time>
      </trkpt>
      <trkpt lat="34.72766009" lon="135.10773534">
        <ele>282.23</ele>
        <time>2026-10-08T02:56:41Z</time>
      </trkpt>
      <trkpt lat="34.72766451" lon="135.10773699">
        <ele>282.1</ele>
        <time>2026-10-08T03:00:36Z</time>
      </trkpt>
      <trkpt lat="34.72767205" lon="135.10773707">
        <ele>282.15</ele>
        <time>2026-10-08T03:02:37Z</time>
      </trkpt>
      <trkpt lat="34.72767623" lon="135.10773608">
        <ele>281.87</ele>
        <time>2026-10-08T03:04:38Z</time>
      </trkpt>
      <trkpt lat="34.72767589" lon="135.10773842">
        <ele>281.31</ele>
        <time>2026-10-08T03:06:39Z</time>
      </trkpt>
      <trkpt lat="34.72767976" lon="135.10773997">
        <ele>280.06</ele>
        <time>2026-10-08T03:08:40Z</time>
      </trkpt>
      <trkpt lat="34.72768237" lon="135.10774288">
        <ele>279.84</ele>
        <time>2026-10-08T03:10:41Z</time>
      </trkpt>
      <trkpt lat="34.72768614" lon="135.10774337">
        <ele>278.54</ele>
        <time>2026-10-08T03:12:42Z</time>
      </trkpt>
      <trkpt lat="34.72768567" lon="135.10775412">
        <ele>274.07</ele>
        <time>2026-10-08T03:14:43Z</time>
      </trkpt>
      <trkpt lat="34.72767089" lon="135.10778008">
        <ele>270.83</ele>
        <time>2026-10-08T03:16:44Z</time>
      </trkpt>
      <trkpt lat="34.72768576" lon="135.10777464">
        <ele>270.47</ele>
        <time>2026-10-08T03:18:45Z</time>
      </trkpt>
      <trkpt lat="34.72768881" lon="135.10777449">
        <ele>270.44</ele>
        <time>2026-10-08T03:20:46Z</time>
      </trkpt>
      <trkpt lat="34.72769002" lon="135.10776956">
        <ele>271.52</ele>
        <time>2026-10-08T03:22:47Z</time>
      </trkpt>
      <trkpt lat="34.72775171" lon="135.10778603">
        <ele>279.43</ele>
        <time>2026-10-08T03:24:48Z</time>
      </trkpt>
      <trkpt lat="34.72767204" lon="135.10776484">
        <ele>281.72</ele>
        <time>2026-10-08T03:26:49Z</time>
      </trkpt>
      <trkpt lat="34.72769721" lon="135.10775582">
        <ele>277.73</ele>
        <time>2026-10-08T03:28:50Z</time>
      </trkpt>
      <trkpt lat="34.72768759" lon="135.10763627">
        <ele>282.79</ele>
        <time>2026-10-08T03:30:46Z</time>
      </trkpt>
      <trkpt lat="34.72767475" lon="135.10752508">
        <ele>284.04</ele>
        <time>2026-10-08T03:30:56Z</time>
      </trkpt>
      <trkpt lat="34.72766739" lon="135.10741575">
        <ele>286.08</ele>
        <time>2026-10-08T03:32:21Z</time>
      </trkpt>
      <trkpt lat="34.72768888" lon="135.1073043">
        <ele>283.95</ele>
        <time>2026-10-08T03:33:12Z</time>
      </trkpt>
      <trkpt lat="34.72773358" lon="135.10720288">
        <ele>283.37</ele>
        <time>2026-10-08T03:33:24Z</time>
      </trkpt>
      <trkpt lat="34.72781453" lon="135.10713305">
        <ele>282.35</ele>
        <time>2026-10-08T03:33:38Z</time>
      </trkpt>
      <trkpt lat="34.7278264" lon="135.10701714">
        <ele>280.84</ele>
        <time>2026-10-08T03:34:28Z</time>
      </trkpt>
      <trkpt lat="34.72789605" lon="135.10694512">
        <ele>282.66</ele>
        <time>2026-10-08T03:34:38Z</time>
      </trkpt>
      <trkpt lat="34.72791731" lon="135.10682798">
        <ele>282.7</ele>
        <time>2026-10-08T03:34:50Z</time>
      </trkpt>
      <trkpt lat="34.72789326" lon="135.10672086">
        <ele>282.92</ele>
        <time>2026-10-08T03:34:58Z</time>
      </trkpt>
      <trkpt lat="34.72787966" lon="135.10661244">
        <ele>284.75</ele>
        <time>2026-10-08T03:35:08Z</time>
      </trkpt>
      <trkpt lat="34.72790248" lon="135.10648483">
        <ele>282.04</ele>
        <time>2026-10-08T03:35:22Z</time>
      </trkpt>
      <trkpt lat="34.72790652" lon="135.10637154">
        <ele>284.7</ele>
        <time>2026-10-08T03:35:33Z</time>
      </trkpt>
      <trkpt lat="34.72792322" lon="135.10626162">
        <ele>282.74</ele>
        <time>2026-10-08T03:35:47Z</time>
      </trkpt>
      <trkpt lat="34.72795673" lon="135.10614925">
        <ele>279.3</ele>
        <time>2026-10-08T03:35:59Z</time>
      </trkpt>
      <trkpt lat="34.7278879" lon="135.10605951">
        <ele>276.02</ele>
        <time>2026-10-08T03:36:16Z</time>
      </trkpt>
      <trkpt lat="34.72781354" lon="135.10599188">
        <ele>274.78</ele>
        <time>2026-10-08T03:36:27Z</time>
      </trkpt>
      <trkpt lat="34.7277444" lon="135.10591025">
        <ele>275.19</ele>
        <time>2026-10-08T03:36:38Z</time>
      </trkpt>
      <trkpt lat="34.72766553" lon="135.10583694">
        <ele>277.79</ele>
        <time>2026-10-08T03:36:47Z</time>
      </trkpt>
      <trkpt lat="34.72759717" lon="135.10576419">
        <ele>278.47</ele>
        <time>2026-10-08T03:36:56Z</time>
      </trkpt>
      <trkpt lat="34.7275197" lon="135.10570262">
        <ele>277.37</ele>
        <time>2026-10-08T03:37:06Z</time>
      </trkpt>
      <trkpt lat="34.72746698" lon="135.10559151">
        <ele>275.06</ele>
        <time>2026-10-08T03:37:17Z</time>
      </trkpt>
      <trkpt lat="34.72739629" lon="135.10551124">
        <ele>274.85</ele>
        <time>2026-10-08T03:37:28Z</time>
      </trkpt>
      <trkpt lat="34.72731675" lon="135.10544898">
        <ele>274.88</ele>
        <time>2026-10-08T03:37:42Z</time>
      </trkpt>
      <trkpt lat="34.72725877" lon="135.10536474">
        <ele>275.33</ele>
        <time>2026-10-08T03:37:53Z</time>
      </trkpt>
      <trkpt lat="34.72723234" lon="135.10525491">
        <ele>276.86</ele>
        <time>2026-10-08T03:39:20Z</time>
      </trkpt>
      <trkpt lat="34.72727144" lon="135.10515042">
        <ele>276.5</ele>
        <time>2026-10-08T03:39:31Z</time>
      </trkpt>
      <trkpt lat="34.72735103" lon="135.1050896">
        <ele>277.31</ele>
        <time>2026-10-08T03:39:43Z</time>
      </trkpt>
      <trkpt lat="34.72744793" lon="135.10507953">
        <ele>276.23</ele>
        <time>2026-10-08T03:39:56Z</time>
      </trkpt>
      <trkpt lat="34.72753762" lon="135.10510531">
        <ele>274.59</ele>
        <time>2026-10-08T03:40:06Z</time>
      </trkpt>
      <trkpt lat="34.72763218" lon="135.10512749">
        <ele>273.74</ele>
        <time>2026-10-08T03:40:17Z</time>
      </trkpt>
      <trkpt lat="34.72772241" lon="135.10514811">
        <ele>271.71</ele>
        <time>2026-10-08T03:40:28Z</time>
      </trkpt>
      <trkpt lat="34.72782036" lon="135.10514033">
        <ele>269.53</ele>
        <time>2026-10-08T03:40:39Z</time>
      </trkpt>
      <trkpt lat="34.72791342" lon="135.10512393">
        <ele>268.57</ele>
        <time>2026-10-08T03:40:49Z</time>
      </trkpt>
      <trkpt lat="34.72801174" lon="135.10511126">
        <ele>268.47</ele>
        <time>2026-10-08T03:41:00Z</time>
      </trkpt>
      <trkpt lat="34.72806677" lon="135.1050185">
        <ele>270.63</ele>
        <time>2026-10-08T03:41:11Z</time>
      </trkpt>
      <trkpt lat="34.7280596" lon="135.10490689">
        <ele>271.9</ele>
        <time>2026-10-08T03:41:20Z</time>
      </trkpt>
      <trkpt lat="34.72803129" lon="135.1048022">
        <ele>271.7</ele>
        <time>2026-10-08T03:41:35Z</time>
      </trkpt>
      <trkpt lat="34.72796107" lon="135.1046993">
        <ele>270.87</ele>
        <time>2026-10-08T03:41:53Z</time>
      </trkpt>
      <trkpt lat="34.72792742" lon="135.1045961">
        <ele>269.45</ele>
        <time>2026-10-08T03:42:10Z</time>
      </trkpt>
      <trkpt lat="34.72791517" lon="135.10448655">
        <ele>268.59</ele>
        <time>2026-10-08T03:42:20Z</time>
      </trkpt>
      <trkpt lat="34.72791311" lon="135.10437371">
        <ele>269.11</ele>
        <time>2026-10-08T03:42:39Z</time>
      </trkpt>
      <trkpt lat="34.7279256" lon="135.10426288">
        <ele>270.9</ele>
        <time>2026-10-08T03:42:52Z</time>
      </trkpt>
      <trkpt lat="34.72794846" lon="135.1041528">
        <ele>271.08</ele>
        <time>2026-10-08T03:43:08Z</time>
      </trkpt>
      <trkpt lat="34.72800997" lon="135.10405918">
        <ele>271.68</ele>
        <time>2026-10-08T03:43:20Z</time>
      </trkpt>
      <trkpt lat="34.72805034" lon="135.10395753">
        <ele>274.93</ele>
        <time>2026-10-08T03:43:50Z</time>
      </trkpt>
      <trkpt lat="34.7281346" lon="135.10389745">
        <ele>274.02</ele>
        <time>2026-10-08T03:44:00Z</time>
      </trkpt>
      <trkpt lat="34.7282158" lon="135.10384874">
        <ele>274.26</ele>
        <time>2026-10-08T03:44:09Z</time>
      </trkpt>
      <trkpt lat="34.72830356" lon="135.10378504">
        <ele>274.35</ele>
        <time>2026-10-08T03:44:20Z</time>
      </trkpt>
      <trkpt lat="34.72838726" lon="135.10373727">
        <ele>273.28</ele>
        <time>2026-10-08T03:44:30Z</time>
      </trkpt>
      <trkpt lat="34.72847494" lon="135.10367737">
        <ele>273.33</ele>
        <time>2026-10-08T03:44:41Z</time>
      </trkpt>
      <trkpt lat="34.72855687" lon="135.1036245">
        <ele>273.91</ele>
        <time>2026-10-08T03:44:53Z</time>
      </trkpt>
      <trkpt lat="34.72864089" lon="135.10356844">
        <ele>274.49</ele>
        <time>2026-10-08T03:45:10Z</time>
      </trkpt>
      <trkpt lat="34.72863537" lon="135.10345928">
        <ele>274.1</ele>
        <time>2026-10-08T03:45:25Z</time>
      </trkpt>
      <trkpt lat="34.72869281" lon="135.10354407">
        <ele>272.17</ele>
        <time>2026-10-08T03:46:40Z</time>
      </trkpt>
      <trkpt lat="34.72878312" lon="135.10353705">
        <ele>271.24</ele>
        <time>2026-10-08T03:46:53Z</time>
      </trkpt>
      <trkpt lat="34.72884416" lon="135.1034561">
        <ele>273.78</ele>
        <time>2026-10-08T03:47:29Z</time>
      </trkpt>
      <trkpt lat="34.72893147" lon="135.10342537">
        <ele>272.83</ele>
        <time>2026-10-08T03:48:03Z</time>
      </trkpt>
      <trkpt lat="34.72887024" lon="135.10333389">
        <ele>272.06</ele>
        <time>2026-10-08T03:48:56Z</time>
      </trkpt>
      <trkpt lat="34.72893288" lon="135.10342232">
        <ele>270.94</ele>
        <time>2026-10-08T03:49:46Z</time>
      </trkpt>
      <trkpt lat="34.72899513" lon="135.1035089">
        <ele>271.52</ele>
        <time>2026-10-08T03:49:57Z</time>
      </trkpt>
      <trkpt lat="34.72906489" lon="135.10359015">
        <ele>271.17</ele>
        <time>2026-10-08T03:50:08Z</time>
      </trkpt>
      <trkpt lat="34.72914141" lon="135.10365251">
        <ele>270.95</ele>
        <time>2026-10-08T03:50:20Z</time>
      </trkpt>
      <trkpt lat="34.72922517" lon="135.10370246">
        <ele>273.22</ele>
        <time>2026-10-08T03:50:31Z</time>
      </trkpt>
      <trkpt lat="34.72931796" lon="135.1037472">
        <ele>274.84</ele>
        <time>2026-10-08T03:50:41Z</time>
      </trkpt>
      <trkpt lat="34.72942967" lon="135.10380537">
        <ele>275.76</ele>
        <time>2026-10-08T03:50:53Z</time>
      </trkpt>
      <trkpt lat="34.72951917" lon="135.1038553">
        <ele>276.91</ele>
        <time>2026-10-08T03:51:03Z</time>
      </trkpt>
      <trkpt lat="34.72960147" lon="135.10390033">
        <ele>277.28</ele>
        <time>2026-10-08T03:51:13Z</time>
      </trkpt>
      <trkpt lat="34.7296946" lon="135.10397972">
        <ele>277.66</ele>
        <time>2026-10-08T03:51:57Z</time>
      </trkpt>
      <trkpt lat="34.7297774" lon="135.10403917">
        <ele>277.99</ele>
        <time>2026-10-08T03:52:08Z</time>
      </trkpt>
      <trkpt lat="34.72984741" lon="135.10411338">
        <ele>276.86</ele>
        <time>2026-10-08T03:52:20Z</time>
      </trkpt>
      <trkpt lat="34.7298791" lon="135.10422409">
        <ele>275.06</ele>
        <time>2026-10-08T03:52:32Z</time>
      </trkpt>
      <trkpt lat="34.72993673" lon="135.10432282">
        <ele>275.28</ele>
        <time>2026-10-08T03:52:43Z</time>
      </trkpt>
      <trkpt lat="34.72998394" lon="135.10442315">
        <ele>275.31</ele>
        <time>2026-10-08T03:52:53Z</time>
      </trkpt>
      <trkpt lat="34.73003418" lon="135.10451765">
        <ele>275.55</ele>
        <time>2026-10-08T03:53:04Z</time>
      </trkpt>
      <trkpt lat="34.73008074" lon="135.10461696">
        <ele>275.16</ele>
        <time>2026-10-08T03:53:16Z</time>
      </trkpt>
      <trkpt lat="34.73012649" lon="135.10471935">
        <ele>275.4</ele>
        <time>2026-10-08T03:53:27Z</time>
      </trkpt>
      <trkpt lat="34.73019286" lon="135.10481073">
        <ele>277.79</ele>
        <time>2026-10-08T03:53:36Z</time>
      </trkpt>
      <trkpt lat="34.73026185" lon="135.10491427">
        <ele>277.51</ele>
        <time>2026-10-08T03:53:49Z</time>
      </trkpt>
      <trkpt lat="34.73030279" lon="135.10501314">
        <ele>278.71</ele>
        <time>2026-10-08T03:53:59Z</time>
      </trkpt>
      <trkpt lat="34.73035291" lon="135.10510438">
        <ele>279.15</ele>
        <time>2026-10-08T03:54:09Z</time>
      </trkpt>
      <trkpt lat="34.73039598" lon="135.10521793">
        <ele>282</ele>
        <time>2026-10-08T03:54:20Z</time>
      </trkpt>
      <trkpt lat="34.73044548" lon="135.10531808">
        <ele>287.55</ele>
        <time>2026-10-08T03:54:30Z</time>
      </trkpt>
      <trkpt lat="34.73049131" lon="135.10541361">
        <ele>286.15</ele>
        <time>2026-10-08T03:54:40Z</time>
      </trkpt>
      <trkpt lat="34.73053185" lon="135.10552169">
        <ele>284.86</ele>
        <time>2026-10-08T03:54:53Z</time>
      </trkpt>
      <trkpt lat="34.73059248" lon="135.1056246">
        <ele>289.03</ele>
        <time>2026-10-08T03:55:12Z</time>
      </trkpt>
      <trkpt lat="34.73063885" lon="135.10572281">
        <ele>289.8</ele>
        <time>2026-10-08T03:55:22Z</time>
      </trkpt>
      <trkpt lat="34.73067342" lon="135.10582639">
        <ele>289.54</ele>
        <time>2026-10-08T03:55:33Z</time>
      </trkpt>
      <trkpt lat="34.7307358" lon="135.10590929">
        <ele>285.36</ele>
        <time>2026-10-08T03:55:47Z</time>
      </trkpt>
      <trkpt lat="34.73070326" lon="135.10602185">
        <ele>285.83</ele>
        <time>2026-10-08T03:56:02Z</time>
      </trkpt>
      <trkpt lat="34.73065718" lon="135.10612102">
        <ele>287.54</ele>
        <time>2026-10-08T03:56:15Z</time>
      </trkpt>
      <trkpt lat="34.7306337" lon="135.10623404">
        <ele>289.18</ele>
        <time>2026-10-08T03:56:27Z</time>
      </trkpt>
      <trkpt lat="34.73063144" lon="135.1063472">
        <ele>289.46</ele>
        <time>2026-10-08T03:56:37Z</time>
      </trkpt>
      <trkpt lat="34.7306409" lon="135.10645871">
        <ele>290.15</ele>
        <time>2026-10-08T03:56:47Z</time>
      </trkpt>
      <trkpt lat="34.73066582" lon="135.10657502">
        <ele>289.46</ele>
        <time>2026-10-08T03:56:58Z</time>
      </trkpt>
      <trkpt lat="34.7307019" lon="135.10667781">
        <ele>288.46</ele>
        <time>2026-10-08T03:57:11Z</time>
      </trkpt>
      <trkpt lat="34.73073427" lon="135.10678963">
        <ele>290.26</ele>
        <time>2026-10-08T03:57:24Z</time>
      </trkpt>
      <trkpt lat="34.73072522" lon="135.10690029">
        <ele>291.26</ele>
        <time>2026-10-08T03:57:35Z</time>
      </trkpt>
      <trkpt lat="34.73065594" lon="135.10697809">
        <ele>293.32</ele>
        <time>2026-10-08T03:57:45Z</time>
      </trkpt>
      <trkpt lat="34.73057984" lon="135.10703937">
        <ele>295.21</ele>
        <time>2026-10-08T03:57:56Z</time>
      </trkpt>
      <trkpt lat="34.73049251" lon="135.10707855">
        <ele>296.95</ele>
        <time>2026-10-08T03:58:07Z</time>
      </trkpt>
      <trkpt lat="34.73039995" lon="135.10706839">
        <ele>297.96</ele>
        <time>2026-10-08T03:58:19Z</time>
      </trkpt>
      <trkpt lat="34.73030874" lon="135.10710809">
        <ele>297.91</ele>
        <time>2026-10-08T03:58:30Z</time>
      </trkpt>
      <trkpt lat="34.7302135" lon="135.10715192">
        <ele>297.48</ele>
        <time>2026-10-08T03:58:41Z</time>
      </trkpt>
      <trkpt lat="34.73012019" lon="135.10715915">
        <ele>296.19</ele>
        <time>2026-10-08T03:58:51Z</time>
      </trkpt>
      <trkpt lat="34.73003472" lon="135.10707632">
        <ele>297.21</ele>
        <time>2026-10-08T03:59:02Z</time>
      </trkpt>
      <trkpt lat="34.72998146" lon="135.10698123">
        <ele>298.93</ele>
        <time>2026-10-08T03:59:12Z</time>
      </trkpt>
      <trkpt lat="34.72989643" lon="135.10693453">
        <ele>300.33</ele>
        <time>2026-10-08T03:59:24Z</time>
      </trkpt>
      <trkpt lat="34.72981243" lon="135.10699104">
        <ele>302.62</ele>
        <time>2026-10-08T03:59:52Z</time>
      </trkpt>
      <trkpt lat="34.72974825" lon="135.10708197">
        <ele>303.06</ele>
        <time>2026-10-08T04:00:03Z</time>
      </trkpt>
      <trkpt lat="34.72972907" lon="135.10721288">
        <ele>303.69</ele>
        <time>2026-10-08T04:00:16Z</time>
      </trkpt>
      <trkpt lat="34.7297407" lon="135.10732233">
        <ele>304.6</ele>
        <time>2026-10-08T04:00:28Z</time>
      </trkpt>
      <trkpt lat="34.72967135" lon="135.10740252">
        <ele>306.33</ele>
        <time>2026-10-08T04:00:50Z</time>
      </trkpt>
      <trkpt lat="34.7295739" lon="135.10740539">
        <ele>306.78</ele>
        <time>2026-10-08T04:01:13Z</time>
      </trkpt>
      <trkpt lat="34.7294791" lon="135.10738504">
        <ele>307.49</ele>
        <time>2026-10-08T04:01:25Z</time>
      </trkpt>
      <trkpt lat="34.72940216" lon="135.10745063">
        <ele>309.46</ele>
        <time>2026-10-08T04:01:37Z</time>
      </trkpt>
      <trkpt lat="34.72939833" lon="135.10756007">
        <ele>309.75</ele>
        <time>2026-10-08T04:01:49Z</time>
      </trkpt>
      <trkpt lat="34.72945775" lon="135.10764392">
        <ele>309.36</ele>
        <time>2026-10-08T04:02:01Z</time>
      </trkpt>
      <trkpt lat="34.72954933" lon="135.10767793">
        <ele>309.69</ele>
        <time>2026-10-08T04:02:12Z</time>
      </trkpt>
      <trkpt lat="34.72965114" lon="135.1076957">
        <ele>309.83</ele>
        <time>2026-10-08T04:02:24Z</time>
      </trkpt>
      <trkpt lat="34.72972453" lon="135.10777007">
        <ele>310.05</ele>
        <time>2026-10-08T04:02:35Z</time>
      </trkpt>
      <trkpt lat="34.72974546" lon="135.10787786">
        <ele>310.32</ele>
        <time>2026-10-08T04:02:47Z</time>
      </trkpt>
      <trkpt lat="34.72966463" lon="135.10793118">
        <ele>309.76</ele>
        <time>2026-10-08T04:03:02Z</time>
      </trkpt>
      <trkpt lat="34.72959346" lon="135.10800905">
        <ele>312.61</ele>
        <time>2026-10-08T04:03:28Z</time>
      </trkpt>
      <trkpt lat="34.72950123" lon="135.108022">
        <ele>315.96</ele>
        <time>2026-10-08T04:03:39Z</time>
      </trkpt>
      <trkpt lat="34.72942545" lon="135.1080844">
        <ele>317.48</ele>
        <time>2026-10-08T04:03:49Z</time>
      </trkpt>
      <trkpt lat="34.72933782" lon="135.10813531">
        <ele>317.69</ele>
        <time>2026-10-08T04:03:59Z</time>
      </trkpt>
      <trkpt lat="34.72924737" lon="135.10814544">
        <ele>320.45</ele>
        <time>2026-10-08T04:04:09Z</time>
      </trkpt>
      <trkpt lat="34.7291547" lon="135.108167">
        <ele>322.03</ele>
        <time>2026-10-08T04:04:20Z</time>
      </trkpt>
      <trkpt lat="34.72907815" lon="135.10823393">
        <ele>321.51</ele>
        <time>2026-10-08T04:04:40Z</time>
      </trkpt>
      <trkpt lat="34.72905178" lon="135.10833906">
        <ele>320.17</ele>
        <time>2026-10-08T04:04:51Z</time>
      </trkpt>
      <trkpt lat="34.72907158" lon="135.10844603">
        <ele>319.54</ele>
        <time>2026-10-08T04:05:29Z</time>
      </trkpt>
      <trkpt lat="34.72914716" lon="135.10851079">
        <ele>322.38</ele>
        <time>2026-10-08T04:05:44Z</time>
      </trkpt>
      <trkpt lat="34.72914516" lon="135.10862238">
        <ele>322.1</ele>
        <time>2026-10-08T04:05:57Z</time>
      </trkpt>
      <trkpt lat="34.72922552" lon="135.10869238">
        <ele>322.41</ele>
        <time>2026-10-08T04:06:08Z</time>
      </trkpt>
      <trkpt lat="34.72931061" lon="135.10874083">
        <ele>322.25</ele>
        <time>2026-10-08T04:06:17Z</time>
      </trkpt>
      <trkpt lat="34.7293636" lon="135.10883178">
        <ele>320.4</ele>
        <time>2026-10-08T04:06:26Z</time>
      </trkpt>
      <trkpt lat="34.72939045" lon="135.10893777">
        <ele>320.36</ele>
        <time>2026-10-08T04:06:38Z</time>
      </trkpt>
      <trkpt lat="34.72948155" lon="135.10896147">
        <ele>322.56</ele>
        <time>2026-10-08T04:06:47Z</time>
      </trkpt>
      <trkpt lat="34.72942603" lon="135.10885817">
        <ele>328.63</ele>
        <time>2026-10-08T04:08:05Z</time>
      </trkpt>
      <trkpt lat="34.7293673" lon="135.10872888">
        <ele>328.53</ele>
        <time>2026-10-08T04:08:16Z</time>
      </trkpt>
      <trkpt lat="34.72925775" lon="135.10867675">
        <ele>324.6</ele>
        <time>2026-10-08T04:08:28Z</time>
      </trkpt>
      <trkpt lat="34.72916534" lon="135.10866364">
        <ele>324.58</ele>
        <time>2026-10-08T04:08:37Z</time>
      </trkpt>
      <trkpt lat="34.72906667" lon="135.10866711">
        <ele>326.16</ele>
        <time>2026-10-08T04:08:47Z</time>
      </trkpt>
      <trkpt lat="34.72899353" lon="135.1087312">
        <ele>326.56</ele>
        <time>2026-10-08T04:08:56Z</time>
      </trkpt>
      <trkpt lat="34.72889883" lon="135.10879744">
        <ele>327.3</ele>
        <time>2026-10-08T04:09:07Z</time>
      </trkpt>
      <trkpt lat="34.72883676" lon="135.10887958">
        <ele>327.59</ele>
        <time>2026-10-08T04:09:16Z</time>
      </trkpt>
      <trkpt lat="34.72877897" lon="135.10897261">
        <ele>328.09</ele>
        <time>2026-10-08T04:09:26Z</time>
      </trkpt>
      <trkpt lat="34.72870541" lon="135.10903661">
        <ele>323.77</ele>
        <time>2026-10-08T04:09:43Z</time>
      </trkpt>
      <trkpt lat="34.72868006" lon="135.10905368">
        <ele>322.84</ele>
        <time>2026-10-08T04:11:44Z</time>
      </trkpt>
      <trkpt lat="34.72868244" lon="135.1090498">
        <ele>322.41</ele>
        <time>2026-10-08T04:13:45Z</time>
      </trkpt>
      <trkpt lat="34.72868813" lon="135.1090586">
        <ele>322.37</ele>
        <time>2026-10-08T04:17:31Z</time>
      </trkpt>
      <trkpt lat="34.72869488" lon="135.10907068">
        <ele>323.22</ele>
        <time>2026-10-08T04:19:32Z</time>
      </trkpt>
      <trkpt lat="34.72866702" lon="135.10904094">
        <ele>319.99</ele>
        <time>2026-10-08T04:21:34Z</time>
      </trkpt>
      <trkpt lat="34.72866586" lon="135.10904282">
        <ele>320.23</ele>
        <time>2026-10-08T04:23:35Z</time>
      </trkpt>
      <trkpt lat="34.72877107" lon="135.10908231">
        <ele>319.17</ele>
        <time>2026-10-08T04:25:25Z</time>
      </trkpt>
      <trkpt lat="34.7288423" lon="135.10915603">
        <ele>319.55</ele>
        <time>2026-10-08T04:25:37Z</time>
      </trkpt>
      <trkpt lat="34.72893026" lon="135.10919076">
        <ele>319.69</ele>
        <time>2026-10-08T04:25:52Z</time>
      </trkpt>
      <trkpt lat="34.72900716" lon="135.10925986">
        <ele>320.46</ele>
        <time>2026-10-08T04:26:02Z</time>
      </trkpt>
      <trkpt lat="34.72909472" lon="135.10928985">
        <ele>321.36</ele>
        <time>2026-10-08T04:26:12Z</time>
      </trkpt>
      <trkpt lat="34.72917556" lon="135.10935809">
        <ele>322.31</ele>
        <time>2026-10-08T04:26:23Z</time>
      </trkpt>
      <trkpt lat="34.72924396" lon="135.10943395">
        <ele>323.47</ele>
        <time>2026-10-08T04:26:33Z</time>
      </trkpt>
      <trkpt lat="34.72932332" lon="135.10949329">
        <ele>323.21</ele>
        <time>2026-10-08T04:26:45Z</time>
      </trkpt>
      <trkpt lat="34.72940922" lon="135.10954044">
        <ele>321.94</ele>
        <time>2026-10-08T04:26:57Z</time>
      </trkpt>
      <trkpt lat="34.72949925" lon="135.10952143">
        <ele>321.23</ele>
        <time>2026-10-08T04:27:11Z</time>
      </trkpt>
      <trkpt lat="34.72952238" lon="135.10940467">
        <ele>321.14</ele>
        <time>2026-10-08T04:27:22Z</time>
      </trkpt>
      <trkpt lat="34.72956381" lon="135.10951033">
        <ele>321.24</ele>
        <time>2026-10-08T04:28:14Z</time>
      </trkpt>
      <trkpt lat="34.72965039" lon="135.10955098">
        <ele>320.25</ele>
        <time>2026-10-08T04:28:25Z</time>
      </trkpt>
      <trkpt lat="34.7297429" lon="135.10959165">
        <ele>319.56</ele>
        <time>2026-10-08T04:28:38Z</time>
      </trkpt>
      <trkpt lat="34.72981798" lon="135.10965238">
        <ele>318.61</ele>
        <time>2026-10-08T04:28:47Z</time>
      </trkpt>
      <trkpt lat="34.72991055" lon="135.10963877">
        <ele>318.48</ele>
        <time>2026-10-08T04:28:56Z</time>
      </trkpt>
      <trkpt lat="34.73000009" lon="135.10962427">
        <ele>318.11</ele>
        <time>2026-10-08T04:29:04Z</time>
      </trkpt>
      <trkpt lat="34.73008945" lon="135.10959773">
        <ele>318.39</ele>
        <time>2026-10-08T04:29:14Z</time>
      </trkpt>
      <trkpt lat="34.73016981" lon="135.10952764">
        <ele>319.2</ele>
        <time>2026-10-08T04:29:24Z</time>
      </trkpt>
      <trkpt lat="34.7302514" lon="135.10947752">
        <ele>320.56</ele>
        <time>2026-10-08T04:29:34Z</time>
      </trkpt>
      <trkpt lat="34.73034461" lon="135.10949122">
        <ele>320.64</ele>
        <time>2026-10-08T04:29:44Z</time>
      </trkpt>
      <trkpt lat="34.73039211" lon="135.10958756">
        <ele>320.97</ele>
        <time>2026-10-08T04:30:10Z</time>
      </trkpt>
      <trkpt lat="34.73041282" lon="135.10969964">
        <ele>317.9</ele>
        <time>2026-10-08T04:30:22Z</time>
      </trkpt>
      <trkpt lat="34.7304187" lon="135.10983169">
        <ele>316.15</ele>
        <time>2026-10-08T04:30:34Z</time>
      </trkpt>
      <trkpt lat="34.73042046" lon="135.10995034">
        <ele>314.85</ele>
        <time>2026-10-08T04:30:46Z</time>
      </trkpt>
      <trkpt lat="34.73046655" lon="135.11005259">
        <ele>316.46</ele>
        <time>2026-10-08T04:30:54Z</time>
      </trkpt>
      <trkpt lat="34.73055331" lon="135.11012799">
        <ele>317.9</ele>
        <time>2026-10-08T04:31:04Z</time>
      </trkpt>
      <trkpt lat="34.7305984" lon="135.11023349">
        <ele>321.74</ele>
        <time>2026-10-08T04:31:15Z</time>
      </trkpt>
      <trkpt lat="34.73057427" lon="135.1103445">
        <ele>318.83</ele>
        <time>2026-10-08T04:31:27Z</time>
      </trkpt>
      <trkpt lat="34.73053694" lon="135.11045044">
        <ele>315.04</ele>
        <time>2026-10-08T04:31:39Z</time>
      </trkpt>
      <trkpt lat="34.73053915" lon="135.11056464">
        <ele>314.36</ele>
        <time>2026-10-08T04:31:50Z</time>
      </trkpt>
      <trkpt lat="34.7306268" lon="135.11059566">
        <ele>315.39</ele>
        <time>2026-10-08T04:32:01Z</time>
      </trkpt>
      <trkpt lat="34.73069317" lon="135.11067239">
        <ele>317.02</ele>
        <time>2026-10-08T04:32:11Z</time>
      </trkpt>
      <trkpt lat="34.73076944" lon="135.11074566">
        <ele>315.05</ele>
        <time>2026-10-08T04:32:23Z</time>
      </trkpt>
      <trkpt lat="34.73085595" lon="135.11078734">
        <ele>313.13</ele>
        <time>2026-10-08T04:32:34Z</time>
      </trkpt>
      <trkpt lat="34.73095028" lon="135.11080479">
        <ele>311.75</ele>
        <time>2026-10-08T04:32:45Z</time>
      </trkpt>
      <trkpt lat="34.73106949" lon="135.1108072">
        <ele>310.07</ele>
        <time>2026-10-08T04:33:01Z</time>
      </trkpt>
      <trkpt lat="34.73116637" lon="135.11078462">
        <ele>311.71</ele>
        <time>2026-10-08T04:33:11Z</time>
      </trkpt>
      <trkpt lat="34.73126149" lon="135.11075928">
        <ele>313.47</ele>
        <time>2026-10-08T04:33:22Z</time>
      </trkpt>
      <trkpt lat="34.73136023" lon="135.11077641">
        <ele>313.81</ele>
        <time>2026-10-08T04:33:33Z</time>
      </trkpt>
      <trkpt lat="34.7314218" lon="135.1108562">
        <ele>313.86</ele>
        <time>2026-10-08T04:33:43Z</time>
      </trkpt>
      <trkpt lat="34.73147738" lon="135.11094745">
        <ele>313.73</ele>
        <time>2026-10-08T04:33:53Z</time>
      </trkpt>
      <trkpt lat="34.73154376" lon="135.1110243">
        <ele>314.25</ele>
        <time>2026-10-08T04:34:03Z</time>
      </trkpt>
      <trkpt lat="34.73158585" lon="135.11113025">
        <ele>311.67</ele>
        <time>2026-10-08T04:34:16Z</time>
      </trkpt>
      <trkpt lat="34.73163807" lon="135.11122074">
        <ele>310.45</ele>
        <time>2026-10-08T04:34:27Z</time>
      </trkpt>
      <trkpt lat="34.7316711" lon="135.1113311">
        <ele>310.26</ele>
        <time>2026-10-08T04:34:38Z</time>
      </trkpt>
      <trkpt lat="34.7316774" lon="135.11144671">
        <ele>309.83</ele>
        <time>2026-10-08T04:34:49Z</time>
      </trkpt>
      <trkpt lat="34.73172293" lon="135.11155274">
        <ele>309.41</ele>
        <time>2026-10-08T04:35:04Z</time>
      </trkpt>
      <trkpt lat="34.73176387" lon="135.11166179">
        <ele>310.15</ele>
        <time>2026-10-08T04:35:15Z</time>
      </trkpt>
      <trkpt lat="34.73178466" lon="135.11177576">
        <ele>310.24</ele>
        <time>2026-10-08T04:35:26Z</time>
      </trkpt>
      <trkpt lat="34.7317923" lon="135.11189321">
        <ele>308.74</ele>
        <time>2026-10-08T04:35:56Z</time>
      </trkpt>
      <trkpt lat="34.73185344" lon="135.11199468">
        <ele>309.17</ele>
        <time>2026-10-08T04:36:07Z</time>
      </trkpt>
      <trkpt lat="34.73186661" lon="135.11211275">
        <ele>309.34</ele>
        <time>2026-10-08T04:36:18Z</time>
      </trkpt>
      <trkpt lat="34.73182148" lon="135.11221466">
        <ele>308.04</ele>
        <time>2026-10-08T04:36:29Z</time>
      </trkpt>
      <trkpt lat="34.73176844" lon="135.11230358">
        <ele>306.74</ele>
        <time>2026-10-08T04:36:39Z</time>
      </trkpt>
      <trkpt lat="34.73177302" lon="135.11242672">
        <ele>305.42</ele>
        <time>2026-10-08T04:36:51Z</time>
      </trkpt>
      <trkpt lat="34.73177859" lon="135.11254739">
        <ele>304.45</ele>
        <time>2026-10-08T04:37:08Z</time>
      </trkpt>
      <trkpt lat="34.73174199" lon="135.11265153">
        <ele>300.37</ele>
        <time>2026-10-08T04:37:24Z</time>
      </trkpt>
      <trkpt lat="34.73180371" lon="135.11273786">
        <ele>299.56</ele>
        <time>2026-10-08T04:37:39Z</time>
      </trkpt>
      <trkpt lat="34.73185638" lon="135.11282782">
        <ele>299.26</ele>
        <time>2026-10-08T04:37:52Z</time>
      </trkpt>
      <trkpt lat="34.73187377" lon="135.11294262">
        <ele>297.35</ele>
        <time>2026-10-08T04:38:06Z</time>
      </trkpt>
      <trkpt lat="34.7318886" lon="135.11305235">
        <ele>297.2</ele>
        <time>2026-10-08T04:38:17Z</time>
      </trkpt>
      <trkpt lat="34.73192105" lon="135.11316532">
        <ele>295.45</ele>
        <time>2026-10-08T04:38:30Z</time>
      </trkpt>
      <trkpt lat="34.73191711" lon="135.11327647">
        <ele>294.39</ele>
        <time>2026-10-08T04:38:40Z</time>
      </trkpt>
      <trkpt lat="34.73187916" lon="135.11339397">
        <ele>293.38</ele>
        <time>2026-10-08T04:38:51Z</time>
      </trkpt>
      <trkpt lat="34.73184008" lon="135.11350313">
        <ele>291.15</ele>
        <time>2026-10-08T04:39:01Z</time>
      </trkpt>
      <trkpt lat="34.73182363" lon="135.11362092">
        <ele>290.3</ele>
        <time>2026-10-08T04:39:13Z</time>
      </trkpt>
      <trkpt lat="34.73186246" lon="135.11373821">
        <ele>291.18</ele>
        <time>2026-10-08T04:39:26Z</time>
      </trkpt>
      <trkpt lat="34.73189806" lon="135.11384166">
        <ele>288.52</ele>
        <time>2026-10-08T04:39:38Z</time>
      </trkpt>
      <trkpt lat="34.73195145" lon="135.11394676">
        <ele>287.45</ele>
        <time>2026-10-08T04:39:52Z</time>
      </trkpt>
      <trkpt lat="34.73201936" lon="135.11402578">
        <ele>283.51</ele>
        <time>2026-10-08T04:40:07Z</time>
      </trkpt>
      <trkpt lat="34.73207108" lon="135.1141218">
        <ele>283.91</ele>
        <time>2026-10-08T04:40:17Z</time>
      </trkpt>
      <trkpt lat="34.73211122" lon="135.1142273">
        <ele>282.78</ele>
        <time>2026-10-08T04:40:29Z</time>
      </trkpt>
      <trkpt lat="34.73219046" lon="135.11428341">
        <ele>279.74</ele>
        <time>2026-10-08T04:40:41Z</time>
      </trkpt>
      <trkpt lat="34.73226302" lon="135.11436342">
        <ele>276.51</ele>
        <time>2026-10-08T04:40:54Z</time>
      </trkpt>
      <trkpt lat="34.73233599" lon="135.11444368">
        <ele>274.89</ele>
        <time>2026-10-08T04:41:06Z</time>
      </trkpt>
      <trkpt lat="34.73237148" lon="135.11454599">
        <ele>273.85</ele>
        <time>2026-10-08T04:41:16Z</time>
      </trkpt>
      <trkpt lat="34.73235841" lon="135.11466509">
        <ele>275.35</ele>
        <time>2026-10-08T04:41:48Z</time>
      </trkpt>
      <trkpt lat="34.73232676" lon="135.11478002">
        <ele>274.48</ele>
        <time>2026-10-08T04:41:58Z</time>
      </trkpt>
      <trkpt lat="34.73231132" lon="135.11489827">
        <ele>272.86</ele>
        <time>2026-10-08T04:42:09Z</time>
      </trkpt>
      <trkpt lat="34.73237615" lon="135.11500681">
        <ele>273.29</ele>
        <time>2026-10-08T04:42:21Z</time>
      </trkpt>
      <trkpt lat="34.73247256" lon="135.11500644">
        <ele>266.83</ele>
        <time>2026-10-08T04:42:34Z</time>
      </trkpt>
      <trkpt lat="34.73257017" lon="135.11497765">
        <ele>264.13</ele>
        <time>2026-10-08T04:42:46Z</time>
      </trkpt>
      <trkpt lat="34.73266084" lon="135.11499139">
        <ele>261.6</ele>
        <time>2026-10-08T04:42:56Z</time>
      </trkpt>
      <trkpt lat="34.7327358" lon="135.11505932">
        <ele>260.01</ele>
        <time>2026-10-08T04:43:06Z</time>
      </trkpt>
      <trkpt lat="34.73280362" lon="135.1151504">
        <ele>260.15</ele>
        <time>2026-10-08T04:43:19Z</time>
      </trkpt>
      <trkpt lat="34.73284479" lon="135.11526124">
        <ele>259.69</ele>
        <time>2026-10-08T04:43:37Z</time>
      </trkpt>
      <trkpt lat="34.73286298" lon="135.11537267">
        <ele>259.04</ele>
        <time>2026-10-08T04:43:47Z</time>
      </trkpt>
      <trkpt lat="34.73286579" lon="135.11549153">
        <ele>258.6</ele>
        <time>2026-10-08T04:43:59Z</time>
      </trkpt>
      <trkpt lat="34.73293066" lon="135.11557335">
        <ele>257.71</ele>
        <time>2026-10-08T04:44:10Z</time>
      </trkpt>
      <trkpt lat="34.7329271" lon="135.11568931">
        <ele>256.5</ele>
        <time>2026-10-08T04:44:23Z</time>
      </trkpt>
      <trkpt lat="34.73285845" lon="135.11577414">
        <ele>254.92</ele>
        <time>2026-10-08T04:44:34Z</time>
      </trkpt>
      <trkpt lat="34.73281487" lon="135.11587994">
        <ele>254.86</ele>
        <time>2026-10-08T04:44:45Z</time>
      </trkpt>
      <trkpt lat="34.73278382" lon="135.11598362">
        <ele>254.79</ele>
        <time>2026-10-08T04:44:55Z</time>
      </trkpt>
      <trkpt lat="34.73279077" lon="135.11609342">
        <ele>257.19</ele>
        <time>2026-10-08T04:45:06Z</time>
      </trkpt>
      <trkpt lat="34.73281744" lon="135.11622189">
        <ele>259.9</ele>
        <time>2026-10-08T04:45:15Z</time>
      </trkpt>
      <trkpt lat="34.73276172" lon="135.11633295">
        <ele>261.32</ele>
        <time>2026-10-08T04:45:27Z</time>
      </trkpt>
      <trkpt lat="34.73270239" lon="135.11641578">
        <ele>261.09</ele>
        <time>2026-10-08T04:45:37Z</time>
      </trkpt>
      <trkpt lat="34.7326505" lon="135.11651119">
        <ele>261.84</ele>
        <time>2026-10-08T04:45:47Z</time>
      </trkpt>
      <trkpt lat="34.73259927" lon="135.11661398">
        <ele>261.41</ele>
        <time>2026-10-08T04:45:58Z</time>
      </trkpt>
      <trkpt lat="34.7325588" lon="135.11671758">
        <ele>260.4</ele>
        <time>2026-10-08T04:46:08Z</time>
      </trkpt>
      <trkpt lat="34.73252036" lon="135.11681757">
        <ele>259.72</ele>
        <time>2026-10-08T04:46:18Z</time>
      </trkpt>
      <trkpt lat="34.7324955" lon="135.11695087">
        <ele>260.85</ele>
        <time>2026-10-08T04:46:31Z</time>
      </trkpt>
      <trkpt lat="34.7324756" lon="135.11705995">
        <ele>260.47</ele>
        <time>2026-10-08T04:46:41Z</time>
      </trkpt>
      <trkpt lat="34.73246405" lon="135.11717534">
        <ele>260.74</ele>
        <time>2026-10-08T04:46:52Z</time>
      </trkpt>
      <trkpt lat="34.7324563" lon="135.11728885">
        <ele>261.02</ele>
        <time>2026-10-08T04:47:02Z</time>
      </trkpt>
      <trkpt lat="34.73245148" lon="135.11740242">
        <ele>260.98</ele>
        <time>2026-10-08T04:47:12Z</time>
      </trkpt>
      <trkpt lat="34.732461" lon="135.11752596">
        <ele>261.64</ele>
        <time>2026-10-08T04:47:23Z</time>
      </trkpt>
      <trkpt lat="34.73248572" lon="135.11764167">
        <ele>262.05</ele>
        <time>2026-10-08T04:47:34Z</time>
      </trkpt>
      <trkpt lat="34.73249576" lon="135.11775174">
        <ele>262.77</ele>
        <time>2026-10-08T04:47:44Z</time>
      </trkpt>
      <trkpt lat="34.73251212" lon="135.11786651">
        <ele>262.48</ele>
        <time>2026-10-08T04:47:55Z</time>
      </trkpt>
      <trkpt lat="34.73253166" lon="135.11797752">
        <ele>263.4</ele>
        <time>2026-10-08T04:48:07Z</time>
      </trkpt>
    </trkseg>
  </trk>
</gpx>