<?xml version='1.0' encoding='UTF-8' standalone='yes' ?>
<gpx xmlns="http://www.topografix.com/GPX/1/1" xmlns:geotracker="http://ilyabogdanovich.com/gpx/extensions/geotracker" xmlns:xsi="http://www.w3.org/2001/XMLSchema-instance" xsi:schemaLocation="http://www.topografix.com/GPX/1/1 http://www.topografix.com/GPX/1/1/gpx.xsd" version="1.1" creator="Recorded in Geo Tracker for Android from Ilya Bogdanovich">
  <metadata>
    <name>2026/09/11 15:04:20</name>
    <author>
      <name>Recorded in Geo Tracker for Android from Ilya Bogdanovich</name>
      <link href="https://play.google.com/store/apps/details?id=com.ilyabogdanovich.geotracker" />
    </author>
    <link href="https://play.google.com/store/apps/details?id=com.ilyabogdanovich.geotracker" />
    <time>2026-09-11T06:04:20Z</time>
  </metadata>
  <wpt lat="42.81644059" lon="141.63574956">
    <ele>63</ele>
    <time>2026-09-11T06:17:58Z</time>
    <name>Stop for ~2 min</name>
    <desc>Elevation: 63 m
Time from start: 00:13:37
Distance from start: 0.65 km</desc>
    <extensions>
      <geotracker:meta emoji="⏱️" />
    </extensions>
  </wpt>
  <wpt lat="42.81623356" lon="141.63935353">
    <ele>55</ele>
    <time>2026-09-11T06:58:14Z</time>
    <name>Stop for ~15 min</name>
    <desc>Elevation: 55 m
Time from start: 00:53:53
Distance from start: 2.67 km</desc>
    <extensions>
      <geotracker:meta emoji="⏱️" />
    </extensions>
  </wpt>
  <trk>
    <name>2026/09/11 15:04:20</name>
    <src>Recorded in Geo Tracker for Android from Ilya Bogdanovich</src>
    <link href="https://play.google.com/store/apps/details?id=com.ilyabogdanovich.geotracker" />
    <extensions>
      <geotracker:meta>
        <geotracker:length>3050.75</geotracker:length>
        <geotracker:duration>4400822</geotracker:duration>
        <geotracker:creationtime>2026-09-11T06:04:20Z</geotracker:creationtime>
        <geotracker:activity>0</geotracker:activity>
      </geotracker:meta>
    </extensions>
    <trkseg>
      <trkpt lat="42.8170023" lon="141.64321222">
        <ele>65</ele>
        <time>2026-09-11T06:04:36Z</time>
      </trkpt>
      <trkpt lat="42.81706525" lon="141.64311885">
        <ele>63</ele>
        <time>2026-09-11T06:05:43Z</time>
      </trkpt>
      <trkpt lat="42.81705645" lon="141.64296856">
        <ele>59</ele>
        <time>2026-09-11T06:05:58Z</time>
      </trkpt>
      <trkpt lat="42.81705406" lon="141.6428394">
        <ele>60</ele>
        <time>2026-09-11T06:06:10Z</time>
      </trkpt>
      <trkpt lat="42.81700578" lon="141.64271828">
        <ele>60</ele>
        <time>2026-09-11T06:06:21Z</time>
      </trkpt>
      <trkpt lat="42.81700343" lon="141.64258425">
        <ele>58</ele>
        <time>2026-09-11T06:06:27Z</time>
      </trkpt>
      <trkpt lat="42.81698164" lon="141.64246079">
        <ele>57</ele>
        <time>2026-09-11T06:06:43Z</time>
      </trkpt>
      <trkpt lat="42.81697347" lon="141.64233564">
        <ele>57</ele>
        <time>2026-09-11T06:06:54Z</time>
      </trkpt>
      <trkpt lat="42.81695457" lon="141.64220782">
        <ele>56</ele>
        <time>2026-09-11T06:07:05Z</time>
      </trkpt>
      <trkpt lat="42.81692397" lon="141.64208075">
        <ele>57</ele>
        <time>2026-09-11T06:07:13Z</time>
      </trkpt>
      <trkpt lat="42.81691274" lon="141.64195829">
        <ele>58</ele>
        <time>2026-09-11T06:07:23Z</time>
      </trkpt>
      <trkpt lat="42.81690344" lon="141.64182887">
        <ele>59</ele>
        <time>2026-09-11T06:07:34Z</time>
      </trkpt>
      <trkpt lat="42.81689099" lon="141.6417065">
        <ele>59</ele>
        <time>2026-09-11T06:07:43Z</time>
      </trkpt>
      <trkpt lat="42.81690809" lon="141.64158278">
        <ele>59</ele>
        <time>2026-09-11T06:07:52Z</time>
      </trkpt>
      <trkpt lat="42.81685537" lon="141.64147281">
        <ele>59</ele>
        <time>2026-09-11T06:08:00Z</time>
      </trkpt>
      <trkpt lat="42.81682402" lon="141.64134867">
        <ele>59</ele>
        <time>2026-09-11T06:08:12Z</time>
      </trkpt>
      <trkpt lat="42.81682008" lon="141.64122429">
        <ele>60</ele>
        <time>2026-09-11T06:08:20Z</time>
      </trkpt>
      <trkpt lat="42.81679921" lon="141.64110258">
        <ele>60</ele>
        <time>2026-09-11T06:08:30Z</time>
      </trkpt>
      <trkpt lat="42.81676899" lon="141.64097803">
        <ele>60</ele>
        <time>2026-09-11T06:08:40Z</time>
      </trkpt>
      <trkpt lat="42.81676522" lon="141.64084551">
        <ele>60</ele>
        <time>2026-09-11T06:08:52Z</time>
      </trkpt>
      <trkpt lat="42.81676325" lon="141.64071911">
        <ele>60</ele>
        <time>2026-09-11T06:09:03Z</time>
      </trkpt>
      <trkpt lat="42.81673211" lon="141.64060168">
        <ele>62</ele>
        <time>2026-09-11T06:09:15Z</time>
      </trkpt>
      <trkpt lat="42.81668844" lon="141.64048945">
        <ele>60</ele>
        <time>2026-09-11T06:09:23Z</time>
      </trkpt>
      <trkpt lat="42.81669364" lon="141.64036514">
        <ele>60</ele>
        <time>2026-09-11T06:09:34Z</time>
      </trkpt>
      <trkpt lat="42.81667591" lon="141.6402421">
        <ele>60</ele>
        <time>2026-09-11T06:09:44Z</time>
      </trkpt>
      <trkpt lat="42.81666841" lon="141.64011251">
        <ele>60</ele>
        <time>2026-09-11T06:09:54Z</time>
      </trkpt>
      <trkpt lat="42.81665102" lon="141.63999164">
        <ele>61</ele>
        <time>2026-09-11T06:10:04Z</time>
      </trkpt>
      <trkpt lat="42.81662357" lon="141.63985846">
        <ele>61</ele>
        <time>2026-09-11T06:10:15Z</time>
      </trkpt>
      <trkpt lat="42.81660093" lon="141.63972678">
        <ele>61</ele>
        <time>2026-09-11T06:10:27Z</time>
      </trkpt>
      <trkpt lat="42.81658316" lon="141.63959686">
        <ele>60</ele>
        <time>2026-09-11T06:10:39Z</time>
      </trkpt>
      <trkpt lat="42.81660102" lon="141.63946392">
        <ele>58</ele>
        <time>2026-09-11T06:10:56Z</time>
      </trkpt>
      <trkpt lat="42.81656368" lon="141.63933844">
        <ele>61</ele>
        <time>2026-09-11T06:11:07Z</time>
      </trkpt>
      <trkpt lat="42.81654356" lon="141.6392185">
        <ele>62</ele>
        <time>2026-09-11T06:11:17Z</time>
      </trkpt>
      <trkpt lat="42.81649599" lon="141.63910459">
        <ele>63</ele>
        <time>2026-09-11T06:12:05Z</time>
      </trkpt>
      <trkpt lat="42.81650136" lon="141.63897693">
        <ele>64</ele>
        <time>2026-09-11T06:12:21Z</time>
      </trkpt>
      <trkpt lat="42.81647324" lon="141.63885539">
        <ele>62</ele>
        <time>2026-09-11T06:12:31Z</time>
      </trkpt>
      <trkpt lat="42.81646175" lon="141.63872715">
        <ele>62</ele>
        <time>2026-09-11T06:12:41Z</time>
      </trkpt>
      <trkpt lat="42.81643095" lon="141.63860687">
        <ele>63</ele>
        <time>2026-09-11T06:12:51Z</time>
      </trkpt>
      <trkpt lat="42.81642952" lon="141.63846882">
        <ele>65</ele>
        <time>2026-09-11T06:13:06Z</time>
      </trkpt>
      <trkpt lat="42.816411" lon="141.63834544">
        <ele>66</ele>
        <time>2026-09-11T06:13:18Z</time>
      </trkpt>
      <trkpt lat="42.81640547" lon="141.63821912">
        <ele>63</ele>
        <time>2026-09-11T06:13:28Z</time>
      </trkpt>
      <trkpt lat="42.81639407" lon="141.63809641">
        <ele>63</ele>
        <time>2026-09-11T06:13:38Z</time>
      </trkpt>
      <trkpt lat="42.81637144" lon="141.63797068">
        <ele>64</ele>
        <time>2026-09-11T06:13:47Z</time>
      </trkpt>
      <trkpt lat="42.81633904" lon="141.63784931">
        <ele>64</ele>
        <time>2026-09-11T06:13:57Z</time>
      </trkpt>
      <trkpt lat="42.81630535" lon="141.63772778">
        <ele>64</ele>
        <time>2026-09-11T06:14:08Z</time>
      </trkpt>
      <trkpt lat="42.81628427" lon="141.63760113">
        <ele>64</ele>
        <time>2026-09-11T06:14:19Z</time>
      </trkpt>
      <trkpt lat="42.81627974" lon="141.63747171">
        <ele>65</ele>
        <time>2026-09-11T06:14:29Z</time>
      </trkpt>
      <trkpt lat="42.81623536" lon="141.63736241">
        <ele>66</ele>
        <time>2026-09-11T06:14:36Z</time>
      </trkpt>
      <trkpt lat="42.81622295" lon="141.63723534">
        <ele>63</ele>
        <time>2026-09-11T06:15:00Z</time>
      </trkpt>
      <trkpt lat="42.81620376" lon="141.63711305">
        <ele>65</ele>
        <time>2026-09-11T06:15:13Z</time>
      </trkpt>
      <trkpt lat="42.81617254" lon="141.63697709">
        <ele>65</ele>
        <time>2026-09-11T06:15:21Z</time>
      </trkpt>
      <trkpt lat="42.8161639" lon="141.63685212">
        <ele>67</ele>
        <time>2026-09-11T06:15:31Z</time>
      </trkpt>
      <trkpt lat="42.8161543" lon="141.63671675">
        <ele>66</ele>
        <time>2026-09-11T06:15:42Z</time>
      </trkpt>
      <trkpt lat="42.81612241" lon="141.63659127">
        <ele>67</ele>
        <time>2026-09-11T06:15:52Z</time>
      </trkpt>
      <trkpt lat="42.81608092" lon="141.63647611">
        <ele>63</ele>
        <time>2026-09-11T06:16:10Z</time>
      </trkpt>
      <trkpt lat="42.81605716" lon="141.63634912">
        <ele>62</ele>
        <time>2026-09-11T06:16:19Z</time>
      </trkpt>
      <trkpt lat="42.81605515" lon="141.6362254">
        <ele>64</ele>
        <time>2026-09-11T06:16:32Z</time>
      </trkpt>
      <trkpt lat="42.81608046" lon="141.63609255">
        <ele>68</ele>
        <time>2026-09-11T06:16:42Z</time>
      </trkpt>
      <trkpt lat="42.8160909" lon="141.63595961">
        <ele>65</ele>
        <time>2026-09-11T06:16:53Z</time>
      </trkpt>
      <trkpt lat="42.81615984" lon="141.63587295">
        <ele>65</ele>
        <time>2026-09-11T06:17:05Z</time>
      </trkpt>
      <trkpt lat="42.81624584" lon="141.63580555">
        <ele>65</ele>
        <time>2026-09-11T06:17:16Z</time>
      </trkpt>
      <trkpt lat="42.81635019" lon="141.63579608">
        <ele>65</ele>
        <time>2026-09-11T06:17:32Z</time>
      </trkpt>
      <trkpt lat="42.81644059" lon="141.63574956">
        <ele>63</ele>
        <time>2026-09-11T06:17:58Z</time>
      </trkpt>
      <trkpt lat="42.81659251" lon="141.63574085">
        <ele>62</ele>
        <time>2026-09-11T06:19:48Z</time>
      </trkpt>
      <trkpt lat="42.81668706" lon="141.63572676">
        <ele>61</ele>
        <time>2026-09-11T06:19:59Z</time>
      </trkpt>
      <trkpt lat="42.8167793" lon="141.63568326">
        <ele>62</ele>
        <time>2026-09-11T06:20:15Z</time>
      </trkpt>
      <trkpt lat="42.81682712" lon="141.63556868">
        <ele>61</ele>
        <time>2026-09-11T06:20:24Z</time>
      </trkpt>
      <trkpt lat="42.81682251" lon="141.63543466">
        <ele>63</ele>
        <time>2026-09-11T06:20:38Z</time>
      </trkpt>
      <trkpt lat="42.81682875" lon="141.63531178">
        <ele>63</ele>
        <time>2026-09-11T06:20:49Z</time>
      </trkpt>
      <trkpt lat="42.81684334" lon="141.63518429">
        <ele>64</ele>
        <time>2026-09-11T06:21:00Z</time>
      </trkpt>
      <trkpt lat="42.81687657" lon="141.63505076">
        <ele>63</ele>
        <time>2026-09-11T06:21:12Z</time>
      </trkpt>
      <trkpt lat="42.81692037" lon="141.63493618">
        <ele>62</ele>
        <time>2026-09-11T06:21:23Z</time>
      </trkpt>
      <trkpt lat="42.8169303" lon="141.63480668">
        <ele>61</ele>
        <time>2026-09-11T06:21:35Z</time>
      </trkpt>
      <trkpt lat="42.81690436" lon="141.63468414">
        <ele>64</ele>
        <time>2026-09-11T06:21:46Z</time>
      </trkpt>
      <trkpt lat="42.81692251" lon="141.63455715">
        <ele>64</ele>
        <time>2026-09-11T06:21:57Z</time>
      </trkpt>
      <trkpt lat="42.81697003" lon="141.63445154">
        <ele>64</ele>
        <time>2026-09-11T06:22:10Z</time>
      </trkpt>
      <trkpt lat="42.81698977" lon="141.6343269">
        <ele>62</ele>
        <time>2026-09-11T06:22:20Z</time>
      </trkpt>
      <trkpt lat="42.81703927" lon="141.63422272">
        <ele>64</ele>
        <time>2026-09-11T06:22:30Z</time>
      </trkpt>
      <trkpt lat="42.81706491" lon="141.63410143">
        <ele>64</ele>
        <time>2026-09-11T06:22:41Z</time>
      </trkpt>
      <trkpt lat="42.81710163" lon="141.63398358">
        <ele>64</ele>
        <time>2026-09-11T06:22:50Z</time>
      </trkpt>
      <trkpt lat="42.81714136" lon="141.63385349">
        <ele>68</ele>
        <time>2026-09-11T06:23:04Z</time>
      </trkpt>
      <trkpt lat="42.81718411" lon="141.63373933">
        <ele>66</ele>
        <time>2026-09-11T06:23:18Z</time>
      </trkpt>
      <trkpt lat="42.81719567" lon="141.63361511">
        <ele>67</ele>
        <time>2026-09-11T06:23:31Z</time>
      </trkpt>
      <trkpt lat="42.81722459" lon="141.63349584">
        <ele>69</ele>
        <time>2026-09-11T06:23:41Z</time>
      </trkpt>
      <trkpt lat="42.81725858" lon="141.6333779">
        <ele>69</ele>
        <time>2026-09-11T06:23:54Z</time>
      </trkpt>
      <trkpt lat="42.81723314" lon="141.63325461">
        <ele>68</ele>
        <time>2026-09-11T06:24:05Z</time>
      </trkpt>
      <trkpt lat="42.81724835" lon="141.63312762">
        <ele>68</ele>
        <time>2026-09-11T06:24:15Z</time>
      </trkpt>
      <trkpt lat="42.81722748" lon="141.63299946">
        <ele>69</ele>
        <time>2026-09-11T06:24:27Z</time>
      </trkpt>
      <trkpt lat="42.81723465" lon="141.63286929">
        <ele>68</ele>
        <time>2026-09-11T06:24:38Z</time>
      </trkpt>
      <trkpt lat="42.81727819" lon="141.63274842">
        <ele>68</ele>
        <time>2026-09-11T06:24:50Z</time>
      </trkpt>
      <trkpt lat="42.81732442" lon="141.63263753">
        <ele>66</ele>
        <time>2026-09-11T06:25:04Z</time>
      </trkpt>
      <trkpt lat="42.81735116" lon="141.63250862">
        <ele>67</ele>
        <time>2026-09-11T06:25:15Z</time>
      </trkpt>
      <trkpt lat="42.81736247" lon="141.63238297">
        <ele>69</ele>
        <time>2026-09-11T06:25:27Z</time>
      </trkpt>
      <trkpt lat="42.81742571" lon="141.63228289">
        <ele>70</ele>
        <time>2026-09-11T06:25:54Z</time>
      </trkpt>
      <trkpt lat="42.81751192" lon="141.63232011">
        <ele>67</ele>
        <time>2026-09-11T06:26:43Z</time>
      </trkpt>
      <trkpt lat="42.817576" lon="141.63223319">
        <ele>64</ele>
        <time>2026-09-11T06:27:41Z</time>
      </trkpt>
      <trkpt lat="42.81763082" lon="141.63212908">
        <ele>66</ele>
        <time>2026-09-11T06:27:52Z</time>
      </trkpt>
      <trkpt lat="42.81762617" lon="141.63199707">
        <ele>68</ele>
        <time>2026-09-11T06:28:02Z</time>
      </trkpt>
      <trkpt lat="42.8176742" lon="141.63188375">
        <ele>69</ele>
        <time>2026-09-11T06:28:13Z</time>
      </trkpt>
      <trkpt lat="42.81767633" lon="141.63175877">
        <ele>65</ele>
        <time>2026-09-11T06:28:25Z</time>
      </trkpt>
      <trkpt lat="42.8176918" lon="141.63163723">
        <ele>67</ele>
        <time>2026-09-11T06:28:36Z</time>
      </trkpt>
      <trkpt lat="42.81770831" lon="141.6315084">
        <ele>68</ele>
        <time>2026-09-11T06:28:47Z</time>
      </trkpt>
      <trkpt lat="42.81767541" lon="141.63139424">
        <ele>69</ele>
        <time>2026-09-11T06:28:57Z</time>
      </trkpt>
      <trkpt lat="42.81761825" lon="141.63129651">
        <ele>69</ele>
        <time>2026-09-11T06:29:06Z</time>
      </trkpt>
      <trkpt lat="42.81754775" lon="141.63121671">
        <ele>71</ele>
        <time>2026-09-11T06:29:16Z</time>
      </trkpt>
      <trkpt lat="42.81747936" lon="141.63111881">
        <ele>71</ele>
        <time>2026-09-11T06:29:27Z</time>
      </trkpt>
      <trkpt lat="42.81743158" lon="141.63101329">
        <ele>69</ele>
        <time>2026-09-11T06:29:37Z</time>
      </trkpt>
      <trkpt lat="42.81739256" lon="141.63089016">
        <ele>69</ele>
        <time>2026-09-11T06:29:46Z</time>
      </trkpt>
      <trkpt lat="42.81736331" lon="141.63076677">
        <ele>71</ele>
        <time>2026-09-11T06:30:00Z</time>
      </trkpt>
      <trkpt lat="42.81738188" lon="141.63063459">
        <ele>71</ele>
        <time>2026-09-11T06:30:11Z</time>
      </trkpt>
      <trkpt lat="42.81739248" lon="141.63051054">
        <ele>69</ele>
        <time>2026-09-11T06:30:20Z</time>
      </trkpt>
      <trkpt lat="42.81739831" lon="141.63038582">
        <ele>66</ele>
        <time>2026-09-11T06:31:11Z</time>
      </trkpt>
      <trkpt lat="42.81739722" lon="141.63026185">
        <ele>68</ele>
        <time>2026-09-11T06:31:20Z</time>
      </trkpt>
      <trkpt lat="42.8173895" lon="141.63012816">
        <ele>71</ele>
        <time>2026-09-11T06:31:32Z</time>
      </trkpt>
      <trkpt lat="42.81739118" lon="141.63000436">
        <ele>73</ele>
        <time>2026-09-11T06:31:42Z</time>
      </trkpt>
      <trkpt lat="42.81735585" lon="141.62988206">
        <ele>75</ele>
        <time>2026-09-11T06:31:50Z</time>
      </trkpt>
      <trkpt lat="42.8173323" lon="141.62976371">
        <ele>73</ele>
        <time>2026-09-11T06:31:59Z</time>
      </trkpt>
      <trkpt lat="42.8173095" lon="141.6296389">
        <ele>76</ele>
        <time>2026-09-11T06:32:09Z</time>
      </trkpt>
      <trkpt lat="42.81729973" lon="141.62951351">
        <ele>74</ele>
        <time>2026-09-11T06:32:19Z</time>
      </trkpt>
      <trkpt lat="42.81726813" lon="141.62939901">
        <ele>72</ele>
        <time>2026-09-11T06:32:28Z</time>
      </trkpt>
      <trkpt lat="42.81722681" lon="141.62927203">
        <ele>70</ele>
        <time>2026-09-11T06:32:39Z</time>
      </trkpt>
      <trkpt lat="42.81720003" lon="141.62915426">
        <ele>72</ele>
        <time>2026-09-11T06:32:47Z</time>
      </trkpt>
      <trkpt lat="42.81718587" lon="141.6290246">
        <ele>72</ele>
        <time>2026-09-11T06:32:57Z</time>
      </trkpt>
      <trkpt lat="42.81714844" lon="141.62890591">
        <ele>73</ele>
        <time>2026-09-11T06:33:07Z</time>
      </trkpt>
      <trkpt lat="42.81710708" lon="141.6287961">
        <ele>74</ele>
        <time>2026-09-11T06:33:14Z</time>
      </trkpt>
      <trkpt lat="42.81706005" lon="141.62867222">
        <ele>76</ele>
        <time>2026-09-11T06:33:23Z</time>
      </trkpt>
      <trkpt lat="42.81701877" lon="141.62855194">
        <ele>77</ele>
        <time>2026-09-11T06:33:33Z</time>
      </trkpt>
      <trkpt lat="42.81695943" lon="141.62845102">
        <ele>73</ele>
        <time>2026-09-11T06:33:45Z</time>
      </trkpt>
      <trkpt lat="42.8168948" lon="141.62835974">
        <ele>75</ele>
        <time>2026-09-11T06:33:54Z</time>
      </trkpt>
      <trkpt lat="42.81681312" lon="141.62829168">
        <ele>77</ele>
        <time>2026-09-11T06:34:04Z</time>
      </trkpt>
      <trkpt lat="42.81672591" lon="141.62822429">
        <ele>78</ele>
        <time>2026-09-11T06:34:12Z</time>
      </trkpt>
      <trkpt lat="42.81664322" lon="141.62817459">
        <ele>78</ele>
        <time>2026-09-11T06:34:19Z</time>
      </trkpt>
      <trkpt lat="42.81655672" lon="141.62812019">
        <ele>77</ele>
        <time>2026-09-11T06:34:28Z</time>
      </trkpt>
      <trkpt lat="42.81647785" lon="141.62804659">
        <ele>77</ele>
        <time>2026-09-11T06:34:38Z</time>
      </trkpt>
      <trkpt lat="42.81639248" lon="141.62798675">
        <ele>76</ele>
        <time>2026-09-11T06:34:47Z</time>
      </trkpt>
      <trkpt lat="42.81631247" lon="141.62792774">
        <ele>79</ele>
        <time>2026-09-11T06:34:57Z</time>
      </trkpt>
      <trkpt lat="42.81623024" lon="141.6278611">
        <ele>76</ele>
        <time>2026-09-11T06:35:04Z</time>
      </trkpt>
      <trkpt lat="42.81614902" lon="141.62780511">
        <ele>79</ele>
        <time>2026-09-11T06:35:14Z</time>
      </trkpt>
      <trkpt lat="42.81606868" lon="141.62773403">
        <ele>77</ele>
        <time>2026-09-11T06:35:23Z</time>
      </trkpt>
      <trkpt lat="42.81599849" lon="141.62764393">
        <ele>80</ele>
        <time>2026-09-11T06:35:32Z</time>
      </trkpt>
      <trkpt lat="42.81590867" lon="141.62760889">
        <ele>75</ele>
        <time>2026-09-11T06:35:41Z</time>
      </trkpt>
      <trkpt lat="42.81581698" lon="141.62763286">
        <ele>73</ele>
        <time>2026-09-11T06:35:52Z</time>
      </trkpt>
      <trkpt lat="42.81574242" lon="141.62770688">
        <ele>74</ele>
        <time>2026-09-11T06:36:01Z</time>
      </trkpt>
      <trkpt lat="42.81565307" lon="141.6277777">
        <ele>70</ele>
        <time>2026-09-11T06:36:13Z</time>
      </trkpt>
      <trkpt lat="42.81558945" lon="141.62786789">
        <ele>70</ele>
        <time>2026-09-11T06:36:22Z</time>
      </trkpt>
      <trkpt lat="42.81550475" lon="141.62793545">
        <ele>74</ele>
        <time>2026-09-11T06:36:32Z</time>
      </trkpt>
      <trkpt lat="42.81542646" lon="141.62800125">
        <ele>75</ele>
        <time>2026-09-11T06:36:41Z</time>
      </trkpt>
      <trkpt lat="42.81537395" lon="141.62811256">
        <ele>74</ele>
        <time>2026-09-11T06:36:51Z</time>
      </trkpt>
      <trkpt lat="42.81531129" lon="141.62821826">
        <ele>73</ele>
        <time>2026-09-11T06:37:02Z</time>
      </trkpt>
      <trkpt lat="42.81524801" lon="141.62830979">
        <ele>72</ele>
        <time>2026-09-11T06:37:11Z</time>
      </trkpt>
      <trkpt lat="42.81517656" lon="141.62840492">
        <ele>72</ele>
        <time>2026-09-11T06:37:20Z</time>
      </trkpt>
      <trkpt lat="42.81510108" lon="141.62848321">
        <ele>71</ele>
        <time>2026-09-11T06:37:30Z</time>
      </trkpt>
      <trkpt lat="42.81503079" lon="141.6285651">
        <ele>72</ele>
        <time>2026-09-11T06:37:39Z</time>
      </trkpt>
      <trkpt lat="42.81498285" lon="141.62867566">
        <ele>72</ele>
        <time>2026-09-11T06:37:48Z</time>
      </trkpt>
      <trkpt lat="42.81496646" lon="141.62880113">
        <ele>69</ele>
        <time>2026-09-11T06:37:57Z</time>
      </trkpt>
      <trkpt lat="42.814937" lon="141.62893164">
        <ele>70</ele>
        <time>2026-09-11T06:38:07Z</time>
      </trkpt>
      <trkpt lat="42.81492053" lon="141.62905728">
        <ele>70</ele>
        <time>2026-09-11T06:38:17Z</time>
      </trkpt>
      <trkpt lat="42.8149067" lon="141.62918167">
        <ele>70</ele>
        <time>2026-09-11T06:38:29Z</time>
      </trkpt>
      <trkpt lat="42.81483122" lon="141.62926599">
        <ele>68</ele>
        <time>2026-09-11T06:38:41Z</time>
      </trkpt>
      <trkpt lat="42.81473965" lon="141.62929667">
        <ele>67</ele>
        <time>2026-09-11T06:38:52Z</time>
      </trkpt>
      <trkpt lat="42.8146521" lon="141.62935375">
        <ele>66</ele>
        <time>2026-09-11T06:39:06Z</time>
      </trkpt>
      <trkpt lat="42.81456652" lon="141.62941888">
        <ele>68</ele>
        <time>2026-09-11T06:39:16Z</time>
      </trkpt>
      <trkpt lat="42.81449108" lon="141.62950815">
        <ele>69</ele>
        <time>2026-09-11T06:39:26Z</time>
      </trkpt>
      <trkpt lat="42.81442671" lon="141.62959658">
        <ele>67</ele>
        <time>2026-09-11T06:39:35Z</time>
      </trkpt>
      <trkpt lat="42.81437072" lon="141.62970135">
        <ele>78</ele>
        <time>2026-09-11T06:39:48Z</time>
      </trkpt>
      <trkpt lat="42.81433946" lon="141.62982456">
        <ele>75</ele>
        <time>2026-09-11T06:39:56Z</time>
      </trkpt>
      <trkpt lat="42.81428845" lon="141.62993009">
        <ele>73</ele>
        <time>2026-09-11T06:40:06Z</time>
      </trkpt>
      <trkpt lat="42.81423321" lon="141.63003319">
        <ele>71</ele>
        <time>2026-09-11T06:40:15Z</time>
      </trkpt>
      <trkpt lat="42.81419365" lon="141.63014601">
        <ele>71</ele>
        <time>2026-09-11T06:40:24Z</time>
      </trkpt>
      <trkpt lat="42.81413762" lon="141.63026176">
        <ele>69</ele>
        <time>2026-09-11T06:40:34Z</time>
      </trkpt>
      <trkpt lat="42.81411314" lon="141.63038741">
        <ele>69</ele>
        <time>2026-09-11T06:40:45Z</time>
      </trkpt>
      <trkpt lat="42.81408863" lon="141.6305154">
        <ele>70</ele>
        <time>2026-09-11T06:40:56Z</time>
      </trkpt>
      <trkpt lat="42.81410212" lon="141.63063786">
        <ele>71</ele>
        <time>2026-09-11T06:41:07Z</time>
      </trkpt>
      <trkpt lat="42.81409102" lon="141.63076929">
        <ele>70</ele>
        <time>2026-09-11T06:41:17Z</time>
      </trkpt>
      <trkpt lat="42.81412178" lon="141.630892">
        <ele>68</ele>
        <time>2026-09-11T06:41:27Z</time>
      </trkpt>
      <trkpt lat="42.81416377" lon="141.63100356">
        <ele>68</ele>
        <time>2026-09-11T06:41:34Z</time>
      </trkpt>
      <trkpt lat="42.81417488" lon="141.63113088">
        <ele>70</ele>
        <time>2026-09-11T06:41:42Z</time>
      </trkpt>
      <trkpt lat="42.81420182" lon="141.63125544">
        <ele>70</ele>
        <time>2026-09-11T06:41:55Z</time>
      </trkpt>
      <trkpt lat="42.81421603" lon="141.63138745">
        <ele>68</ele>
        <time>2026-09-11T06:42:04Z</time>
      </trkpt>
      <trkpt lat="42.8142268" lon="141.63150899">
        <ele>72</ele>
        <time>2026-09-11T06:42:37Z</time>
      </trkpt>
      <trkpt lat="42.81425388" lon="141.63162944">
        <ele>69</ele>
        <time>2026-09-11T06:42:45Z</time>
      </trkpt>
      <trkpt lat="42.81425945" lon="141.63176154">
        <ele>69</ele>
        <time>2026-09-11T06:42:57Z</time>
      </trkpt>
      <trkpt lat="42.81428501" lon="141.631884">
        <ele>69</ele>
        <time>2026-09-11T06:43:06Z</time>
      </trkpt>
      <trkpt lat="42.81431724" lon="141.63200746">
        <ele>70</ele>
        <time>2026-09-11T06:43:17Z</time>
      </trkpt>
      <trkpt lat="42.81434381" lon="141.63212942">
        <ele>68</ele>
        <time>2026-09-11T06:43:47Z</time>
      </trkpt>
      <trkpt lat="42.81435672" lon="141.63226722">
        <ele>69</ele>
        <time>2026-09-11T06:43:57Z</time>
      </trkpt>
      <trkpt lat="42.81435593" lon="141.63239881">
        <ele>66</ele>
        <time>2026-09-11T06:44:08Z</time>
      </trkpt>
      <trkpt lat="42.81437143" lon="141.63252614">
        <ele>62</ele>
        <time>2026-09-11T06:44:20Z</time>
      </trkpt>
      <trkpt lat="42.81438178" lon="141.63266259">
        <ele>64</ele>
        <time>2026-09-11T06:44:28Z</time>
      </trkpt>
      <trkpt lat="42.8144154" lon="141.63278304">
        <ele>66</ele>
        <time>2026-09-11T06:44:36Z</time>
      </trkpt>
      <trkpt lat="42.81442642" lon="141.63291606">
        <ele>68</ele>
        <time>2026-09-11T06:44:46Z</time>
      </trkpt>
      <trkpt lat="42.81445228" lon="141.63303441">
        <ele>68</ele>
        <time>2026-09-11T06:44:56Z</time>
      </trkpt>
      <trkpt lat="42.81450102" lon="141.63315126">
        <ele>67</ele>
        <time>2026-09-11T06:45:09Z</time>
      </trkpt>
      <trkpt lat="42.81452017" lon="141.633279">
        <ele>67</ele>
        <time>2026-09-11T06:45:18Z</time>
      </trkpt>
      <trkpt lat="42.81451594" lon="141.63341017">
        <ele>67</ele>
        <time>2026-09-11T06:45:25Z</time>
      </trkpt>
      <trkpt lat="42.81453417" lon="141.63353817">
        <ele>68</ele>
        <time>2026-09-11T06:45:36Z</time>
      </trkpt>
      <trkpt lat="42.81454339" lon="141.63366666">
        <ele>68</ele>
        <time>2026-09-11T06:45:46Z</time>
      </trkpt>
      <trkpt lat="42.81456732" lon="141.63378485">
        <ele>66</ele>
        <time>2026-09-11T06:45:56Z</time>
      </trkpt>
      <trkpt lat="42.81460411" lon="141.63389934">
        <ele>69</ele>
        <time>2026-09-11T06:46:05Z</time>
      </trkpt>
      <trkpt lat="42.81463735" lon="141.63402197">
        <ele>68</ele>
        <time>2026-09-11T06:46:18Z</time>
      </trkpt>
      <trkpt lat="42.81465755" lon="141.63414217">
        <ele>69</ele>
        <time>2026-09-11T06:46:30Z</time>
      </trkpt>
      <trkpt lat="42.81468269" lon="141.63426169">
        <ele>65</ele>
        <time>2026-09-11T06:46:47Z</time>
      </trkpt>
      <trkpt lat="42.81469778" lon="141.63438767">
        <ele>66</ele>
        <time>2026-09-11T06:46:58Z</time>
      </trkpt>
      <trkpt lat="42.81472473" lon="141.63451441">
        <ele>66</ele>
        <time>2026-09-11T06:47:09Z</time>
      </trkpt>
      <trkpt lat="42.81473542" lon="141.63463594">
        <ele>65</ele>
        <time>2026-09-11T06:47:19Z</time>
      </trkpt>
      <trkpt lat="42.81475771" lon="141.63476125">
        <ele>66</ele>
        <time>2026-09-11T06:47:28Z</time>
      </trkpt>
      <trkpt lat="42.81478344" lon="141.63488698">
        <ele>68</ele>
        <time>2026-09-11T06:47:40Z</time>
      </trkpt>
      <trkpt lat="42.81480515" lon="141.63500751">
        <ele>66</ele>
        <time>2026-09-11T06:47:49Z</time>
      </trkpt>
      <trkpt lat="42.81482368" lon="141.63513056">
        <ele>65</ele>
        <time>2026-09-11T06:47:59Z</time>
      </trkpt>
      <trkpt lat="42.81483885" lon="141.63525872">
        <ele>64</ele>
        <time>2026-09-11T06:48:10Z</time>
      </trkpt>
      <trkpt lat="42.81484912" lon="141.63538579">
        <ele>66</ele>
        <time>2026-09-11T06:48:20Z</time>
      </trkpt>
      <trkpt lat="42.81489434" lon="141.63549425">
        <ele>65</ele>
        <time>2026-09-11T06:48:29Z</time>
      </trkpt>
      <trkpt lat="42.81495351" lon="141.63559928">
        <ele>63</ele>
        <time>2026-09-11T06:48:40Z</time>
      </trkpt>
      <trkpt lat="42.81501965" lon="141.63569651">
        <ele>64</ele>
        <time>2026-09-11T06:48:49Z</time>
      </trkpt>
      <trkpt lat="42.81509261" lon="141.63577069">
        <ele>64</ele>
        <time>2026-09-11T06:49:00Z</time>
      </trkpt>
      <trkpt lat="42.81518146" lon="141.63580681">
        <ele>64</ele>
        <time>2026-09-11T06:49:09Z</time>
      </trkpt>
      <trkpt lat="42.81527978" lon="141.6358509">
        <ele>64</ele>
        <time>2026-09-11T06:49:19Z</time>
      </trkpt>
      <trkpt lat="42.81537211" lon="141.63588577">
        <ele>64</ele>
        <time>2026-09-11T06:49:30Z</time>
      </trkpt>
      <trkpt lat="42.81546309" lon="141.63589222">
        <ele>65</ele>
        <time>2026-09-11T06:49:39Z</time>
      </trkpt>
      <trkpt lat="42.81554511" lon="141.63594352">
        <ele>64</ele>
        <time>2026-09-11T06:49:51Z</time>
      </trkpt>
      <trkpt lat="42.81563463" lon="141.63596087">
        <ele>63</ele>
        <time>2026-09-11T06:49:59Z</time>
      </trkpt>
      <trkpt lat="42.8157324" lon="141.63593346">
        <ele>64</ele>
        <time>2026-09-11T06:50:10Z</time>
      </trkpt>
      <trkpt lat="42.81581987" lon="141.63596984">
        <ele>65</ele>
        <time>2026-09-11T06:50:25Z</time>
      </trkpt>
      <trkpt lat="42.81591362" lon="141.63597261">
        <ele>64</ele>
        <time>2026-09-11T06:50:37Z</time>
      </trkpt>
      <trkpt lat="42.81601219" lon="141.63597864">
        <ele>64</ele>
        <time>2026-09-11T06:50:45Z</time>
      </trkpt>
      <trkpt lat="42.81605024" lon="141.63609297">
        <ele>62</ele>
        <time>2026-09-11T06:50:55Z</time>
      </trkpt>
      <trkpt lat="42.81606676" lon="141.63622012">
        <ele>64</ele>
        <time>2026-09-11T06:51:07Z</time>
      </trkpt>
      <trkpt lat="42.81607723" lon="141.63634652">
        <ele>65</ele>
        <time>2026-09-11T06:51:18Z</time>
      </trkpt>
      <trkpt lat="42.81613553" lon="141.63644736">
        <ele>66</ele>
        <time>2026-09-11T06:51:29Z</time>
      </trkpt>
      <trkpt lat="42.81617048" lon="141.63656638">
        <ele>69</ele>
        <time>2026-09-11T06:51:38Z</time>
      </trkpt>
      <trkpt lat="42.81617585" lon="141.63669647">
        <ele>68</ele>
        <time>2026-09-11T06:51:50Z</time>
      </trkpt>
      <trkpt lat="42.81618913" lon="141.63682982">
        <ele>67</ele>
        <time>2026-09-11T06:52:02Z</time>
      </trkpt>
      <trkpt lat="42.81621063" lon="141.63694876">
        <ele>69</ele>
        <time>2026-09-11T06:52:10Z</time>
      </trkpt>
      <trkpt lat="42.81623708" lon="141.63706653">
        <ele>70</ele>
        <time>2026-09-11T06:52:20Z</time>
      </trkpt>
      <trkpt lat="42.81626553" lon="141.6371879">
        <ele>68</ele>
        <time>2026-09-11T06:52:31Z</time>
      </trkpt>
      <trkpt lat="42.81630803" lon="141.63730474">
        <ele>65</ele>
        <time>2026-09-11T06:52:42Z</time>
      </trkpt>
      <trkpt lat="42.81631842" lon="141.63743952">
        <ele>65</ele>
        <time>2026-09-11T06:52:53Z</time>
      </trkpt>
      <trkpt lat="42.81635442" lon="141.63756886">
        <ele>67</ele>
        <time>2026-09-11T06:53:03Z</time>
      </trkpt>
      <trkpt lat="42.81636348" lon="141.63769886">
        <ele>67</ele>
        <time>2026-09-11T06:53:17Z</time>
      </trkpt>
      <trkpt lat="42.81638112" lon="141.6378302">
        <ele>63</ele>
        <time>2026-09-11T06:53:29Z</time>
      </trkpt>
      <trkpt lat="42.81640316" lon="141.63794956">
        <ele>64</ele>
        <time>2026-09-11T06:53:38Z</time>
      </trkpt>
      <trkpt lat="42.81641121" lon="141.63807252">
        <ele>64</ele>
        <time>2026-09-11T06:53:49Z</time>
      </trkpt>
      <trkpt lat="42.81643711" lon="141.63819171">
        <ele>64</ele>
        <time>2026-09-11T06:53:58Z</time>
      </trkpt>
      <trkpt lat="42.81644767" lon="141.63832113">
        <ele>63</ele>
        <time>2026-09-11T06:54:08Z</time>
      </trkpt>
      <trkpt lat="42.81646695" lon="141.63844661">
        <ele>63</ele>
        <time>2026-09-11T06:54:20Z</time>
      </trkpt>
      <trkpt lat="42.81648024" lon="141.63857074">
        <ele>64</ele>
        <time>2026-09-11T06:54:30Z</time>
      </trkpt>
      <trkpt lat="42.8164874" lon="141.63870041">
        <ele>66</ele>
        <time>2026-09-11T06:54:41Z</time>
      </trkpt>
      <trkpt lat="42.81651171" lon="141.63882153">
        <ele>67</ele>
        <time>2026-09-11T06:54:51Z</time>
      </trkpt>
      <trkpt lat="42.81652177" lon="141.63894508">
        <ele>67</ele>
        <time>2026-09-11T06:55:01Z</time>
      </trkpt>
      <trkpt lat="42.81651846" lon="141.63906729">
        <ele>67</ele>
        <time>2026-09-11T06:55:10Z</time>
      </trkpt>
      <trkpt lat="42.81646033" lon="141.63917148">
        <ele>64</ele>
        <time>2026-09-11T06:55:23Z</time>
      </trkpt>
      <trkpt lat="42.81636385" lon="141.63921322">
        <ele>63</ele>
        <time>2026-09-11T06:55:33Z</time>
      </trkpt>
      <trkpt lat="42.8162921" lon="141.63929595">
        <ele>62</ele>
        <time>2026-09-11T06:55:45Z</time>
      </trkpt>
      <trkpt lat="42.81620657" lon="141.63934691">
        <ele>60</ele>
        <time>2026-09-11T06:56:13Z</time>
      </trkpt>
      <trkpt lat="42.81623356" lon="141.63935353">
        <ele>55</ele>
        <time>2026-09-11T06:58:14Z</time>
      </trkpt>
      <trkpt lat="42.81619269" lon="141.63934481">
        <ele>54</ele>
        <time>2026-09-11T07:00:20Z</time>
      </trkpt>
      <trkpt lat="42.81619177" lon="141.6393532">
        <ele>58</ele>
        <time>2026-09-11T07:02:38Z</time>
      </trkpt>
      <trkpt lat="42.81626189" lon="141.63939938">
        <ele>55</ele>
        <time>2026-09-11T07:04:52Z</time>
      </trkpt>
      <trkpt lat="42.8161906" lon="141.63933584">
        <ele>71</ele>
        <time>2026-09-11T07:06:55Z</time>
      </trkpt>
      <trkpt lat="42.81624114" lon="141.63937323">
        <ele>58</ele>
        <time>2026-09-11T07:09:01Z</time>
      </trkpt>
      <trkpt lat="42.81625262" lon="141.63949954">
        <ele>62</ele>
        <time>2026-09-11T07:09:56Z</time>
      </trkpt>
      <trkpt lat="42.81625128" lon="141.63937432">
        <ele>54</ele>
        <time>2026-09-11T07:11:43Z</time>
      </trkpt>
      <trkpt lat="42.81627739" lon="141.63950038">
        <ele>58</ele>
        <time>2026-09-11T07:12:32Z</time>
      </trkpt>
      <trkpt lat="42.81633146" lon="141.63961605">
        <ele>59</ele>
        <time>2026-09-11T07:12:43Z</time>
      </trkpt>
      <trkpt lat="42.81639772" lon="141.63970834">
        <ele>62</ele>
        <time>2026-09-11T07:12:53Z</time>
      </trkpt>
      <trkpt lat="42.81644721" lon="141.63982225">
        <ele>64</ele>
        <time>2026-09-11T07:13:03Z</time>
      </trkpt>
      <trkpt lat="42.81649075" lon="141.6399297">
        <ele>64</ele>
        <time>2026-09-11T07:13:13Z</time>
      </trkpt>
      <trkpt lat="42.81651133" lon="141.64005233">
        <ele>63</ele>
        <time>2026-09-11T07:13:25Z</time>
      </trkpt>
      <trkpt lat="42.81657814" lon="141.64014352">
        <ele>63</ele>
        <time>2026-09-11T07:13:35Z</time>
      </trkpt>
      <trkpt lat="42.8166599" lon="141.6402203">
        <ele>63</ele>
        <time>2026-09-11T07:13:46Z</time>
      </trkpt>
      <trkpt lat="42.81670826" lon="141.64033421">
        <ele>64</ele>
        <time>2026-09-11T07:13:59Z</time>
      </trkpt>
      <trkpt lat="42.81671501" lon="141.64045726">
        <ele>64</ele>
        <time>2026-09-11T07:14:10Z</time>
      </trkpt>
      <trkpt lat="42.81674577" lon="141.64057947">
        <ele>62</ele>
        <time>2026-09-11T07:14:21Z</time>
      </trkpt>
      <trkpt lat="42.81676011" lon="141.64070394">
        <ele>63</ele>
        <time>2026-09-11T07:14:31Z</time>
      </trkpt>
      <trkpt lat="42.81678425" lon="141.64082564">
        <ele>63</ele>
        <time>2026-09-11T07:14:40Z</time>
      </trkpt>
      <trkpt lat="42.81680529" lon="141.64094542">
        <ele>62</ele>
        <time>2026-09-11T07:14:49Z</time>
      </trkpt>
      <trkpt lat="42.81681421" lon="141.64107081">
        <ele>62</ele>
        <time>2026-09-11T07:14:58Z</time>
      </trkpt>
      <trkpt lat="42.8168329" lon="141.64119478">
        <ele>63</ele>
        <time>2026-09-11T07:15:08Z</time>
      </trkpt>
      <trkpt lat="42.81685252" lon="141.64132797">
        <ele>64</ele>
        <time>2026-09-11T07:15:17Z</time>
      </trkpt>
      <trkpt lat="42.81687364" lon="141.64145571">
        <ele>65</ele>
        <time>2026-09-11T07:15:27Z</time>
      </trkpt>
      <trkpt lat="42.81693114" lon="141.64155202">
        <ele>59</ele>
        <time>2026-09-11T07:15:39Z</time>
      </trkpt>
      <trkpt lat="42.81693022" lon="141.64168286">
        <ele>61</ele>
        <time>2026-09-11T07:15:46Z</time>
      </trkpt>
      <trkpt lat="42.81693747" lon="141.64180608">
        <ele>63</ele>
        <time>2026-09-11T07:15:54Z</time>
      </trkpt>
      <trkpt lat="42.81693458" lon="141.64194086">
        <ele>63</ele>
        <time>2026-09-11T07:16:04Z</time>
      </trkpt>
      <trkpt lat="42.81693227" lon="141.64206994">
        <ele>63</ele>
        <time>2026-09-11T07:16:13Z</time>
      </trkpt>
      <trkpt lat="42.81696676" lon="141.64219039">
        <ele>64</ele>
        <time>2026-09-11T07:16:23Z</time>
      </trkpt>
      <trkpt lat="42.81700176" lon="141.64231452">
        <ele>63</ele>
        <time>2026-09-11T07:16:32Z</time>
      </trkpt>
      <trkpt lat="42.81699731" lon="141.64243857">
        <ele>63</ele>
        <time>2026-09-11T07:16:41Z</time>
      </trkpt>
      <trkpt lat="42.81701249" lon="141.64256791">
        <ele>63</ele>
        <time>2026-09-11T07:16:50Z</time>
      </trkpt>
      <trkpt lat="42.81703176" lon="141.64269632">
        <ele>65</ele>
        <time>2026-09-11T07:16:59Z</time>
      </trkpt>
      <trkpt lat="42.81704304" lon="141.64283068">
        <ele>64</ele>
        <time>2026-09-11T07:17:09Z</time>
      </trkpt>
      <trkpt lat="42.81705783" lon="141.64296512">
        <ele>63</ele>
        <time>2026-09-11T07:17:20Z</time>
      </trkpt>
      <trkpt lat="42.81708239" lon="141.64309538">
        <ele>61</ele>
        <time>2026-09-11T07:17:30Z</time>
      </trkpt>
    </trkseg>
  </trk>
</gpx>