<?xml version='1.0' encoding='UTF-8' standalone='yes' ?>
<gpx xmlns="http://www.topografix.com/GPX/1/1" xmlns:geotracker="http://ilyabogdanovich.com/gpx/extensions/geotracker" xmlns:xsi="http://www.w3.org/2001/XMLSchema-instance" xsi:schemaLocation="http://www.topografix.com/GPX/1/1 http://www.topografix.com/GPX/1/1/gpx.xsd" version="1.1" creator="Recorded in Geo Tracker for Android from Ilya Bogdanovich">
  <metadata>
    <name>2026/08/06 10:12:27</name>
    <author>
      <name>Recorded in Geo Tracker for Android from Ilya Bogdanovich</name>
      <link href="https://play.google.com/store/apps/details?id=com.ilyabogdanovich.geotracker" />
    </author>
    <link href="https://play.google.com/store/apps/details?id=com.ilyabogdanovich.geotracker" />
    <time>2026-08-06T01:12:27Z</time>
  </metadata>
  <wpt lat="34.74054239" lon="135.17780289">
    <ele>484.32</ele>
    <time>2026-08-06T01:17:26Z</time>
    <name>Stop for ~2 min</name>
    <desc>Elevation: 484 m
Time from start: 00:04:58
Distance from start: 173 m</desc>
    <extensions>
      <geotracker:meta emoji="⏱️" />
    </extensions>
  </wpt>
  <wpt lat="34.7393005" lon="135.17857967">
    <ele>471.38</ele>
    <time>2026-08-06T01:22:35Z</time>
    <name>Stop for ~7 min</name>
    <desc>Elevation: 471 m
Time from start: 00:10:07
Distance from start: 367 m</desc>
    <extensions>
      <geotracker:meta emoji="⏱️" />
    </extensions>
  </wpt>
  <wpt lat="34.73602638" lon="135.18091971">
    <ele>446.24</ele>
    <time>2026-08-06T02:00:22Z</time>
    <name>Stop for ~4 min</name>
    <desc>Elevation: 446 m
Time from start: 00:47:54
Distance from start: 1.4 km</desc>
    <extensions>
      <geotracker:meta emoji="⏱️" />
    </extensions>
  </wpt>
  <wpt lat="34.73859568" lon="135.17622829">
    <ele>471.61</ele>
    <time>2026-08-06T02:54:38Z</time>
    <name>Stop for ~37 min</name>
    <desc>Elevation: 472 m
Time from start: 01:42:10
Distance from start: 2.94 km</desc>
    <extensions>
      <geotracker:meta emoji="⏱️" />
    </extensions>
  </wpt>
  <wpt lat="34.73911282" lon="135.17839488">
    <ele>488.44</ele>
    <time>2026-08-06T03:35:49Z</time>
    <name>Stop for ~3 min</name>
    <desc>Elevation: 488 m
Time from start: 02:23:21
Distance from start: 3.15 km</desc>
    <extensions>
      <geotracker:meta emoji="⏱️" />
    </extensions>
  </wpt>
  <trk>
    <name>2026/08/06 10:12:27</name>
    <src>Recorded in Geo Tracker for Android from Ilya Bogdanovich</src>
    <link href="https://play.google.com/store/apps/details?id=com.ilyabogdanovich.geotracker" />
    <extensions>
      <geotracker:meta>
        <geotracker:length>3548.24</geotracker:length>
        <geotracker:duration>9439897</geotracker:duration>
        <geotracker:creationtime>2026-08-06T01:12:27Z</geotracker:creationtime>
        <geotracker:activity>0</geotracker:activity>
      </geotracker:meta>
    </extensions>
    <trkseg>
      <trkpt lat="34.74190705" lon="135.17716306">
        <ele>477.34</ele>
        <time>2026-08-06T01:12:39Z</time>
      </trkpt>
      <trkpt lat="34.74180595" lon="135.17722709">
        <ele>485.88</ele>
        <time>2026-08-06T01:12:47Z</time>
      </trkpt>
      <trkpt lat="34.7417173" lon="135.17727419">
        <ele>483.64</ele>
        <time>2026-08-06T01:12:58Z</time>
      </trkpt>
      <trkpt lat="34.74164177" lon="135.17736276">
        <ele>482.53</ele>
        <time>2026-08-06T01:13:09Z</time>
      </trkpt>
      <trkpt lat="34.74156937" lon="135.17743038">
        <ele>481</ele>
        <time>2026-08-06T01:13:31Z</time>
      </trkpt>
      <trkpt lat="34.74148565" lon="135.17749045">
        <ele>479.23</ele>
        <time>2026-08-06T01:13:45Z</time>
      </trkpt>
      <trkpt lat="34.74141417" lon="135.17756393">
        <ele>477.73</ele>
        <time>2026-08-06T01:13:55Z</time>
      </trkpt>
      <trkpt lat="34.74132553" lon="135.1776257">
        <ele>475.62</ele>
        <time>2026-08-06T01:14:06Z</time>
      </trkpt>
      <trkpt lat="34.74124176" lon="135.17768501">
        <ele>474.38</ele>
        <time>2026-08-06T01:14:15Z</time>
      </trkpt>
      <trkpt lat="34.74118825" lon="135.17778247">
        <ele>477.23</ele>
        <time>2026-08-06T01:14:25Z</time>
      </trkpt>
      <trkpt lat="34.74109108" lon="135.17779084">
        <ele>482.67</ele>
        <time>2026-08-06T01:14:34Z</time>
      </trkpt>
      <trkpt lat="34.74099355" lon="135.17781352">
        <ele>481.49</ele>
        <time>2026-08-06T01:14:43Z</time>
      </trkpt>
      <trkpt lat="34.74089869" lon="135.17787563">
        <ele>482.08</ele>
        <time>2026-08-06T01:14:54Z</time>
      </trkpt>
      <trkpt lat="34.74080536" lon="135.17788225">
        <ele>485.89</ele>
        <time>2026-08-06T01:15:02Z</time>
      </trkpt>
      <trkpt lat="34.74070889" lon="135.1778537">
        <ele>483.94</ele>
        <time>2026-08-06T01:15:15Z</time>
      </trkpt>
      <trkpt lat="34.74061412" lon="135.17781682">
        <ele>485.43</ele>
        <time>2026-08-06T01:15:25Z</time>
      </trkpt>
      <trkpt lat="34.74054239" lon="135.17780289">
        <ele>484.32</ele>
        <time>2026-08-06T01:17:26Z</time>
      </trkpt>
      <trkpt lat="34.74042354" lon="135.17777773">
        <ele>484.36</ele>
        <time>2026-08-06T01:17:43Z</time>
      </trkpt>
      <trkpt lat="34.74033151" lon="135.17777099">
        <ele>483.76</ele>
        <time>2026-08-06T01:17:57Z</time>
      </trkpt>
      <trkpt lat="34.74022871" lon="135.17779042">
        <ele>479.6</ele>
        <time>2026-08-06T01:18:45Z</time>
      </trkpt>
      <trkpt lat="34.74013008" lon="135.17778619">
        <ele>477.5</ele>
        <time>2026-08-06T01:19:00Z</time>
      </trkpt>
      <trkpt lat="34.7400262" lon="135.17778894">
        <ele>478.46</ele>
        <time>2026-08-06T01:19:14Z</time>
      </trkpt>
      <trkpt lat="34.73993069" lon="135.17778797">
        <ele>477.81</ele>
        <time>2026-08-06T01:19:28Z</time>
      </trkpt>
      <trkpt lat="34.73983423" lon="135.1777927">
        <ele>475.91</ele>
        <time>2026-08-06T01:19:40Z</time>
      </trkpt>
      <trkpt lat="34.73974308" lon="135.1777858">
        <ele>475.68</ele>
        <time>2026-08-06T01:19:51Z</time>
      </trkpt>
      <trkpt lat="34.73965248" lon="135.17780825">
        <ele>476.7</ele>
        <time>2026-08-06T01:20:02Z</time>
      </trkpt>
      <trkpt lat="34.73956414" lon="135.17786065">
        <ele>477.46</ele>
        <time>2026-08-06T01:20:14Z</time>
      </trkpt>
      <trkpt lat="34.73948463" lon="135.17792269">
        <ele>473.89</ele>
        <time>2026-08-06T01:20:26Z</time>
      </trkpt>
      <trkpt lat="34.73941962" lon="135.17800107">
        <ele>473.79</ele>
        <time>2026-08-06T01:20:38Z</time>
      </trkpt>
      <trkpt lat="34.7393445" lon="135.17807382">
        <ele>472.09</ele>
        <time>2026-08-06T01:20:51Z</time>
      </trkpt>
      <trkpt lat="34.73928607" lon="135.17816395">
        <ele>470.55</ele>
        <time>2026-08-06T01:21:03Z</time>
      </trkpt>
      <trkpt lat="34.73924686" lon="135.17827">
        <ele>470.74</ele>
        <time>2026-08-06T01:21:15Z</time>
      </trkpt>
      <trkpt lat="34.73922538" lon="135.17838024">
        <ele>468.88</ele>
        <time>2026-08-06T01:21:27Z</time>
      </trkpt>
      <trkpt lat="34.73924704" lon="135.17848828">
        <ele>468.69</ele>
        <time>2026-08-06T01:22:08Z</time>
      </trkpt>
      <trkpt lat="34.7393005" lon="135.17857967">
        <ele>471.38</ele>
        <time>2026-08-06T01:22:35Z</time>
      </trkpt>
      <trkpt lat="34.73927748" lon="135.17856483">
        <ele>470.19</ele>
        <time>2026-08-06T01:24:44Z</time>
      </trkpt>
      <trkpt lat="34.73931541" lon="135.17853501">
        <ele>479.19</ele>
        <time>2026-08-06T01:27:32Z</time>
      </trkpt>
      <trkpt lat="34.73916215" lon="135.17851032">
        <ele>473.23</ele>
        <time>2026-08-06T01:29:34Z</time>
      </trkpt>
      <trkpt lat="34.73907507" lon="135.17846345">
        <ele>474.17</ele>
        <time>2026-08-06T01:30:10Z</time>
      </trkpt>
      <trkpt lat="34.73898313" lon="135.17847265">
        <ele>473.43</ele>
        <time>2026-08-06T01:30:22Z</time>
      </trkpt>
      <trkpt lat="34.73888398" lon="135.17853432">
        <ele>470.89</ele>
        <time>2026-08-06T01:30:35Z</time>
      </trkpt>
      <trkpt lat="34.7387953" lon="135.178582">
        <ele>472.2</ele>
        <time>2026-08-06T01:30:47Z</time>
      </trkpt>
      <trkpt lat="34.73871533" lon="135.17863565">
        <ele>470.29</ele>
        <time>2026-08-06T01:30:58Z</time>
      </trkpt>
      <trkpt lat="34.73863152" lon="135.1786773">
        <ele>469.51</ele>
        <time>2026-08-06T01:31:09Z</time>
      </trkpt>
      <trkpt lat="34.73853302" lon="135.17872035">
        <ele>470.96</ele>
        <time>2026-08-06T01:31:25Z</time>
      </trkpt>
      <trkpt lat="34.73844398" lon="135.17876544">
        <ele>471.01</ele>
        <time>2026-08-06T01:31:37Z</time>
      </trkpt>
      <trkpt lat="34.7383608" lon="135.17880815">
        <ele>472.18</ele>
        <time>2026-08-06T01:31:59Z</time>
      </trkpt>
      <trkpt lat="34.73829021" lon="135.17888226">
        <ele>471.1</ele>
        <time>2026-08-06T01:32:15Z</time>
      </trkpt>
      <trkpt lat="34.73825093" lon="135.17898532">
        <ele>470.74</ele>
        <time>2026-08-06T01:32:29Z</time>
      </trkpt>
      <trkpt lat="34.73824344" lon="135.17909562">
        <ele>470.08</ele>
        <time>2026-08-06T01:32:41Z</time>
      </trkpt>
      <trkpt lat="34.73819721" lon="135.17919205">
        <ele>470.94</ele>
        <time>2026-08-06T01:32:52Z</time>
      </trkpt>
      <trkpt lat="34.73814523" lon="135.17928403">
        <ele>472.67</ele>
        <time>2026-08-06T01:33:03Z</time>
      </trkpt>
      <trkpt lat="34.73809911" lon="135.17938068">
        <ele>472.23</ele>
        <time>2026-08-06T01:33:16Z</time>
      </trkpt>
      <trkpt lat="34.73802848" lon="135.17944968">
        <ele>473.64</ele>
        <time>2026-08-06T01:33:29Z</time>
      </trkpt>
      <trkpt lat="34.73800971" lon="135.17956062">
        <ele>475.98</ele>
        <time>2026-08-06T01:34:08Z</time>
      </trkpt>
      <trkpt lat="34.73791897" lon="135.17953985">
        <ele>475.8</ele>
        <time>2026-08-06T01:35:41Z</time>
      </trkpt>
      <trkpt lat="34.73782496" lon="135.17955092">
        <ele>477.06</ele>
        <time>2026-08-06T01:37:03Z</time>
      </trkpt>
      <trkpt lat="34.73773597" lon="135.17952729">
        <ele>475.3</ele>
        <time>2026-08-06T01:37:16Z</time>
      </trkpt>
      <trkpt lat="34.73765125" lon="135.17948324">
        <ele>475.39</ele>
        <time>2026-08-06T01:37:28Z</time>
      </trkpt>
      <trkpt lat="34.73756954" lon="135.17943242">
        <ele>475.79</ele>
        <time>2026-08-06T01:37:41Z</time>
      </trkpt>
      <trkpt lat="34.73747917" lon="135.17938134">
        <ele>476.45</ele>
        <time>2026-08-06T01:37:54Z</time>
      </trkpt>
      <trkpt lat="34.73738767" lon="135.17934605">
        <ele>476.76</ele>
        <time>2026-08-06T01:38:07Z</time>
      </trkpt>
      <trkpt lat="34.73729764" lon="135.17930815">
        <ele>476.19</ele>
        <time>2026-08-06T01:38:19Z</time>
      </trkpt>
      <trkpt lat="34.73720633" lon="135.17928937">
        <ele>474.18</ele>
        <time>2026-08-06T01:38:31Z</time>
      </trkpt>
      <trkpt lat="34.73712486" lon="135.17933678">
        <ele>472.76</ele>
        <time>2026-08-06T01:38:41Z</time>
      </trkpt>
      <trkpt lat="34.7370957" lon="135.17945213">
        <ele>472.44</ele>
        <time>2026-08-06T01:38:54Z</time>
      </trkpt>
      <trkpt lat="34.73711387" lon="135.17956823">
        <ele>474.71</ele>
        <time>2026-08-06T01:39:04Z</time>
      </trkpt>
      <trkpt lat="34.73713914" lon="135.17968081">
        <ele>474.74</ele>
        <time>2026-08-06T01:39:15Z</time>
      </trkpt>
      <trkpt lat="34.73716651" lon="135.17978869">
        <ele>475</ele>
        <time>2026-08-06T01:39:41Z</time>
      </trkpt>
      <trkpt lat="34.73721299" lon="135.17990526">
        <ele>477.96</ele>
        <time>2026-08-06T01:40:00Z</time>
      </trkpt>
      <trkpt lat="34.73723703" lon="135.18001148">
        <ele>477.97</ele>
        <time>2026-08-06T01:40:10Z</time>
      </trkpt>
      <trkpt lat="34.73725639" lon="135.18012027">
        <ele>478.81</ele>
        <time>2026-08-06T01:40:20Z</time>
      </trkpt>
      <trkpt lat="34.73728003" lon="135.18022957">
        <ele>478.65</ele>
        <time>2026-08-06T01:40:30Z</time>
      </trkpt>
      <trkpt lat="34.73731483" lon="135.18033418">
        <ele>475.52</ele>
        <time>2026-08-06T01:40:42Z</time>
      </trkpt>
      <trkpt lat="34.73734894" lon="135.18044553">
        <ele>476.39</ele>
        <time>2026-08-06T01:40:53Z</time>
      </trkpt>
      <trkpt lat="34.73738618" lon="135.18057868">
        <ele>476.91</ele>
        <time>2026-08-06T01:41:08Z</time>
      </trkpt>
      <trkpt lat="34.73739921" lon="135.18068913">
        <ele>475.85</ele>
        <time>2026-08-06T01:41:19Z</time>
      </trkpt>
      <trkpt lat="34.73739683" lon="135.18080322">
        <ele>472.67</ele>
        <time>2026-08-06T01:41:30Z</time>
      </trkpt>
      <trkpt lat="34.73740111" lon="135.18091831">
        <ele>470.07</ele>
        <time>2026-08-06T01:41:42Z</time>
      </trkpt>
      <trkpt lat="34.73743266" lon="135.18102621">
        <ele>467.21</ele>
        <time>2026-08-06T01:41:55Z</time>
      </trkpt>
      <trkpt lat="34.73749229" lon="135.18112115">
        <ele>467.68</ele>
        <time>2026-08-06T01:43:04Z</time>
      </trkpt>
      <trkpt lat="34.73756997" lon="135.18119655">
        <ele>468.5</ele>
        <time>2026-08-06T01:43:15Z</time>
      </trkpt>
      <trkpt lat="34.73765046" lon="135.18126009">
        <ele>468.24</ele>
        <time>2026-08-06T01:43:24Z</time>
      </trkpt>
      <trkpt lat="34.73771611" lon="135.18134385">
        <ele>468.05</ele>
        <time>2026-08-06T01:43:35Z</time>
      </trkpt>
      <trkpt lat="34.73776571" lon="135.18144463">
        <ele>467.88</ele>
        <time>2026-08-06T01:43:46Z</time>
      </trkpt>
      <trkpt lat="34.73778617" lon="135.18155686">
        <ele>466.72</ele>
        <time>2026-08-06T01:43:57Z</time>
      </trkpt>
      <trkpt lat="34.73775716" lon="135.18168124">
        <ele>466.23</ele>
        <time>2026-08-06T01:44:09Z</time>
      </trkpt>
      <trkpt lat="34.73771981" lon="135.18178331">
        <ele>465.46</ele>
        <time>2026-08-06T01:44:19Z</time>
      </trkpt>
      <trkpt lat="34.73764963" lon="135.1818576">
        <ele>464.89</ele>
        <time>2026-08-06T01:44:29Z</time>
      </trkpt>
      <trkpt lat="34.73755292" lon="135.18187657">
        <ele>464.12</ele>
        <time>2026-08-06T01:44:40Z</time>
      </trkpt>
      <trkpt lat="34.73745804" lon="135.18189117">
        <ele>463.65</ele>
        <time>2026-08-06T01:44:51Z</time>
      </trkpt>
      <trkpt lat="34.73737609" lon="135.18193959">
        <ele>464.16</ele>
        <time>2026-08-06T01:45:02Z</time>
      </trkpt>
      <trkpt lat="34.73731421" lon="135.18202942">
        <ele>463.34</ele>
        <time>2026-08-06T01:45:15Z</time>
      </trkpt>
      <trkpt lat="34.7372735" lon="135.18213102">
        <ele>462.3</ele>
        <time>2026-08-06T01:45:27Z</time>
      </trkpt>
      <trkpt lat="34.73725943" lon="135.18223889">
        <ele>461.15</ele>
        <time>2026-08-06T01:45:39Z</time>
      </trkpt>
      <trkpt lat="34.73725166" lon="135.18235283">
        <ele>460.91</ele>
        <time>2026-08-06T01:45:51Z</time>
      </trkpt>
      <trkpt lat="34.737243" lon="135.1824798">
        <ele>459.28</ele>
        <time>2026-08-06T01:46:05Z</time>
      </trkpt>
      <trkpt lat="34.73724034" lon="135.1825981">
        <ele>459.09</ele>
        <time>2026-08-06T01:46:17Z</time>
      </trkpt>
      <trkpt lat="34.73724352" lon="135.18271441">
        <ele>456.54</ele>
        <time>2026-08-06T01:46:30Z</time>
      </trkpt>
      <trkpt lat="34.73724086" lon="135.18282501">
        <ele>456.64</ele>
        <time>2026-08-06T01:46:41Z</time>
      </trkpt>
      <trkpt lat="34.73715917" lon="135.1827782">
        <ele>454.69</ele>
        <time>2026-08-06T01:47:06Z</time>
      </trkpt>
      <trkpt lat="34.7371077" lon="135.18268798">
        <ele>451.9</ele>
        <time>2026-08-06T01:47:18Z</time>
      </trkpt>
      <trkpt lat="34.73706107" lon="135.18259241">
        <ele>449.54</ele>
        <time>2026-08-06T01:47:30Z</time>
      </trkpt>
      <trkpt lat="34.73701803" lon="135.18248812">
        <ele>449</ele>
        <time>2026-08-06T01:47:43Z</time>
      </trkpt>
      <trkpt lat="34.73694614" lon="135.18240925">
        <ele>447.9</ele>
        <time>2026-08-06T01:47:55Z</time>
      </trkpt>
      <trkpt lat="34.7368906" lon="135.18232113">
        <ele>448.25</ele>
        <time>2026-08-06T01:48:07Z</time>
      </trkpt>
      <trkpt lat="34.73684838" lon="135.18222213">
        <ele>448.84</ele>
        <time>2026-08-06T01:48:25Z</time>
      </trkpt>
      <trkpt lat="34.73676461" lon="135.18215953">
        <ele>448.64</ele>
        <time>2026-08-06T01:48:39Z</time>
      </trkpt>
      <trkpt lat="34.73667792" lon="135.18220054">
        <ele>449.1</ele>
        <time>2026-08-06T01:48:55Z</time>
      </trkpt>
      <trkpt lat="34.73658441" lon="135.18226846">
        <ele>450</ele>
        <time>2026-08-06T01:49:11Z</time>
      </trkpt>
      <trkpt lat="34.73649353" lon="135.18224034">
        <ele>448.87</ele>
        <time>2026-08-06T01:49:24Z</time>
      </trkpt>
      <trkpt lat="34.73644246" lon="135.18213582">
        <ele>449.13</ele>
        <time>2026-08-06T01:49:36Z</time>
      </trkpt>
      <trkpt lat="34.73641039" lon="135.18203196">
        <ele>447.99</ele>
        <time>2026-08-06T01:49:51Z</time>
      </trkpt>
      <trkpt lat="34.73637641" lon="135.18192782">
        <ele>447.94</ele>
        <time>2026-08-06T01:50:04Z</time>
      </trkpt>
      <trkpt lat="34.73636571" lon="135.18181382">
        <ele>449.44</ele>
        <time>2026-08-06T01:50:16Z</time>
      </trkpt>
      <trkpt lat="34.73641239" lon="135.18171089">
        <ele>448.64</ele>
        <time>2026-08-06T01:50:31Z</time>
      </trkpt>
      <trkpt lat="34.73644045" lon="135.18159587">
        <ele>449.03</ele>
        <time>2026-08-06T01:50:44Z</time>
      </trkpt>
      <trkpt lat="34.73643494" lon="135.18148197">
        <ele>448.89</ele>
        <time>2026-08-06T01:50:57Z</time>
      </trkpt>
      <trkpt lat="34.73652425" lon="135.18144043">
        <ele>448.96</ele>
        <time>2026-08-06T01:51:10Z</time>
      </trkpt>
      <trkpt lat="34.73661522" lon="135.18141404">
        <ele>446.57</ele>
        <time>2026-08-06T01:51:22Z</time>
      </trkpt>
      <trkpt lat="34.73671022" lon="135.18140074">
        <ele>447.73</ele>
        <time>2026-08-06T01:51:35Z</time>
      </trkpt>
      <trkpt lat="34.73676969" lon="135.18131745">
        <ele>447.28</ele>
        <time>2026-08-06T01:51:48Z</time>
      </trkpt>
      <trkpt lat="34.73677328" lon="135.18125246">
        <ele>446.69</ele>
        <time>2026-08-06T01:53:49Z</time>
      </trkpt>
      <trkpt lat="34.73670825" lon="135.18116758">
        <ele>446.96</ele>
        <time>2026-08-06T01:54:20Z</time>
      </trkpt>
      <trkpt lat="34.73664936" lon="135.18108034">
        <ele>447.44</ele>
        <time>2026-08-06T01:54:32Z</time>
      </trkpt>
      <trkpt lat="34.73657906" lon="135.18100085">
        <ele>447.5</ele>
        <time>2026-08-06T01:54:45Z</time>
      </trkpt>
      <trkpt lat="34.73652053" lon="135.1809067">
        <ele>448.3</ele>
        <time>2026-08-06T01:54:56Z</time>
      </trkpt>
      <trkpt lat="34.73645637" lon="135.18082602">
        <ele>445.74</ele>
        <time>2026-08-06T01:55:09Z</time>
      </trkpt>
      <trkpt lat="34.736393" lon="135.1807445">
        <ele>445.11</ele>
        <time>2026-08-06T01:55:22Z</time>
      </trkpt>
      <trkpt lat="34.73629987" lon="135.18072843">
        <ele>446.37</ele>
        <time>2026-08-06T01:55:34Z</time>
      </trkpt>
      <trkpt lat="34.7362361" lon="135.1808163">
        <ele>447.13</ele>
        <time>2026-08-06T01:55:47Z</time>
      </trkpt>
      <trkpt lat="34.73614912" lon="135.18085301">
        <ele>448.7</ele>
        <time>2026-08-06T01:56:04Z</time>
      </trkpt>
      <trkpt lat="34.73606663" lon="135.18090329">
        <ele>448.67</ele>
        <time>2026-08-06T01:56:20Z</time>
      </trkpt>
      <trkpt lat="34.73603119" lon="135.18092498">
        <ele>446.63</ele>
        <time>2026-08-06T01:58:21Z</time>
      </trkpt>
      <trkpt lat="34.73602638" lon="135.18091971">
        <ele>446.24</ele>
        <time>2026-08-06T02:00:22Z</time>
      </trkpt>
      <trkpt lat="34.73602709" lon="135.18090684">
        <ele>445.7</ele>
        <time>2026-08-06T02:02:34Z</time>
      </trkpt>
      <trkpt lat="34.7360751" lon="135.18080783">
        <ele>444.35</ele>
        <time>2026-08-06T02:02:52Z</time>
      </trkpt>
      <trkpt lat="34.73607434" lon="135.18068877">
        <ele>444.01</ele>
        <time>2026-08-06T02:03:05Z</time>
      </trkpt>
      <trkpt lat="34.73610811" lon="135.18058695">
        <ele>445.16</ele>
        <time>2026-08-06T02:03:16Z</time>
      </trkpt>
      <trkpt lat="34.73611109" lon="135.18046993">
        <ele>445.06</ele>
        <time>2026-08-06T02:03:28Z</time>
      </trkpt>
      <trkpt lat="34.73605263" lon="135.18038605">
        <ele>445.47</ele>
        <time>2026-08-06T02:03:48Z</time>
      </trkpt>
      <trkpt lat="34.73595856" lon="135.18035731">
        <ele>446</ele>
        <time>2026-08-06T02:04:01Z</time>
      </trkpt>
      <trkpt lat="34.73587577" lon="135.18029337">
        <ele>447.43</ele>
        <time>2026-08-06T02:04:15Z</time>
      </trkpt>
      <trkpt lat="34.73582211" lon="135.18020079">
        <ele>448.42</ele>
        <time>2026-08-06T02:04:33Z</time>
      </trkpt>
      <trkpt lat="34.73578238" lon="135.18010191">
        <ele>449.83</ele>
        <time>2026-08-06T02:04:57Z</time>
      </trkpt>
      <trkpt lat="34.73576801" lon="135.17999394">
        <ele>449.82</ele>
        <time>2026-08-06T02:05:11Z</time>
      </trkpt>
      <trkpt lat="34.73580779" lon="135.17989279">
        <ele>449.75</ele>
        <time>2026-08-06T02:05:29Z</time>
      </trkpt>
      <trkpt lat="34.73588535" lon="135.17981698">
        <ele>450.78</ele>
        <time>2026-08-06T02:05:44Z</time>
      </trkpt>
      <trkpt lat="34.7359535" lon="135.17972503">
        <ele>448.63</ele>
        <time>2026-08-06T02:06:35Z</time>
      </trkpt>
      <trkpt lat="34.73599902" lon="135.1796231">
        <ele>449.18</ele>
        <time>2026-08-06T02:06:50Z</time>
      </trkpt>
      <trkpt lat="34.73600444" lon="135.17951177">
        <ele>450.85</ele>
        <time>2026-08-06T02:07:06Z</time>
      </trkpt>
      <trkpt lat="34.73590226" lon="135.17948373">
        <ele>449.04</ele>
        <time>2026-08-06T02:07:38Z</time>
      </trkpt>
      <trkpt lat="34.73581465" lon="135.17945376">
        <ele>447.76</ele>
        <time>2026-08-06T02:08:00Z</time>
      </trkpt>
      <trkpt lat="34.7357354" lon="135.17939303">
        <ele>446.4</ele>
        <time>2026-08-06T02:08:12Z</time>
      </trkpt>
      <trkpt lat="34.73566994" lon="135.17930471">
        <ele>446.63</ele>
        <time>2026-08-06T02:08:24Z</time>
      </trkpt>
      <trkpt lat="34.73563471" lon="135.17917337">
        <ele>447.56</ele>
        <time>2026-08-06T02:08:39Z</time>
      </trkpt>
      <trkpt lat="34.73563887" lon="135.17905856">
        <ele>446.36</ele>
        <time>2026-08-06T02:08:51Z</time>
      </trkpt>
      <trkpt lat="34.73568274" lon="135.17895709">
        <ele>446.52</ele>
        <time>2026-08-06T02:09:04Z</time>
      </trkpt>
      <trkpt lat="34.73567454" lon="135.17884766">
        <ele>446.1</ele>
        <time>2026-08-06T02:09:18Z</time>
      </trkpt>
      <trkpt lat="34.73557832" lon="135.17884158">
        <ele>444.43</ele>
        <time>2026-08-06T02:09:33Z</time>
      </trkpt>
      <trkpt lat="34.73548741" lon="135.17882234">
        <ele>444.33</ele>
        <time>2026-08-06T02:09:51Z</time>
      </trkpt>
      <trkpt lat="34.7354486" lon="135.17872272">
        <ele>444.67</ele>
        <time>2026-08-06T02:10:05Z</time>
      </trkpt>
      <trkpt lat="34.73543007" lon="135.17860127">
        <ele>447.23</ele>
        <time>2026-08-06T02:10:19Z</time>
      </trkpt>
      <trkpt lat="34.73542367" lon="135.17848025">
        <ele>447.84</ele>
        <time>2026-08-06T02:10:47Z</time>
      </trkpt>
      <trkpt lat="34.73551696" lon="135.17847235">
        <ele>453.88</ele>
        <time>2026-08-06T02:11:28Z</time>
      </trkpt>
      <trkpt lat="34.73542459" lon="135.17844787">
        <ele>452.76</ele>
        <time>2026-08-06T02:11:52Z</time>
      </trkpt>
      <trkpt lat="34.73533632" lon="135.17839727">
        <ele>454.13</ele>
        <time>2026-08-06T02:12:04Z</time>
      </trkpt>
      <trkpt lat="34.73525282" lon="135.17834427">
        <ele>453.93</ele>
        <time>2026-08-06T02:12:17Z</time>
      </trkpt>
      <trkpt lat="34.7351728" lon="135.17829134">
        <ele>456.31</ele>
        <time>2026-08-06T02:12:55Z</time>
      </trkpt>
      <trkpt lat="34.73508437" lon="135.17826361">
        <ele>451.81</ele>
        <time>2026-08-06T02:13:42Z</time>
      </trkpt>
      <trkpt lat="34.73501123" lon="135.17819599">
        <ele>449.92</ele>
        <time>2026-08-06T02:14:31Z</time>
      </trkpt>
      <trkpt lat="34.73491599" lon="135.17816927">
        <ele>453.05</ele>
        <time>2026-08-06T02:15:04Z</time>
      </trkpt>
      <trkpt lat="34.73482498" lon="135.17815102">
        <ele>455.2</ele>
        <time>2026-08-06T02:15:26Z</time>
      </trkpt>
      <trkpt lat="34.7347341" lon="135.1781466">
        <ele>457.18</ele>
        <time>2026-08-06T02:15:52Z</time>
      </trkpt>
      <trkpt lat="34.73464395" lon="135.17811471">
        <ele>458.58</ele>
        <time>2026-08-06T02:16:09Z</time>
      </trkpt>
      <trkpt lat="34.73455512" lon="135.17807977">
        <ele>460.23</ele>
        <time>2026-08-06T02:16:25Z</time>
      </trkpt>
      <trkpt lat="34.7344734" lon="135.17801912">
        <ele>458.94</ele>
        <time>2026-08-06T02:16:43Z</time>
      </trkpt>
      <trkpt lat="34.73439044" lon="135.17796759">
        <ele>457.95</ele>
        <time>2026-08-06T02:16:59Z</time>
      </trkpt>
      <trkpt lat="34.73431336" lon="135.17790383">
        <ele>460.4</ele>
        <time>2026-08-06T02:17:14Z</time>
      </trkpt>
      <trkpt lat="34.73425043" lon="135.17781801">
        <ele>461.73</ele>
        <time>2026-08-06T02:17:29Z</time>
      </trkpt>
      <trkpt lat="34.7341776" lon="135.17775243">
        <ele>461.58</ele>
        <time>2026-08-06T02:17:44Z</time>
      </trkpt>
      <trkpt lat="34.73410086" lon="135.17768006">
        <ele>461.6</ele>
        <time>2026-08-06T02:17:59Z</time>
      </trkpt>
      <trkpt lat="34.73402268" lon="135.17761529">
        <ele>462.84</ele>
        <time>2026-08-06T02:18:14Z</time>
      </trkpt>
      <trkpt lat="34.73397014" lon="135.17751994">
        <ele>467.2</ele>
        <time>2026-08-06T02:18:27Z</time>
      </trkpt>
      <trkpt lat="34.733959" lon="135.17739999">
        <ele>470.3</ele>
        <time>2026-08-06T02:18:39Z</time>
      </trkpt>
      <trkpt lat="34.73392201" lon="135.17729127">
        <ele>473.83</ele>
        <time>2026-08-06T02:18:53Z</time>
      </trkpt>
      <trkpt lat="34.73385343" lon="135.17721387">
        <ele>480.24</ele>
        <time>2026-08-06T02:19:08Z</time>
      </trkpt>
      <trkpt lat="34.73375854" lon="135.17717829">
        <ele>479.85</ele>
        <time>2026-08-06T02:19:20Z</time>
      </trkpt>
      <trkpt lat="34.73370262" lon="135.17709105">
        <ele>478.8</ele>
        <time>2026-08-06T02:19:32Z</time>
      </trkpt>
      <trkpt lat="34.73362483" lon="135.17629083">
        <ele>483.95</ele>
        <time>2026-08-06T02:26:08Z</time>
      </trkpt>
      <trkpt lat="34.733629" lon="135.17617994">
        <ele>482.75</ele>
        <time>2026-08-06T02:26:19Z</time>
      </trkpt>
      <trkpt lat="34.73364202" lon="135.17604714">
        <ele>482.58</ele>
        <time>2026-08-06T02:26:33Z</time>
      </trkpt>
      <trkpt lat="34.73364004" lon="135.17593287">
        <ele>481.98</ele>
        <time>2026-08-06T02:26:47Z</time>
      </trkpt>
      <trkpt lat="34.73367566" lon="135.17583252">
        <ele>478.59</ele>
        <time>2026-08-06T02:27:03Z</time>
      </trkpt>
      <trkpt lat="34.73369634" lon="135.17572617">
        <ele>477.73</ele>
        <time>2026-08-06T02:27:18Z</time>
      </trkpt>
      <trkpt lat="34.73372501" lon="135.17561922">
        <ele>475.48</ele>
        <time>2026-08-06T02:27:31Z</time>
      </trkpt>
      <trkpt lat="34.7337793" lon="135.17552627">
        <ele>473.8</ele>
        <time>2026-08-06T02:27:43Z</time>
      </trkpt>
      <trkpt lat="34.7338401" lon="135.17543577">
        <ele>472.88</ele>
        <time>2026-08-06T02:27:57Z</time>
      </trkpt>
      <trkpt lat="34.73387469" lon="135.1753176">
        <ele>469.52</ele>
        <time>2026-08-06T02:28:11Z</time>
      </trkpt>
      <trkpt lat="34.73389457" lon="135.17520663">
        <ele>467.92</ele>
        <time>2026-08-06T02:28:26Z</time>
      </trkpt>
      <trkpt lat="34.7339029" lon="135.17509234">
        <ele>468.88</ele>
        <time>2026-08-06T02:28:38Z</time>
      </trkpt>
      <trkpt lat="34.73389894" lon="135.1749758">
        <ele>467.48</ele>
        <time>2026-08-06T02:28:52Z</time>
      </trkpt>
      <trkpt lat="34.73391495" lon="135.17486296">
        <ele>467.87</ele>
        <time>2026-08-06T02:29:12Z</time>
      </trkpt>
      <trkpt lat="34.73394353" lon="135.17475312">
        <ele>468.72</ele>
        <time>2026-08-06T02:29:35Z</time>
      </trkpt>
      <trkpt lat="34.73393667" lon="135.17463895">
        <ele>469.42</ele>
        <time>2026-08-06T02:29:57Z</time>
      </trkpt>
      <trkpt lat="34.73392572" lon="135.17452791">
        <ele>464.5</ele>
        <time>2026-08-06T02:30:21Z</time>
      </trkpt>
      <trkpt lat="34.73398186" lon="135.1744309">
        <ele>464.11</ele>
        <time>2026-08-06T02:30:35Z</time>
      </trkpt>
      <trkpt lat="34.73404486" lon="135.17431937">
        <ele>462.78</ele>
        <time>2026-08-06T02:30:51Z</time>
      </trkpt>
      <trkpt lat="34.73410981" lon="135.17423879">
        <ele>462.35</ele>
        <time>2026-08-06T02:31:04Z</time>
      </trkpt>
      <trkpt lat="34.73414693" lon="135.17413314">
        <ele>460.96</ele>
        <time>2026-08-06T02:31:20Z</time>
      </trkpt>
      <trkpt lat="34.73416718" lon="135.17402379">
        <ele>459.89</ele>
        <time>2026-08-06T02:31:35Z</time>
      </trkpt>
      <trkpt lat="34.73417146" lon="135.17391384">
        <ele>461.42</ele>
        <time>2026-08-06T02:32:01Z</time>
      </trkpt>
      <trkpt lat="34.73418149" lon="135.17380217">
        <ele>460.64</ele>
        <time>2026-08-06T02:32:25Z</time>
      </trkpt>
      <trkpt lat="34.73420857" lon="135.17368952">
        <ele>459.54</ele>
        <time>2026-08-06T02:32:39Z</time>
      </trkpt>
      <trkpt lat="34.73424057" lon="135.17357984">
        <ele>458.34</ele>
        <time>2026-08-06T02:32:55Z</time>
      </trkpt>
      <trkpt lat="34.73428745" lon="135.17348443">
        <ele>457.43</ele>
        <time>2026-08-06T02:33:08Z</time>
      </trkpt>
      <trkpt lat="34.73432711" lon="135.17338548">
        <ele>455.9</ele>
        <time>2026-08-06T02:33:54Z</time>
      </trkpt>
      <trkpt lat="34.73442066" lon="135.17341222">
        <ele>455.18</ele>
        <time>2026-08-06T02:34:05Z</time>
      </trkpt>
      <trkpt lat="34.73451662" lon="135.17344228">
        <ele>454.76</ele>
        <time>2026-08-06T02:34:16Z</time>
      </trkpt>
      <trkpt lat="34.73459347" lon="135.17350583">
        <ele>455.86</ele>
        <time>2026-08-06T02:34:27Z</time>
      </trkpt>
      <trkpt lat="34.7346741" lon="135.17356864">
        <ele>456.51</ele>
        <time>2026-08-06T02:34:41Z</time>
      </trkpt>
      <trkpt lat="34.73478172" lon="135.17362883">
        <ele>455.27</ele>
        <time>2026-08-06T02:34:57Z</time>
      </trkpt>
      <trkpt lat="34.73485821" lon="135.17368995">
        <ele>458.05</ele>
        <time>2026-08-06T02:35:10Z</time>
      </trkpt>
      <trkpt lat="34.73494805" lon="135.17372079">
        <ele>460.91</ele>
        <time>2026-08-06T02:35:21Z</time>
      </trkpt>
      <trkpt lat="34.73503749" lon="135.17375581">
        <ele>462.03</ele>
        <time>2026-08-06T02:35:32Z</time>
      </trkpt>
      <trkpt lat="34.735126" lon="135.17380143">
        <ele>461.89</ele>
        <time>2026-08-06T02:35:44Z</time>
      </trkpt>
      <trkpt lat="34.73521194" lon="135.17386981">
        <ele>462.99</ele>
        <time>2026-08-06T02:35:59Z</time>
      </trkpt>
      <trkpt lat="34.73529148" lon="135.17392826">
        <ele>463.72</ele>
        <time>2026-08-06T02:36:13Z</time>
      </trkpt>
      <trkpt lat="34.73537517" lon="135.17397886">
        <ele>464.34</ele>
        <time>2026-08-06T02:36:26Z</time>
      </trkpt>
      <trkpt lat="34.73545574" lon="135.17402873">
        <ele>464.67</ele>
        <time>2026-08-06T02:36:46Z</time>
      </trkpt>
      <trkpt lat="34.73553986" lon="135.17406873">
        <ele>463.21</ele>
        <time>2026-08-06T02:36:58Z</time>
      </trkpt>
      <trkpt lat="34.73562624" lon="135.1741077">
        <ele>463.64</ele>
        <time>2026-08-06T02:37:11Z</time>
      </trkpt>
      <trkpt lat="34.73571953" lon="135.17411464">
        <ele>462.86</ele>
        <time>2026-08-06T02:37:25Z</time>
      </trkpt>
      <trkpt lat="34.73581365" lon="135.1741192">
        <ele>461.84</ele>
        <time>2026-08-06T02:37:39Z</time>
      </trkpt>
      <trkpt lat="34.73590056" lon="135.17417153">
        <ele>465.7</ele>
        <time>2026-08-06T02:37:51Z</time>
      </trkpt>
      <trkpt lat="34.73598288" lon="135.17423502">
        <ele>466.03</ele>
        <time>2026-08-06T02:38:02Z</time>
      </trkpt>
      <trkpt lat="34.73606548" lon="135.1742941">
        <ele>468.24</ele>
        <time>2026-08-06T02:38:20Z</time>
      </trkpt>
      <trkpt lat="34.73614606" lon="135.17436345">
        <ele>471.2</ele>
        <time>2026-08-06T02:38:31Z</time>
      </trkpt>
      <trkpt lat="34.73623713" lon="135.17440405">
        <ele>470.89</ele>
        <time>2026-08-06T02:38:44Z</time>
      </trkpt>
      <trkpt lat="34.73636191" lon="135.17443584">
        <ele>472.59</ele>
        <time>2026-08-06T02:38:59Z</time>
      </trkpt>
      <trkpt lat="34.7364468" lon="135.17447681">
        <ele>472.12</ele>
        <time>2026-08-06T02:39:12Z</time>
      </trkpt>
      <trkpt lat="34.73652459" lon="135.17453399">
        <ele>471.15</ele>
        <time>2026-08-06T02:39:27Z</time>
      </trkpt>
      <trkpt lat="34.73660481" lon="135.17458421">
        <ele>470.19</ele>
        <time>2026-08-06T02:39:42Z</time>
      </trkpt>
      <trkpt lat="34.7366876" lon="135.17463751">
        <ele>473.68</ele>
        <time>2026-08-06T02:40:08Z</time>
      </trkpt>
      <trkpt lat="34.73675773" lon="135.17471214">
        <ele>476.1</ele>
        <time>2026-08-06T02:40:42Z</time>
      </trkpt>
      <trkpt lat="34.73683764" lon="135.17478559">
        <ele>478.21</ele>
        <time>2026-08-06T02:41:50Z</time>
      </trkpt>
      <trkpt lat="34.73692051" lon="135.17483876">
        <ele>478.21</ele>
        <time>2026-08-06T02:42:01Z</time>
      </trkpt>
      <trkpt lat="34.73700221" lon="135.17489882">
        <ele>480.64</ele>
        <time>2026-08-06T02:42:15Z</time>
      </trkpt>
      <trkpt lat="34.73709532" lon="135.17490007">
        <ele>482.16</ele>
        <time>2026-08-06T02:42:28Z</time>
      </trkpt>
      <trkpt lat="34.73718841" lon="135.17488238">
        <ele>479.43</ele>
        <time>2026-08-06T02:42:42Z</time>
      </trkpt>
      <trkpt lat="34.73727439" lon="135.17483484">
        <ele>474.68</ele>
        <time>2026-08-06T02:42:55Z</time>
      </trkpt>
      <trkpt lat="34.73737885" lon="135.17482114">
        <ele>473.52</ele>
        <time>2026-08-06T02:43:09Z</time>
      </trkpt>
      <trkpt lat="34.73747029" lon="135.17481511">
        <ele>472.88</ele>
        <time>2026-08-06T02:43:21Z</time>
      </trkpt>
      <trkpt lat="34.73756376" lon="135.17485708">
        <ele>474.47</ele>
        <time>2026-08-06T02:43:33Z</time>
      </trkpt>
      <trkpt lat="34.73764881" lon="135.17489641">
        <ele>474.79</ele>
        <time>2026-08-06T02:43:43Z</time>
      </trkpt>
      <trkpt lat="34.7377286" lon="135.1749567">
        <ele>474.56</ele>
        <time>2026-08-06T02:43:55Z</time>
      </trkpt>
      <trkpt lat="34.73780114" lon="135.17502402">
        <ele>475.4</ele>
        <time>2026-08-06T02:44:07Z</time>
      </trkpt>
      <trkpt lat="34.73787838" lon="135.17509157">
        <ele>475.02</ele>
        <time>2026-08-06T02:44:53Z</time>
      </trkpt>
      <trkpt lat="34.73796869" lon="135.17511151">
        <ele>474.22</ele>
        <time>2026-08-06T02:45:17Z</time>
      </trkpt>
      <trkpt lat="34.73804689" lon="135.17516985">
        <ele>475.44</ele>
        <time>2026-08-06T02:45:28Z</time>
      </trkpt>
      <trkpt lat="34.73810868" lon="135.17525236">
        <ele>474.16</ele>
        <time>2026-08-06T02:45:51Z</time>
      </trkpt>
      <trkpt lat="34.73816302" lon="135.17535049">
        <ele>474.9</ele>
        <time>2026-08-06T02:46:03Z</time>
      </trkpt>
      <trkpt lat="34.73819735" lon="135.17545247">
        <ele>475.03</ele>
        <time>2026-08-06T02:46:14Z</time>
      </trkpt>
      <trkpt lat="34.73820823" lon="135.17556535">
        <ele>475.43</ele>
        <time>2026-08-06T02:46:25Z</time>
      </trkpt>
      <trkpt lat="34.73821666" lon="135.1756819">
        <ele>475.69</ele>
        <time>2026-08-06T02:46:37Z</time>
      </trkpt>
      <trkpt lat="34.73821289" lon="135.17579843">
        <ele>476.95</ele>
        <time>2026-08-06T02:46:48Z</time>
      </trkpt>
      <trkpt lat="34.73816458" lon="135.17589708">
        <ele>477.5</ele>
        <time>2026-08-06T02:46:58Z</time>
      </trkpt>
      <trkpt lat="34.73809494" lon="135.17599045">
        <ele>476.34</ele>
        <time>2026-08-06T02:47:09Z</time>
      </trkpt>
      <trkpt lat="34.73805729" lon="135.17609374">
        <ele>475.26</ele>
        <time>2026-08-06T02:47:21Z</time>
      </trkpt>
      <trkpt lat="34.73809735" lon="135.17621414">
        <ele>475.11</ele>
        <time>2026-08-06T02:47:35Z</time>
      </trkpt>
      <trkpt lat="34.73817985" lon="135.17627542">
        <ele>474.33</ele>
        <time>2026-08-06T02:47:47Z</time>
      </trkpt>
      <trkpt lat="34.73826748" lon="135.17630164">
        <ele>473.77</ele>
        <time>2026-08-06T02:47:58Z</time>
      </trkpt>
      <trkpt lat="34.738358" lon="135.17627446">
        <ele>472.46</ele>
        <time>2026-08-06T02:48:12Z</time>
      </trkpt>
      <trkpt lat="34.73839314" lon="135.17625365">
        <ele>470.81</ele>
        <time>2026-08-06T02:50:13Z</time>
      </trkpt>
      <trkpt lat="34.73848323" lon="135.17626583">
        <ele>469.75</ele>
        <time>2026-08-06T02:50:23Z</time>
      </trkpt>
      <trkpt lat="34.73857886" lon="135.17625794">
        <ele>471.5</ele>
        <time>2026-08-06T02:50:36Z</time>
      </trkpt>
      <trkpt lat="34.73859649" lon="135.17622902">
        <ele>471.5</ele>
        <time>2026-08-06T02:52:37Z</time>
      </trkpt>
      <trkpt lat="34.73859568" lon="135.17622829">
        <ele>471.61</ele>
        <time>2026-08-06T02:54:38Z</time>
      </trkpt>
      <trkpt lat="34.73859417" lon="135.17622754">
        <ele>471.75</ele>
        <time>2026-08-06T02:58:38Z</time>
      </trkpt>
      <trkpt lat="34.73859358" lon="135.17622743">
        <ele>471.88</ele>
        <time>2026-08-06T03:00:39Z</time>
      </trkpt>
      <trkpt lat="34.73859407" lon="135.17622391">
        <ele>471.84</ele>
        <time>2026-08-06T03:02:41Z</time>
      </trkpt>
      <trkpt lat="34.73859406" lon="135.17622439">
        <ele>471.91</ele>
        <time>2026-08-06T03:06:49Z</time>
      </trkpt>
      <trkpt lat="34.73859406" lon="135.17622439">
        <ele>471.91</ele>
        <time>2026-08-06T03:12:17Z</time>
      </trkpt>
      <trkpt lat="34.73859406" lon="135.17622439">
        <ele>471.91</ele>
        <time>2026-08-06T03:15:20Z</time>
      </trkpt>
      <trkpt lat="34.73859406" lon="135.17622439">
        <ele>471.91</ele>
        <time>2026-08-06T03:22:32Z</time>
      </trkpt>
      <trkpt lat="34.73911215" lon="135.17838501">
        <ele>467.99</ele>
        <time>2026-08-06T03:29:45Z</time>
      </trkpt>
      <trkpt lat="34.73908813" lon="135.1783987">
        <ele>490.22</ele>
        <time>2026-08-06T03:31:47Z</time>
      </trkpt>
      <trkpt lat="34.73911227" lon="135.17839529">
        <ele>488.55</ele>
        <time>2026-08-06T03:33:48Z</time>
      </trkpt>
      <trkpt lat="34.73911282" lon="135.17839488">
        <ele>488.44</ele>
        <time>2026-08-06T03:35:49Z</time>
      </trkpt>
      <trkpt lat="34.73915142" lon="135.17828226">
        <ele>485.27</ele>
        <time>2026-08-06T03:37:07Z</time>
      </trkpt>
      <trkpt lat="34.73919311" lon="135.1781776">
        <ele>480.82</ele>
        <time>2026-08-06T03:37:17Z</time>
      </trkpt>
      <trkpt lat="34.73924408" lon="135.17808704">
        <ele>482.64</ele>
        <time>2026-08-06T03:37:26Z</time>
      </trkpt>
      <trkpt lat="34.73931568" lon="135.17801104">
        <ele>478.39</ele>
        <time>2026-08-06T03:37:36Z</time>
      </trkpt>
      <trkpt lat="34.73939183" lon="135.1779515">
        <ele>475.62</ele>
        <time>2026-08-06T03:37:47Z</time>
      </trkpt>
      <trkpt lat="34.7394673" lon="135.1778875">
        <ele>475.07</ele>
        <time>2026-08-06T03:37:59Z</time>
      </trkpt>
      <trkpt lat="34.73955228" lon="135.1778296">
        <ele>474.92</ele>
        <time>2026-08-06T03:38:11Z</time>
      </trkpt>
      <trkpt lat="34.73964284" lon="135.17778585">
        <ele>476.21</ele>
        <time>2026-08-06T03:38:23Z</time>
      </trkpt>
      <trkpt lat="34.73973377" lon="135.17776328">
        <ele>477.98</ele>
        <time>2026-08-06T03:38:35Z</time>
      </trkpt>
      <trkpt lat="34.73982948" lon="135.17774791">
        <ele>479.04</ele>
        <time>2026-08-06T03:38:48Z</time>
      </trkpt>
      <trkpt lat="34.73992478" lon="135.17775309">
        <ele>479.45</ele>
        <time>2026-08-06T03:39:01Z</time>
      </trkpt>
      <trkpt lat="34.74002047" lon="135.17773976">
        <ele>479.87</ele>
        <time>2026-08-06T03:39:14Z</time>
      </trkpt>
      <trkpt lat="34.74011084" lon="135.1777346">
        <ele>480.94</ele>
        <time>2026-08-06T03:39:27Z</time>
      </trkpt>
      <trkpt lat="34.74021001" lon="135.17772317">
        <ele>479.92</ele>
        <time>2026-08-06T03:39:39Z</time>
      </trkpt>
      <trkpt lat="34.74029822" lon="135.17776495">
        <ele>482.42</ele>
        <time>2026-08-06T03:39:52Z</time>
      </trkpt>
      <trkpt lat="34.74034842" lon="135.17786009">
        <ele>485.03</ele>
        <time>2026-08-06T03:40:03Z</time>
      </trkpt>
      <trkpt lat="34.74044203" lon="135.17788246">
        <ele>485.6</ele>
        <time>2026-08-06T03:40:16Z</time>
      </trkpt>
      <trkpt lat="34.74053245" lon="135.17787925">
        <ele>486.32</ele>
        <time>2026-08-06T03:40:25Z</time>
      </trkpt>
      <trkpt lat="34.74061486" lon="135.17794467">
        <ele>484.97</ele>
        <time>2026-08-06T03:40:36Z</time>
      </trkpt>
      <trkpt lat="34.7407113" lon="135.17796746">
        <ele>484.29</ele>
        <time>2026-08-06T03:40:47Z</time>
      </trkpt>
      <trkpt lat="34.7407887" lon="135.17789623">
        <ele>487.14</ele>
        <time>2026-08-06T03:40:57Z</time>
      </trkpt>
      <trkpt lat="34.7408717" lon="135.17783788">
        <ele>486.03</ele>
        <time>2026-08-06T03:41:09Z</time>
      </trkpt>
      <trkpt lat="34.74096487" lon="135.17781057">
        <ele>484.39</ele>
        <time>2026-08-06T03:41:30Z</time>
      </trkpt>
      <trkpt lat="34.74105471" lon="135.17776068">
        <ele>484.34</ele>
        <time>2026-08-06T03:41:44Z</time>
      </trkpt>
      <trkpt lat="34.74114823" lon="135.17773568">
        <ele>482.74</ele>
        <time>2026-08-06T03:41:55Z</time>
      </trkpt>
      <trkpt lat="34.74123687" lon="135.17770265">
        <ele>482.35</ele>
        <time>2026-08-06T03:42:06Z</time>
      </trkpt>
      <trkpt lat="34.74129914" lon="135.17761939">
        <ele>481.64</ele>
        <time>2026-08-06T03:42:17Z</time>
      </trkpt>
      <trkpt lat="34.74136895" lon="135.17754453">
        <ele>484.05</ele>
        <time>2026-08-06T03:42:27Z</time>
      </trkpt>
      <trkpt lat="34.74145536" lon="135.17747604">
        <ele>481.59</ele>
        <time>2026-08-06T03:42:41Z</time>
      </trkpt>
      <trkpt lat="34.74153328" lon="135.17740307">
        <ele>482.21</ele>
        <time>2026-08-06T03:42:52Z</time>
      </trkpt>
      <trkpt lat="34.74160259" lon="135.17732027">
        <ele>481.21</ele>
        <time>2026-08-06T03:43:03Z</time>
      </trkpt>
      <trkpt lat="34.7416872" lon="135.17725788">
        <ele>480.11</ele>
        <time>2026-08-06T03:43:15Z</time>
      </trkpt>
      <trkpt lat="34.74175633" lon="135.17717929">
        <ele>480.21</ele>
        <time>2026-08-06T03:43:26Z</time>
      </trkpt>
      <trkpt lat="34.74186336" lon="135.17714377">
        <ele>479.99</ele>
        <time>2026-08-06T03:43:37Z</time>
      </trkpt>
      <trkpt lat="34.74195585" lon="135.17711394">
        <ele>479.83</ele>
        <time>2026-08-06T03:43:48Z</time>
      </trkpt>
      <trkpt lat="34.74193585" lon="135.17700468">
        <ele>478.72</ele>
        <time>2026-08-06T03:44:02Z</time>
      </trkpt>
      <trkpt lat="34.74192179" lon="135.17701468">
        <ele>479.17</ele>
        <time>2026-08-06T03:46:03Z</time>
      </trkpt>
      <trkpt lat="34.74200908" lon="135.17697706">
        <ele>476.63</ele>
        <time>2026-08-06T03:47:49Z</time>
      </trkpt>
    </trkseg>
  </trk>
</gpx>