<?xml version='1.0' encoding='UTF-8' standalone='yes' ?>
<gpx xmlns="http://www.topografix.com/GPX/1/1" xmlns:geotracker="http://ilyabogdanovich.com/gpx/extensions/geotracker" xmlns:xsi="http://www.w3.org/2001/XMLSchema-instance" xsi:schemaLocation="http://www.topografix.com/GPX/1/1 http://www.topografix.com/GPX/1/1/gpx.xsd" version="1.1" creator="Recorded in Geo Tracker for Android from Ilya Bogdanovich">
  <metadata>
    <name>2026/10/02 10:40:57</name>
    <author>
      <name>Recorded in Geo Tracker for Android from Ilya Bogdanovich</name>
      <link href="https://play.google.com/store/apps/details?id=com.ilyabogdanovich.geotracker" />
    </author>
    <link href="https://play.google.com/store/apps/details?id=com.ilyabogdanovich.geotracker" />
    <time>2026-10-02T01:40:57Z</time>
  </metadata>
  <wpt lat="34.91543608" lon="135.21953253">
    <ele>209.72</ele>
    <time>2026-10-02T02:21:50Z</time>
    <name>Stop for ~5 min</name>
    <desc>Elevation: 210 m
Time from start: 00:40:52
Distance from start: 1.98 km</desc>
    <extensions>
      <geotracker:meta emoji="⏱️" />
    </extensions>
  </wpt>
  <wpt lat="34.91601862" lon="135.22618509">
    <ele>230.18</ele>
    <time>2026-10-02T02:53:17Z</time>
    <name>Stop for ~6 min</name>
    <desc>Elevation: 230 m
Time from start: 01:12:19
Distance from start: 2.99 km</desc>
    <extensions>
      <geotracker:meta emoji="⏱️" />
    </extensions>
  </wpt>
  <wpt lat="34.9150118" lon="135.22533416">
    <ele>235.17</ele>
    <time>2026-10-02T03:48:46Z</time>
    <name>Stop for ~5 min</name>
    <desc>Elevation: 235 m
Time from start: 02:07:48
Distance from start: 4.1 km</desc>
    <extensions>
      <geotracker:meta emoji="⏱️" />
    </extensions>
  </wpt>
  <wpt lat="34.91517101" lon="135.22426852">
    <ele>233.58</ele>
    <time>2026-10-02T04:04:48Z</time>
    <name>Stop for ~4 min</name>
    <desc>Elevation: 234 m
Time from start: 02:23:50
Distance from start: 4.23 km</desc>
    <extensions>
      <geotracker:meta emoji="⏱️" />
    </extensions>
  </wpt>
  <trk>
    <name>2026/10/02 10:40:57</name>
    <src>Recorded in Geo Tracker for Android from Ilya Bogdanovich</src>
    <link href="https://play.google.com/store/apps/details?id=com.ilyabogdanovich.geotracker" />
    <extensions>
      <geotracker:meta>
        <geotracker:length>6429.16</geotracker:length>
        <geotracker:duration>11320805</geotracker:duration>
        <geotracker:creationtime>2026-10-02T01:40:57Z</geotracker:creationtime>
        <geotracker:activity>0</geotracker:activity>
      </geotracker:meta>
    </extensions>
    <trkseg>
      <trkpt lat="34.91013668" lon="135.20824062">
        <ele>192.02</ele>
        <time>2026-10-02T01:41:05Z</time>
      </trkpt>
      <trkpt lat="34.91019362" lon="135.20815063">
        <ele>190.29</ele>
        <time>2026-10-02T01:41:25Z</time>
      </trkpt>
      <trkpt lat="34.91016024" lon="135.20803596">
        <ele>188.33</ele>
        <time>2026-10-02T01:41:39Z</time>
      </trkpt>
      <trkpt lat="34.91015355" lon="135.20792627">
        <ele>193.26</ele>
        <time>2026-10-02T01:41:55Z</time>
      </trkpt>
      <trkpt lat="34.91024904" lon="135.20788127">
        <ele>194.85</ele>
        <time>2026-10-02T01:42:10Z</time>
      </trkpt>
      <trkpt lat="34.91033482" lon="135.20784567">
        <ele>193.68</ele>
        <time>2026-10-02T01:42:21Z</time>
      </trkpt>
      <trkpt lat="34.91042115" lon="135.20780247">
        <ele>193.07</ele>
        <time>2026-10-02T01:42:32Z</time>
      </trkpt>
      <trkpt lat="34.91050521" lon="135.20775403">
        <ele>191.87</ele>
        <time>2026-10-02T01:42:43Z</time>
      </trkpt>
      <trkpt lat="34.91059528" lon="135.2077213">
        <ele>192.09</ele>
        <time>2026-10-02T01:42:53Z</time>
      </trkpt>
      <trkpt lat="34.91070132" lon="135.20772617">
        <ele>192.09</ele>
        <time>2026-10-02T01:43:04Z</time>
      </trkpt>
      <trkpt lat="34.91079119" lon="135.20769328">
        <ele>191.49</ele>
        <time>2026-10-02T01:43:14Z</time>
      </trkpt>
      <trkpt lat="34.9108785" lon="135.20765882">
        <ele>191.35</ele>
        <time>2026-10-02T01:43:24Z</time>
      </trkpt>
      <trkpt lat="34.91096927" lon="135.20761916">
        <ele>191.63</ele>
        <time>2026-10-02T01:43:34Z</time>
      </trkpt>
      <trkpt lat="34.91105744" lon="135.2075741">
        <ele>190.26</ele>
        <time>2026-10-02T01:43:43Z</time>
      </trkpt>
      <trkpt lat="34.91114337" lon="135.20753362">
        <ele>189.58</ele>
        <time>2026-10-02T01:43:52Z</time>
      </trkpt>
      <trkpt lat="34.9112349" lon="135.20748653">
        <ele>188.13</ele>
        <time>2026-10-02T01:44:02Z</time>
      </trkpt>
      <trkpt lat="34.91132371" lon="135.20741705">
        <ele>187</ele>
        <time>2026-10-02T01:44:13Z</time>
      </trkpt>
      <trkpt lat="34.91140173" lon="135.20736041">
        <ele>187.46</ele>
        <time>2026-10-02T01:44:23Z</time>
      </trkpt>
      <trkpt lat="34.91149262" lon="135.20731158">
        <ele>188.14</ele>
        <time>2026-10-02T01:44:34Z</time>
      </trkpt>
      <trkpt lat="34.91157721" lon="135.20725944">
        <ele>187.41</ele>
        <time>2026-10-02T01:44:44Z</time>
      </trkpt>
      <trkpt lat="34.91166012" lon="135.20720941">
        <ele>186.91</ele>
        <time>2026-10-02T01:44:54Z</time>
      </trkpt>
      <trkpt lat="34.91174742" lon="135.20717578">
        <ele>186.62</ele>
        <time>2026-10-02T01:45:04Z</time>
      </trkpt>
      <trkpt lat="34.91183791" lon="135.2071284">
        <ele>187.14</ele>
        <time>2026-10-02T01:45:14Z</time>
      </trkpt>
      <trkpt lat="34.91191758" lon="135.20706848">
        <ele>187.12</ele>
        <time>2026-10-02T01:45:23Z</time>
      </trkpt>
      <trkpt lat="34.91200792" lon="135.20703162">
        <ele>187.33</ele>
        <time>2026-10-02T01:45:32Z</time>
      </trkpt>
      <trkpt lat="34.91209344" lon="135.20699301">
        <ele>186.04</ele>
        <time>2026-10-02T01:45:41Z</time>
      </trkpt>
      <trkpt lat="34.9121812" lon="135.20694826">
        <ele>186.42</ele>
        <time>2026-10-02T01:45:51Z</time>
      </trkpt>
      <trkpt lat="34.91227065" lon="135.20689664">
        <ele>186.15</ele>
        <time>2026-10-02T01:46:01Z</time>
      </trkpt>
      <trkpt lat="34.91235209" lon="135.20684083">
        <ele>186.15</ele>
        <time>2026-10-02T01:46:10Z</time>
      </trkpt>
      <trkpt lat="34.91244256" lon="135.20679145">
        <ele>186.35</ele>
        <time>2026-10-02T01:46:19Z</time>
      </trkpt>
      <trkpt lat="34.9125391" lon="135.20673812">
        <ele>188.1</ele>
        <time>2026-10-02T01:46:30Z</time>
      </trkpt>
      <trkpt lat="34.91262403" lon="135.20669123">
        <ele>187.25</ele>
        <time>2026-10-02T01:46:39Z</time>
      </trkpt>
      <trkpt lat="34.91270854" lon="135.20664436">
        <ele>187.24</ele>
        <time>2026-10-02T01:46:48Z</time>
      </trkpt>
      <trkpt lat="34.91275613" lon="135.20655045">
        <ele>188.62</ele>
        <time>2026-10-02T01:46:59Z</time>
      </trkpt>
      <trkpt lat="34.91269102" lon="135.20647233">
        <ele>189.83</ele>
        <time>2026-10-02T01:47:06Z</time>
      </trkpt>
      <trkpt lat="34.91261849" lon="135.20639426">
        <ele>190.16</ele>
        <time>2026-10-02T01:47:14Z</time>
      </trkpt>
      <trkpt lat="34.91254585" lon="135.20631811">
        <ele>190.52</ele>
        <time>2026-10-02T01:47:22Z</time>
      </trkpt>
      <trkpt lat="34.91247284" lon="135.2062257">
        <ele>190.74</ele>
        <time>2026-10-02T01:47:31Z</time>
      </trkpt>
      <trkpt lat="34.9125536" lon="135.20617668">
        <ele>190.17</ele>
        <time>2026-10-02T01:47:56Z</time>
      </trkpt>
      <trkpt lat="34.91263913" lon="135.20614092">
        <ele>189.08</ele>
        <time>2026-10-02T01:48:05Z</time>
      </trkpt>
      <trkpt lat="34.9127246" lon="135.20610384">
        <ele>189.02</ele>
        <time>2026-10-02T01:48:15Z</time>
      </trkpt>
      <trkpt lat="34.91281803" lon="135.20606159">
        <ele>188.49</ele>
        <time>2026-10-02T01:48:26Z</time>
      </trkpt>
      <trkpt lat="34.9129156" lon="135.20600713">
        <ele>188.62</ele>
        <time>2026-10-02T01:49:06Z</time>
      </trkpt>
      <trkpt lat="34.91275571" lon="135.20604731">
        <ele>190.78</ele>
        <time>2026-10-02T01:50:21Z</time>
      </trkpt>
      <trkpt lat="34.91265283" lon="135.20609171">
        <ele>190.24</ele>
        <time>2026-10-02T01:50:32Z</time>
      </trkpt>
      <trkpt lat="34.91256225" lon="135.20614035">
        <ele>190.74</ele>
        <time>2026-10-02T01:50:42Z</time>
      </trkpt>
      <trkpt lat="34.91249091" lon="135.2062208">
        <ele>191.94</ele>
        <time>2026-10-02T01:50:52Z</time>
      </trkpt>
      <trkpt lat="34.91254034" lon="135.2063248">
        <ele>193.47</ele>
        <time>2026-10-02T01:51:01Z</time>
      </trkpt>
      <trkpt lat="34.91262176" lon="135.20639709">
        <ele>193.39</ele>
        <time>2026-10-02T01:51:10Z</time>
      </trkpt>
      <trkpt lat="34.91270525" lon="135.20646443">
        <ele>194.1</ele>
        <time>2026-10-02T01:51:19Z</time>
      </trkpt>
      <trkpt lat="34.91278084" lon="135.20653194">
        <ele>193.74</ele>
        <time>2026-10-02T01:51:28Z</time>
      </trkpt>
      <trkpt lat="34.91271362" lon="135.2066191">
        <ele>194.8</ele>
        <time>2026-10-02T01:51:38Z</time>
      </trkpt>
      <trkpt lat="34.91261279" lon="135.20666309">
        <ele>194.53</ele>
        <time>2026-10-02T01:51:48Z</time>
      </trkpt>
      <trkpt lat="34.91252754" lon="135.20670132">
        <ele>194.54</ele>
        <time>2026-10-02T01:51:57Z</time>
      </trkpt>
      <trkpt lat="34.91242815" lon="135.20675319">
        <ele>192.86</ele>
        <time>2026-10-02T01:52:08Z</time>
      </trkpt>
      <trkpt lat="34.91239343" lon="135.20685966">
        <ele>193.46</ele>
        <time>2026-10-02T01:52:19Z</time>
      </trkpt>
      <trkpt lat="34.91243214" lon="135.20698413">
        <ele>193.53</ele>
        <time>2026-10-02T01:52:29Z</time>
      </trkpt>
      <trkpt lat="34.91247304" lon="135.20709512">
        <ele>192.36</ele>
        <time>2026-10-02T01:52:38Z</time>
      </trkpt>
      <trkpt lat="34.91252175" lon="135.2072205">
        <ele>190.92</ele>
        <time>2026-10-02T01:52:48Z</time>
      </trkpt>
      <trkpt lat="34.91258074" lon="135.20731145">
        <ele>191.57</ele>
        <time>2026-10-02T01:52:57Z</time>
      </trkpt>
      <trkpt lat="34.91261209" lon="135.20741772">
        <ele>194.43</ele>
        <time>2026-10-02T01:53:05Z</time>
      </trkpt>
      <trkpt lat="34.91264323" lon="135.20752105">
        <ele>196.66</ele>
        <time>2026-10-02T01:53:13Z</time>
      </trkpt>
      <trkpt lat="34.91266625" lon="135.20763927">
        <ele>196.57</ele>
        <time>2026-10-02T01:53:23Z</time>
      </trkpt>
      <trkpt lat="34.9126875" lon="135.20775114">
        <ele>197.02</ele>
        <time>2026-10-02T01:53:32Z</time>
      </trkpt>
      <trkpt lat="34.91271546" lon="135.20786043">
        <ele>197.68</ele>
        <time>2026-10-02T01:53:41Z</time>
      </trkpt>
      <trkpt lat="34.91274489" lon="135.20800458">
        <ele>199.09</ele>
        <time>2026-10-02T01:53:52Z</time>
      </trkpt>
      <trkpt lat="34.91278" lon="135.20810987">
        <ele>199.43</ele>
        <time>2026-10-02T01:54:01Z</time>
      </trkpt>
      <trkpt lat="34.91281391" lon="135.20823731">
        <ele>200.4</ele>
        <time>2026-10-02T01:54:12Z</time>
      </trkpt>
      <trkpt lat="34.91284166" lon="135.2083524">
        <ele>199.6</ele>
        <time>2026-10-02T01:54:22Z</time>
      </trkpt>
      <trkpt lat="34.91287669" lon="135.20845925">
        <ele>199.36</ele>
        <time>2026-10-02T01:54:31Z</time>
      </trkpt>
      <trkpt lat="34.91290198" lon="135.20856928">
        <ele>199.17</ele>
        <time>2026-10-02T01:54:40Z</time>
      </trkpt>
      <trkpt lat="34.91293341" lon="135.20867675">
        <ele>199.39</ele>
        <time>2026-10-02T01:54:49Z</time>
      </trkpt>
      <trkpt lat="34.91296064" lon="135.20878428">
        <ele>199.45</ele>
        <time>2026-10-02T01:54:58Z</time>
      </trkpt>
      <trkpt lat="34.91299166" lon="135.20889018">
        <ele>199.52</ele>
        <time>2026-10-02T01:55:07Z</time>
      </trkpt>
      <trkpt lat="34.91302447" lon="135.20899415">
        <ele>199.3</ele>
        <time>2026-10-02T01:55:16Z</time>
      </trkpt>
      <trkpt lat="34.91305983" lon="135.20909987">
        <ele>200.39</ele>
        <time>2026-10-02T01:55:25Z</time>
      </trkpt>
      <trkpt lat="34.9130836" lon="135.209213">
        <ele>200.94</ele>
        <time>2026-10-02T01:55:44Z</time>
      </trkpt>
      <trkpt lat="34.91311266" lon="135.20931996">
        <ele>200.56</ele>
        <time>2026-10-02T01:56:05Z</time>
      </trkpt>
      <trkpt lat="34.91312389" lon="135.2094387">
        <ele>200.35</ele>
        <time>2026-10-02T01:56:16Z</time>
      </trkpt>
      <trkpt lat="34.91314138" lon="135.20955336">
        <ele>199.97</ele>
        <time>2026-10-02T01:56:39Z</time>
      </trkpt>
      <trkpt lat="34.9131823" lon="135.2096556">
        <ele>199.75</ele>
        <time>2026-10-02T01:56:48Z</time>
      </trkpt>
      <trkpt lat="34.91322509" lon="135.20975783">
        <ele>198.75</ele>
        <time>2026-10-02T01:57:15Z</time>
      </trkpt>
      <trkpt lat="34.91326018" lon="135.20986415">
        <ele>199.01</ele>
        <time>2026-10-02T01:57:26Z</time>
      </trkpt>
      <trkpt lat="34.91329311" lon="135.20997152">
        <ele>199.14</ele>
        <time>2026-10-02T01:57:36Z</time>
      </trkpt>
      <trkpt lat="34.91332257" lon="135.21007976">
        <ele>199.03</ele>
        <time>2026-10-02T01:57:45Z</time>
      </trkpt>
      <trkpt lat="34.91335032" lon="135.21019288">
        <ele>199.42</ele>
        <time>2026-10-02T01:57:54Z</time>
      </trkpt>
      <trkpt lat="34.91338217" lon="135.21031914">
        <ele>200.18</ele>
        <time>2026-10-02T01:58:04Z</time>
      </trkpt>
      <trkpt lat="34.91341889" lon="135.21043194">
        <ele>200.69</ele>
        <time>2026-10-02T01:58:13Z</time>
      </trkpt>
      <trkpt lat="34.9134503" lon="135.21053473">
        <ele>201.03</ele>
        <time>2026-10-02T01:58:22Z</time>
      </trkpt>
      <trkpt lat="34.91348168" lon="135.21064019">
        <ele>200.95</ele>
        <time>2026-10-02T01:58:31Z</time>
      </trkpt>
      <trkpt lat="34.91351482" lon="135.21075078">
        <ele>200.8</ele>
        <time>2026-10-02T01:58:40Z</time>
      </trkpt>
      <trkpt lat="34.91355067" lon="135.21085501">
        <ele>200.97</ele>
        <time>2026-10-02T01:58:49Z</time>
      </trkpt>
      <trkpt lat="34.91358986" lon="135.21097814">
        <ele>201.15</ele>
        <time>2026-10-02T01:58:59Z</time>
      </trkpt>
      <trkpt lat="34.9136303" lon="135.21108252">
        <ele>201.97</ele>
        <time>2026-10-02T01:59:08Z</time>
      </trkpt>
      <trkpt lat="34.91367513" lon="135.21118945">
        <ele>202.89</ele>
        <time>2026-10-02T01:59:17Z</time>
      </trkpt>
      <trkpt lat="34.91371258" lon="135.21129011">
        <ele>202.85</ele>
        <time>2026-10-02T01:59:26Z</time>
      </trkpt>
      <trkpt lat="34.91374634" lon="135.2113958">
        <ele>202.67</ele>
        <time>2026-10-02T01:59:35Z</time>
      </trkpt>
      <trkpt lat="34.91377746" lon="135.21150476">
        <ele>203.7</ele>
        <time>2026-10-02T01:59:44Z</time>
      </trkpt>
      <trkpt lat="34.91380918" lon="135.21162876">
        <ele>203.46</ele>
        <time>2026-10-02T01:59:54Z</time>
      </trkpt>
      <trkpt lat="34.91385283" lon="135.21173347">
        <ele>203.06</ele>
        <time>2026-10-02T02:00:04Z</time>
      </trkpt>
      <trkpt lat="34.91394432" lon="135.21169759">
        <ele>198.86</ele>
        <time>2026-10-02T02:00:15Z</time>
      </trkpt>
      <trkpt lat="34.9140261" lon="135.21163591">
        <ele>198.11</ele>
        <time>2026-10-02T02:00:25Z</time>
      </trkpt>
      <trkpt lat="34.9141093" lon="135.21158908">
        <ele>197.49</ele>
        <time>2026-10-02T02:00:35Z</time>
      </trkpt>
      <trkpt lat="34.91419631" lon="135.21154168">
        <ele>196.78</ele>
        <time>2026-10-02T02:00:46Z</time>
      </trkpt>
      <trkpt lat="34.91428988" lon="135.21148923">
        <ele>197.3</ele>
        <time>2026-10-02T02:00:58Z</time>
      </trkpt>
      <trkpt lat="34.91438192" lon="135.21145588">
        <ele>197.51</ele>
        <time>2026-10-02T02:01:08Z</time>
      </trkpt>
      <trkpt lat="34.9144712" lon="135.2114982">
        <ele>193.32</ele>
        <time>2026-10-02T02:01:18Z</time>
      </trkpt>
      <trkpt lat="34.91453061" lon="135.21159357">
        <ele>191.56</ele>
        <time>2026-10-02T02:01:26Z</time>
      </trkpt>
      <trkpt lat="34.91459721" lon="135.21168334">
        <ele>194.06</ele>
        <time>2026-10-02T02:01:35Z</time>
      </trkpt>
      <trkpt lat="34.91467338" lon="135.21175918">
        <ele>195.15</ele>
        <time>2026-10-02T02:01:44Z</time>
      </trkpt>
      <trkpt lat="34.91476475" lon="135.21178175">
        <ele>195.2</ele>
        <time>2026-10-02T02:01:55Z</time>
      </trkpt>
      <trkpt lat="34.91480293" lon="135.21190308">
        <ele>194.34</ele>
        <time>2026-10-02T02:02:09Z</time>
      </trkpt>
      <trkpt lat="34.91482294" lon="135.21202325">
        <ele>193.34</ele>
        <time>2026-10-02T02:02:20Z</time>
      </trkpt>
      <trkpt lat="34.9148185" lon="135.21213932">
        <ele>194.17</ele>
        <time>2026-10-02T02:02:31Z</time>
      </trkpt>
      <trkpt lat="34.91482918" lon="135.21225288">
        <ele>197.34</ele>
        <time>2026-10-02T02:02:39Z</time>
      </trkpt>
      <trkpt lat="34.91478014" lon="135.21235382">
        <ele>200.48</ele>
        <time>2026-10-02T02:02:49Z</time>
      </trkpt>
      <trkpt lat="34.91473533" lon="135.21245079">
        <ele>198.17</ele>
        <time>2026-10-02T02:03:06Z</time>
      </trkpt>
      <trkpt lat="34.91473315" lon="135.21256846">
        <ele>198.29</ele>
        <time>2026-10-02T02:03:24Z</time>
      </trkpt>
      <trkpt lat="34.91476801" lon="135.21267131">
        <ele>199.39</ele>
        <time>2026-10-02T02:03:34Z</time>
      </trkpt>
      <trkpt lat="34.91474808" lon="135.21278462">
        <ele>199.11</ele>
        <time>2026-10-02T02:03:43Z</time>
      </trkpt>
      <trkpt lat="34.91471063" lon="135.21289383">
        <ele>201.4</ele>
        <time>2026-10-02T02:03:52Z</time>
      </trkpt>
      <trkpt lat="34.91473079" lon="135.21300646">
        <ele>201.01</ele>
        <time>2026-10-02T02:04:01Z</time>
      </trkpt>
      <trkpt lat="34.91477257" lon="135.21310534">
        <ele>200.6</ele>
        <time>2026-10-02T02:04:09Z</time>
      </trkpt>
      <trkpt lat="34.91478718" lon="135.21321705">
        <ele>202.68</ele>
        <time>2026-10-02T02:04:19Z</time>
      </trkpt>
      <trkpt lat="34.91471933" lon="135.21329632">
        <ele>203.95</ele>
        <time>2026-10-02T02:04:38Z</time>
      </trkpt>
      <trkpt lat="34.91464521" lon="135.21336017">
        <ele>205.62</ele>
        <time>2026-10-02T02:05:07Z</time>
      </trkpt>
      <trkpt lat="34.91456267" lon="135.21341296">
        <ele>206.59</ele>
        <time>2026-10-02T02:05:16Z</time>
      </trkpt>
      <trkpt lat="34.91448588" lon="135.21349196">
        <ele>208.09</ele>
        <time>2026-10-02T02:05:25Z</time>
      </trkpt>
      <trkpt lat="34.91441396" lon="135.21356429">
        <ele>208.96</ele>
        <time>2026-10-02T02:05:36Z</time>
      </trkpt>
      <trkpt lat="34.91440702" lon="135.21367892">
        <ele>212.43</ele>
        <time>2026-10-02T02:05:46Z</time>
      </trkpt>
      <trkpt lat="34.91442148" lon="135.21379089">
        <ele>214.7</ele>
        <time>2026-10-02T02:05:57Z</time>
      </trkpt>
      <trkpt lat="34.91441922" lon="135.21390261">
        <ele>217</ele>
        <time>2026-10-02T02:06:15Z</time>
      </trkpt>
      <trkpt lat="34.91440005" lon="135.21401834">
        <ele>217.75</ele>
        <time>2026-10-02T02:06:27Z</time>
      </trkpt>
      <trkpt lat="34.91436602" lon="135.21412147">
        <ele>218.07</ele>
        <time>2026-10-02T02:06:48Z</time>
      </trkpt>
      <trkpt lat="34.91433575" lon="135.21422591">
        <ele>216.91</ele>
        <time>2026-10-02T02:07:14Z</time>
      </trkpt>
      <trkpt lat="34.9143001" lon="135.21432862">
        <ele>217.27</ele>
        <time>2026-10-02T02:07:29Z</time>
      </trkpt>
      <trkpt lat="34.91428457" lon="135.21443718">
        <ele>217.33</ele>
        <time>2026-10-02T02:07:39Z</time>
      </trkpt>
      <trkpt lat="34.91428073" lon="135.21454789">
        <ele>216.15</ele>
        <time>2026-10-02T02:07:52Z</time>
      </trkpt>
      <trkpt lat="34.91427735" lon="135.21466951">
        <ele>215.06</ele>
        <time>2026-10-02T02:08:05Z</time>
      </trkpt>
      <trkpt lat="34.91428139" lon="135.21478493">
        <ele>215.17</ele>
        <time>2026-10-02T02:08:16Z</time>
      </trkpt>
      <trkpt lat="34.91429401" lon="135.21489852">
        <ele>214.92</ele>
        <time>2026-10-02T02:08:27Z</time>
      </trkpt>
      <trkpt lat="34.91435104" lon="135.21498337">
        <ele>214.61</ele>
        <time>2026-10-02T02:08:38Z</time>
      </trkpt>
      <trkpt lat="34.9144284" lon="135.21506103">
        <ele>212.99</ele>
        <time>2026-10-02T02:08:52Z</time>
      </trkpt>
      <trkpt lat="34.91449626" lon="135.21513338">
        <ele>212.5</ele>
        <time>2026-10-02T02:09:03Z</time>
      </trkpt>
      <trkpt lat="34.91452861" lon="135.21524627">
        <ele>214.12</ele>
        <time>2026-10-02T02:09:26Z</time>
      </trkpt>
      <trkpt lat="34.9145224" lon="135.21536475">
        <ele>215.5</ele>
        <time>2026-10-02T02:09:37Z</time>
      </trkpt>
      <trkpt lat="34.91452249" lon="135.21548537">
        <ele>216.44</ele>
        <time>2026-10-02T02:09:48Z</time>
      </trkpt>
      <trkpt lat="34.91454715" lon="135.21560025">
        <ele>217.13</ele>
        <time>2026-10-02T02:09:58Z</time>
      </trkpt>
      <trkpt lat="34.91454988" lon="135.21571273">
        <ele>216.61</ele>
        <time>2026-10-02T02:10:08Z</time>
      </trkpt>
      <trkpt lat="34.9145403" lon="135.21584279">
        <ele>216.84</ele>
        <time>2026-10-02T02:10:19Z</time>
      </trkpt>
      <trkpt lat="34.91450607" lon="135.21595216">
        <ele>214.92</ele>
        <time>2026-10-02T02:10:29Z</time>
      </trkpt>
      <trkpt lat="34.91446961" lon="135.2160536">
        <ele>213.31</ele>
        <time>2026-10-02T02:10:39Z</time>
      </trkpt>
      <trkpt lat="34.91443147" lon="135.21616103">
        <ele>213.14</ele>
        <time>2026-10-02T02:10:50Z</time>
      </trkpt>
      <trkpt lat="34.91442133" lon="135.21627278">
        <ele>213.07</ele>
        <time>2026-10-02T02:11:00Z</time>
      </trkpt>
      <trkpt lat="34.91443402" lon="135.21639859">
        <ele>213</ele>
        <time>2026-10-02T02:11:11Z</time>
      </trkpt>
      <trkpt lat="34.91445517" lon="135.21650962">
        <ele>213.53</ele>
        <time>2026-10-02T02:11:22Z</time>
      </trkpt>
      <trkpt lat="34.91447125" lon="135.21661765">
        <ele>213.25</ele>
        <time>2026-10-02T02:11:32Z</time>
      </trkpt>
      <trkpt lat="34.91448528" lon="135.21673505">
        <ele>214.5</ele>
        <time>2026-10-02T02:11:50Z</time>
      </trkpt>
      <trkpt lat="34.91449542" lon="135.21684621">
        <ele>215.01</ele>
        <time>2026-10-02T02:12:03Z</time>
      </trkpt>
      <trkpt lat="34.91454329" lon="135.21694677">
        <ele>212.86</ele>
        <time>2026-10-02T02:12:29Z</time>
      </trkpt>
      <trkpt lat="34.91459186" lon="135.21704532">
        <ele>210.12</ele>
        <time>2026-10-02T02:12:43Z</time>
      </trkpt>
      <trkpt lat="34.91464886" lon="135.2171327">
        <ele>209.98</ele>
        <time>2026-10-02T02:13:12Z</time>
      </trkpt>
      <trkpt lat="34.914712" lon="135.21721296">
        <ele>209.29</ele>
        <time>2026-10-02T02:13:24Z</time>
      </trkpt>
      <trkpt lat="34.91476826" lon="135.21729919">
        <ele>209.47</ele>
        <time>2026-10-02T02:13:39Z</time>
      </trkpt>
      <trkpt lat="34.91481931" lon="135.21739233">
        <ele>212.13</ele>
        <time>2026-10-02T02:13:50Z</time>
      </trkpt>
      <trkpt lat="34.91485259" lon="135.217501">
        <ele>212.54</ele>
        <time>2026-10-02T02:14:06Z</time>
      </trkpt>
      <trkpt lat="34.91487691" lon="135.21762177">
        <ele>214.02</ele>
        <time>2026-10-02T02:14:17Z</time>
      </trkpt>
      <trkpt lat="34.91492186" lon="135.21774111">
        <ele>213.64</ele>
        <time>2026-10-02T02:14:28Z</time>
      </trkpt>
      <trkpt lat="34.91498902" lon="135.21781848">
        <ele>217.9</ele>
        <time>2026-10-02T02:14:39Z</time>
      </trkpt>
      <trkpt lat="34.91504741" lon="135.21791631">
        <ele>215.7</ele>
        <time>2026-10-02T02:14:49Z</time>
      </trkpt>
      <trkpt lat="34.91509566" lon="135.21801114">
        <ele>213.72</ele>
        <time>2026-10-02T02:14:59Z</time>
      </trkpt>
      <trkpt lat="34.91516405" lon="135.21809793">
        <ele>210.92</ele>
        <time>2026-10-02T02:15:15Z</time>
      </trkpt>
      <trkpt lat="34.91521556" lon="135.21819411">
        <ele>210.26</ele>
        <time>2026-10-02T02:15:27Z</time>
      </trkpt>
      <trkpt lat="34.91525274" lon="135.2183001">
        <ele>208.72</ele>
        <time>2026-10-02T02:15:39Z</time>
      </trkpt>
      <trkpt lat="34.91529922" lon="135.21840528">
        <ele>209.33</ele>
        <time>2026-10-02T02:15:52Z</time>
      </trkpt>
      <trkpt lat="34.91533368" lon="135.2185155">
        <ele>210.27</ele>
        <time>2026-10-02T02:16:05Z</time>
      </trkpt>
      <trkpt lat="34.91537356" lon="135.21861718">
        <ele>212.55</ele>
        <time>2026-10-02T02:16:15Z</time>
      </trkpt>
      <trkpt lat="34.91538661" lon="135.21873399">
        <ele>211.3</ele>
        <time>2026-10-02T02:16:25Z</time>
      </trkpt>
      <trkpt lat="34.91542616" lon="135.21883336">
        <ele>211.92</ele>
        <time>2026-10-02T02:16:39Z</time>
      </trkpt>
      <trkpt lat="34.9153951" lon="135.21893901">
        <ele>214.89</ele>
        <time>2026-10-02T02:16:50Z</time>
      </trkpt>
      <trkpt lat="34.91539436" lon="135.21905377">
        <ele>214.39</ele>
        <time>2026-10-02T02:17:00Z</time>
      </trkpt>
      <trkpt lat="34.91538799" lon="135.21916733">
        <ele>213.69</ele>
        <time>2026-10-02T02:17:11Z</time>
      </trkpt>
      <trkpt lat="34.91539938" lon="135.21927882">
        <ele>211.8</ele>
        <time>2026-10-02T02:17:21Z</time>
      </trkpt>
      <trkpt lat="34.91539941" lon="135.21939001">
        <ele>206.74</ele>
        <time>2026-10-02T02:17:35Z</time>
      </trkpt>
      <trkpt lat="34.91537792" lon="135.21950038">
        <ele>208.17</ele>
        <time>2026-10-02T02:17:48Z</time>
      </trkpt>
      <trkpt lat="34.91543753" lon="135.21951843">
        <ele>210.36</ele>
        <time>2026-10-02T02:19:49Z</time>
      </trkpt>
      <trkpt lat="34.91543608" lon="135.21953253">
        <ele>209.72</ele>
        <time>2026-10-02T02:21:50Z</time>
      </trkpt>
      <trkpt lat="34.91541583" lon="135.21953301">
        <ele>210.46</ele>
        <time>2026-10-02T02:24:14Z</time>
      </trkpt>
      <trkpt lat="34.91552093" lon="135.21949264">
        <ele>213.46</ele>
        <time>2026-10-02T02:25:32Z</time>
      </trkpt>
      <trkpt lat="34.91561249" lon="135.21949959">
        <ele>213.76</ele>
        <time>2026-10-02T02:25:43Z</time>
      </trkpt>
      <trkpt lat="34.915691" lon="135.21956707">
        <ele>213.35</ele>
        <time>2026-10-02T02:25:53Z</time>
      </trkpt>
      <trkpt lat="34.91574693" lon="135.21965843">
        <ele>213.02</ele>
        <time>2026-10-02T02:26:02Z</time>
      </trkpt>
      <trkpt lat="34.91577318" lon="135.21977087">
        <ele>215.72</ele>
        <time>2026-10-02T02:26:13Z</time>
      </trkpt>
      <trkpt lat="34.91580976" lon="135.21987642">
        <ele>216.13</ele>
        <time>2026-10-02T02:26:24Z</time>
      </trkpt>
      <trkpt lat="34.91582528" lon="135.2199849">
        <ele>219.45</ele>
        <time>2026-10-02T02:26:36Z</time>
      </trkpt>
      <trkpt lat="34.91586868" lon="135.22008594">
        <ele>219.96</ele>
        <time>2026-10-02T02:26:45Z</time>
      </trkpt>
      <trkpt lat="34.9159009" lon="135.22020149">
        <ele>223.71</ele>
        <time>2026-10-02T02:26:56Z</time>
      </trkpt>
      <trkpt lat="34.91592145" lon="135.22033518">
        <ele>226.05</ele>
        <time>2026-10-02T02:27:09Z</time>
      </trkpt>
      <trkpt lat="34.91593782" lon="135.22044383">
        <ele>225.34</ele>
        <time>2026-10-02T02:27:19Z</time>
      </trkpt>
      <trkpt lat="34.91593516" lon="135.22056171">
        <ele>227.56</ele>
        <time>2026-10-02T02:27:30Z</time>
      </trkpt>
      <trkpt lat="34.91594237" lon="135.22067346">
        <ele>228.53</ele>
        <time>2026-10-02T02:27:40Z</time>
      </trkpt>
      <trkpt lat="34.91598113" lon="135.22077698">
        <ele>224.42</ele>
        <time>2026-10-02T02:27:53Z</time>
      </trkpt>
      <trkpt lat="34.91600314" lon="135.22089666">
        <ele>221.71</ele>
        <time>2026-10-02T02:28:03Z</time>
      </trkpt>
      <trkpt lat="34.91600708" lon="135.2210102">
        <ele>224.52</ele>
        <time>2026-10-02T02:28:15Z</time>
      </trkpt>
      <trkpt lat="34.91601506" lon="135.22112967">
        <ele>224.25</ele>
        <time>2026-10-02T02:28:27Z</time>
      </trkpt>
      <trkpt lat="34.91603413" lon="135.22125181">
        <ele>225.93</ele>
        <time>2026-10-02T02:29:23Z</time>
      </trkpt>
      <trkpt lat="34.91610769" lon="135.22132418">
        <ele>225.19</ele>
        <time>2026-10-02T02:29:47Z</time>
      </trkpt>
      <trkpt lat="34.91616097" lon="135.22142174">
        <ele>224.85</ele>
        <time>2026-10-02T02:30:01Z</time>
      </trkpt>
      <trkpt lat="34.91618935" lon="135.22153095">
        <ele>222.83</ele>
        <time>2026-10-02T02:30:18Z</time>
      </trkpt>
      <trkpt lat="34.91614612" lon="135.22163637">
        <ele>225.13</ele>
        <time>2026-10-02T02:30:27Z</time>
      </trkpt>
      <trkpt lat="34.91609902" lon="135.22173862">
        <ele>223.28</ele>
        <time>2026-10-02T02:30:36Z</time>
      </trkpt>
      <trkpt lat="34.91604945" lon="135.22183341">
        <ele>226.41</ele>
        <time>2026-10-02T02:30:45Z</time>
      </trkpt>
      <trkpt lat="34.91599119" lon="135.22192457">
        <ele>229.2</ele>
        <time>2026-10-02T02:30:54Z</time>
      </trkpt>
      <trkpt lat="34.9159456" lon="135.22203205">
        <ele>229.57</ele>
        <time>2026-10-02T02:31:05Z</time>
      </trkpt>
      <trkpt lat="34.91591582" lon="135.22214005">
        <ele>230.31</ele>
        <time>2026-10-02T02:31:16Z</time>
      </trkpt>
      <trkpt lat="34.91589046" lon="135.22224887">
        <ele>230.94</ele>
        <time>2026-10-02T02:31:28Z</time>
      </trkpt>
      <trkpt lat="34.91589064" lon="135.22236623">
        <ele>231.09</ele>
        <time>2026-10-02T02:31:40Z</time>
      </trkpt>
      <trkpt lat="34.91590608" lon="135.22247698">
        <ele>234.85</ele>
        <time>2026-10-02T02:31:51Z</time>
      </trkpt>
      <trkpt lat="34.9159145" lon="135.22259578">
        <ele>235.44</ele>
        <time>2026-10-02T02:32:02Z</time>
      </trkpt>
      <trkpt lat="34.91591763" lon="135.22270561">
        <ele>234.38</ele>
        <time>2026-10-02T02:32:12Z</time>
      </trkpt>
      <trkpt lat="34.91592215" lon="135.22282176">
        <ele>234.7</ele>
        <time>2026-10-02T02:32:22Z</time>
      </trkpt>
      <trkpt lat="34.91591203" lon="135.22293658">
        <ele>234.71</ele>
        <time>2026-10-02T02:32:40Z</time>
      </trkpt>
      <trkpt lat="34.91592042" lon="135.2230579">
        <ele>234.4</ele>
        <time>2026-10-02T02:32:50Z</time>
      </trkpt>
      <trkpt lat="34.91593642" lon="135.22316816">
        <ele>234.15</ele>
        <time>2026-10-02T02:32:58Z</time>
      </trkpt>
      <trkpt lat="34.91595917" lon="135.2232795">
        <ele>230.29</ele>
        <time>2026-10-02T02:33:10Z</time>
      </trkpt>
      <trkpt lat="34.91591694" lon="135.22338364">
        <ele>227.99</ele>
        <time>2026-10-02T02:33:27Z</time>
      </trkpt>
      <trkpt lat="34.91586052" lon="135.22347143">
        <ele>228.3</ele>
        <time>2026-10-02T02:33:39Z</time>
      </trkpt>
      <trkpt lat="34.91582367" lon="135.22357517">
        <ele>228.82</ele>
        <time>2026-10-02T02:34:01Z</time>
      </trkpt>
      <trkpt lat="34.91576895" lon="135.22366556">
        <ele>229.7</ele>
        <time>2026-10-02T02:34:11Z</time>
      </trkpt>
      <trkpt lat="34.915713" lon="135.22376258">
        <ele>229.25</ele>
        <time>2026-10-02T02:34:22Z</time>
      </trkpt>
      <trkpt lat="34.91564126" lon="135.22385445">
        <ele>228.79</ele>
        <time>2026-10-02T02:34:36Z</time>
      </trkpt>
      <trkpt lat="34.91554513" lon="135.22385567">
        <ele>228.47</ele>
        <time>2026-10-02T02:34:46Z</time>
      </trkpt>
      <trkpt lat="34.91546349" lon="135.22392268">
        <ele>229.51</ele>
        <time>2026-10-02T02:35:44Z</time>
      </trkpt>
      <trkpt lat="34.91540553" lon="135.22403785">
        <ele>230.54</ele>
        <time>2026-10-02T02:35:56Z</time>
      </trkpt>
      <trkpt lat="34.91536533" lon="135.22414447">
        <ele>230.54</ele>
        <time>2026-10-02T02:36:06Z</time>
      </trkpt>
      <trkpt lat="34.91533926" lon="135.22425167">
        <ele>231.37</ele>
        <time>2026-10-02T02:36:50Z</time>
      </trkpt>
      <trkpt lat="34.91526173" lon="135.22432772">
        <ele>231.37</ele>
        <time>2026-10-02T02:37:00Z</time>
      </trkpt>
      <trkpt lat="34.91518825" lon="135.22439864">
        <ele>230.33</ele>
        <time>2026-10-02T02:37:09Z</time>
      </trkpt>
      <trkpt lat="34.9151552" lon="135.22450087">
        <ele>228.78</ele>
        <time>2026-10-02T02:37:19Z</time>
      </trkpt>
      <trkpt lat="34.91511544" lon="135.2246031">
        <ele>226.91</ele>
        <time>2026-10-02T02:37:29Z</time>
      </trkpt>
      <trkpt lat="34.91507933" lon="135.22471816">
        <ele>227.75</ele>
        <time>2026-10-02T02:37:40Z</time>
      </trkpt>
      <trkpt lat="34.91504875" lon="135.22482795">
        <ele>227.32</ele>
        <time>2026-10-02T02:38:39Z</time>
      </trkpt>
      <trkpt lat="34.91507081" lon="135.22493657">
        <ele>226.84</ele>
        <time>2026-10-02T02:38:47Z</time>
      </trkpt>
      <trkpt lat="34.91511602" lon="135.22503426">
        <ele>225.47</ele>
        <time>2026-10-02T02:38:55Z</time>
      </trkpt>
      <trkpt lat="34.91517912" lon="135.22517387">
        <ele>227.81</ele>
        <time>2026-10-02T02:39:05Z</time>
      </trkpt>
      <trkpt lat="34.91524369" lon="135.22525712">
        <ele>227.63</ele>
        <time>2026-10-02T02:39:13Z</time>
      </trkpt>
      <trkpt lat="34.91529554" lon="135.22535701">
        <ele>229.31</ele>
        <time>2026-10-02T02:39:22Z</time>
      </trkpt>
      <trkpt lat="34.91523553" lon="135.22544279">
        <ele>229.41</ele>
        <time>2026-10-02T02:39:42Z</time>
      </trkpt>
      <trkpt lat="34.91525358" lon="135.22532981">
        <ele>231.7</ele>
        <time>2026-10-02T02:41:15Z</time>
      </trkpt>
      <trkpt lat="34.91519363" lon="135.2252242">
        <ele>232.29</ele>
        <time>2026-10-02T02:41:28Z</time>
      </trkpt>
      <trkpt lat="34.91511924" lon="135.22516147">
        <ele>234.89</ele>
        <time>2026-10-02T02:42:31Z</time>
      </trkpt>
      <trkpt lat="34.91507189" lon="135.22504657">
        <ele>234.43</ele>
        <time>2026-10-02T02:43:02Z</time>
      </trkpt>
      <trkpt lat="34.9150241" lon="135.22494449">
        <ele>234.46</ele>
        <time>2026-10-02T02:43:13Z</time>
      </trkpt>
      <trkpt lat="34.91502693" lon="135.22483496">
        <ele>235.69</ele>
        <time>2026-10-02T02:43:29Z</time>
      </trkpt>
      <trkpt lat="34.91502904" lon="135.22495554">
        <ele>233.93</ele>
        <time>2026-10-02T02:43:49Z</time>
      </trkpt>
      <trkpt lat="34.91509678" lon="135.22505115">
        <ele>233.38</ele>
        <time>2026-10-02T02:43:59Z</time>
      </trkpt>
      <trkpt lat="34.91515019" lon="135.2251446">
        <ele>232.72</ele>
        <time>2026-10-02T02:44:08Z</time>
      </trkpt>
      <trkpt lat="34.91520408" lon="135.22524025">
        <ele>234.15</ele>
        <time>2026-10-02T02:44:18Z</time>
      </trkpt>
      <trkpt lat="34.91526209" lon="135.22533181">
        <ele>233</ele>
        <time>2026-10-02T02:44:29Z</time>
      </trkpt>
      <trkpt lat="34.91529774" lon="135.22543855">
        <ele>233.04</ele>
        <time>2026-10-02T02:44:40Z</time>
      </trkpt>
      <trkpt lat="34.91539143" lon="135.225426">
        <ele>233.73</ele>
        <time>2026-10-02T02:44:52Z</time>
      </trkpt>
      <trkpt lat="34.91544802" lon="135.22532555">
        <ele>232.16</ele>
        <time>2026-10-02T02:45:02Z</time>
      </trkpt>
      <trkpt lat="34.91549414" lon="135.22523125">
        <ele>231.83</ele>
        <time>2026-10-02T02:45:23Z</time>
      </trkpt>
      <trkpt lat="34.91558187" lon="135.22517748">
        <ele>231.27</ele>
        <time>2026-10-02T02:45:33Z</time>
      </trkpt>
      <trkpt lat="34.91566315" lon="135.22511923">
        <ele>232.37</ele>
        <time>2026-10-02T02:45:47Z</time>
      </trkpt>
      <trkpt lat="34.9157501" lon="135.22506306">
        <ele>232.82</ele>
        <time>2026-10-02T02:45:59Z</time>
      </trkpt>
      <trkpt lat="34.91583876" lon="135.22503118">
        <ele>233.03</ele>
        <time>2026-10-02T02:46:10Z</time>
      </trkpt>
      <trkpt lat="34.91593995" lon="135.22507019">
        <ele>228.47</ele>
        <time>2026-10-02T02:46:23Z</time>
      </trkpt>
      <trkpt lat="34.91601243" lon="135.22513796">
        <ele>227.92</ele>
        <time>2026-10-02T02:46:32Z</time>
      </trkpt>
      <trkpt lat="34.91607317" lon="135.22523131">
        <ele>227.36</ele>
        <time>2026-10-02T02:46:42Z</time>
      </trkpt>
      <trkpt lat="34.91612532" lon="135.22532364">
        <ele>225.7</ele>
        <time>2026-10-02T02:46:51Z</time>
      </trkpt>
      <trkpt lat="34.91618735" lon="135.22540487">
        <ele>225.59</ele>
        <time>2026-10-02T02:47:00Z</time>
      </trkpt>
      <trkpt lat="34.91624573" lon="135.22549395">
        <ele>225.45</ele>
        <time>2026-10-02T02:47:10Z</time>
      </trkpt>
      <trkpt lat="34.91630151" lon="135.22558274">
        <ele>225.8</ele>
        <time>2026-10-02T02:47:20Z</time>
      </trkpt>
      <trkpt lat="34.91636246" lon="135.22566578">
        <ele>226.1</ele>
        <time>2026-10-02T02:48:08Z</time>
      </trkpt>
      <trkpt lat="34.91636887" lon="135.22577566">
        <ele>226.91</ele>
        <time>2026-10-02T02:48:19Z</time>
      </trkpt>
      <trkpt lat="34.91634392" lon="135.2258843">
        <ele>228.71</ele>
        <time>2026-10-02T02:48:29Z</time>
      </trkpt>
      <trkpt lat="34.91627755" lon="135.22597161">
        <ele>228.96</ele>
        <time>2026-10-02T02:48:39Z</time>
      </trkpt>
      <trkpt lat="34.91617899" lon="135.2260232">
        <ele>227.29</ele>
        <time>2026-10-02T02:48:51Z</time>
      </trkpt>
      <trkpt lat="34.91608826" lon="135.22598392">
        <ele>229.55</ele>
        <time>2026-10-02T02:49:00Z</time>
      </trkpt>
      <trkpt lat="34.91605375" lon="135.22608939">
        <ele>229.86</ele>
        <time>2026-10-02T02:49:15Z</time>
      </trkpt>
      <trkpt lat="34.9160153" lon="135.2261793">
        <ele>230.77</ele>
        <time>2026-10-02T02:51:16Z</time>
      </trkpt>
      <trkpt lat="34.91601862" lon="135.22618509">
        <ele>230.18</ele>
        <time>2026-10-02T02:53:17Z</time>
      </trkpt>
      <trkpt lat="34.91601933" lon="135.22618772">
        <ele>230.06</ele>
        <time>2026-10-02T02:57:17Z</time>
      </trkpt>
      <trkpt lat="34.91601979" lon="135.22618911">
        <ele>229.98</ele>
        <time>2026-10-02T02:59:18Z</time>
      </trkpt>
      <trkpt lat="34.91601846" lon="135.22618997">
        <ele>230.05</ele>
        <time>2026-10-02T03:01:19Z</time>
      </trkpt>
      <trkpt lat="34.91601701" lon="135.22619185">
        <ele>229.86</ele>
        <time>2026-10-02T03:03:20Z</time>
      </trkpt>
      <trkpt lat="34.91601373" lon="135.22618214">
        <ele>229.28</ele>
        <time>2026-10-02T03:05:21Z</time>
      </trkpt>
      <trkpt lat="34.91600689" lon="135.22618517">
        <ele>229.22</ele>
        <time>2026-10-02T03:07:22Z</time>
      </trkpt>
      <trkpt lat="34.9160045" lon="135.22623708">
        <ele>230.32</ele>
        <time>2026-10-02T03:09:23Z</time>
      </trkpt>
      <trkpt lat="34.91599582" lon="135.2263506">
        <ele>231.75</ele>
        <time>2026-10-02T03:09:45Z</time>
      </trkpt>
      <trkpt lat="34.9160226" lon="135.22647535">
        <ele>232.19</ele>
        <time>2026-10-02T03:09:57Z</time>
      </trkpt>
      <trkpt lat="34.91606056" lon="135.22658347">
        <ele>231.62</ele>
        <time>2026-10-02T03:10:08Z</time>
      </trkpt>
      <trkpt lat="34.91610705" lon="135.22668355">
        <ele>231.96</ele>
        <time>2026-10-02T03:10:18Z</time>
      </trkpt>
      <trkpt lat="34.91615826" lon="135.22677922">
        <ele>232.1</ele>
        <time>2026-10-02T03:10:28Z</time>
      </trkpt>
      <trkpt lat="34.91620614" lon="135.22688122">
        <ele>231.21</ele>
        <time>2026-10-02T03:10:40Z</time>
      </trkpt>
      <trkpt lat="34.91619878" lon="135.22699586">
        <ele>233.56</ele>
        <time>2026-10-02T03:10:51Z</time>
      </trkpt>
      <trkpt lat="34.91615053" lon="135.22709864">
        <ele>232.65</ele>
        <time>2026-10-02T03:11:01Z</time>
      </trkpt>
      <trkpt lat="34.91610851" lon="135.22720407">
        <ele>233.26</ele>
        <time>2026-10-02T03:11:12Z</time>
      </trkpt>
      <trkpt lat="34.9160647" lon="135.22730698">
        <ele>231.61</ele>
        <time>2026-10-02T03:11:23Z</time>
      </trkpt>
      <trkpt lat="34.91599618" lon="135.22738521">
        <ele>230.96</ele>
        <time>2026-10-02T03:11:34Z</time>
      </trkpt>
      <trkpt lat="34.91598281" lon="135.22749601">
        <ele>233.32</ele>
        <time>2026-10-02T03:13:15Z</time>
      </trkpt>
      <trkpt lat="34.91595436" lon="135.22760271">
        <ele>235.27</ele>
        <time>2026-10-02T03:13:34Z</time>
      </trkpt>
      <trkpt lat="34.91593902" lon="135.22771209">
        <ele>236.75</ele>
        <time>2026-10-02T03:15:20Z</time>
      </trkpt>
      <trkpt lat="34.91595418" lon="135.22759694">
        <ele>238.76</ele>
        <time>2026-10-02T03:16:36Z</time>
      </trkpt>
      <trkpt lat="34.91596923" lon="135.22748559">
        <ele>237.76</ele>
        <time>2026-10-02T03:16:46Z</time>
      </trkpt>
      <trkpt lat="34.91592398" lon="135.22737812">
        <ele>238.37</ele>
        <time>2026-10-02T03:16:56Z</time>
      </trkpt>
      <trkpt lat="34.91585564" lon="135.22729584">
        <ele>238.27</ele>
        <time>2026-10-02T03:17:05Z</time>
      </trkpt>
      <trkpt lat="34.91578699" lon="135.22721089">
        <ele>239.71</ele>
        <time>2026-10-02T03:17:15Z</time>
      </trkpt>
      <trkpt lat="34.9157163" lon="135.22713412">
        <ele>241.43</ele>
        <time>2026-10-02T03:17:25Z</time>
      </trkpt>
      <trkpt lat="34.91562561" lon="135.22707543">
        <ele>243.13</ele>
        <time>2026-10-02T03:17:36Z</time>
      </trkpt>
      <trkpt lat="34.91553111" lon="135.22705869">
        <ele>244.7</ele>
        <time>2026-10-02T03:17:48Z</time>
      </trkpt>
      <trkpt lat="34.9154331" lon="135.22706397">
        <ele>246.16</ele>
        <time>2026-10-02T03:17:59Z</time>
      </trkpt>
      <trkpt lat="34.91533512" lon="135.22704387">
        <ele>248.38</ele>
        <time>2026-10-02T03:18:10Z</time>
      </trkpt>
      <trkpt lat="34.91525585" lon="135.22697624">
        <ele>248.48</ele>
        <time>2026-10-02T03:18:20Z</time>
      </trkpt>
      <trkpt lat="34.91520772" lon="135.22687425">
        <ele>248.13</ele>
        <time>2026-10-02T03:18:31Z</time>
      </trkpt>
      <trkpt lat="34.91516916" lon="135.2267676">
        <ele>249.68</ele>
        <time>2026-10-02T03:18:41Z</time>
      </trkpt>
      <trkpt lat="34.91509549" lon="135.22670123">
        <ele>250.15</ele>
        <time>2026-10-02T03:18:52Z</time>
      </trkpt>
      <trkpt lat="34.91500559" lon="135.22669181">
        <ele>250.57</ele>
        <time>2026-10-02T03:19:02Z</time>
      </trkpt>
      <trkpt lat="34.91492652" lon="135.2267621">
        <ele>250.04</ele>
        <time>2026-10-02T03:19:13Z</time>
      </trkpt>
      <trkpt lat="34.91485384" lon="135.22684105">
        <ele>249.07</ele>
        <time>2026-10-02T03:19:24Z</time>
      </trkpt>
      <trkpt lat="34.91478045" lon="135.22690631">
        <ele>247.52</ele>
        <time>2026-10-02T03:19:34Z</time>
      </trkpt>
      <trkpt lat="34.91469428" lon="135.22694643">
        <ele>248.14</ele>
        <time>2026-10-02T03:19:44Z</time>
      </trkpt>
      <trkpt lat="34.91459711" lon="135.22693055">
        <ele>246.89</ele>
        <time>2026-10-02T03:19:54Z</time>
      </trkpt>
      <trkpt lat="34.91450419" lon="135.22692792">
        <ele>248.8</ele>
        <time>2026-10-02T03:20:13Z</time>
      </trkpt>
      <trkpt lat="34.91440839" lon="135.22695212">
        <ele>249.04</ele>
        <time>2026-10-02T03:21:11Z</time>
      </trkpt>
      <trkpt lat="34.91432132" lon="135.22699928">
        <ele>251.09</ele>
        <time>2026-10-02T03:21:24Z</time>
      </trkpt>
      <trkpt lat="34.91423115" lon="135.22704062">
        <ele>252.45</ele>
        <time>2026-10-02T03:21:37Z</time>
      </trkpt>
      <trkpt lat="34.91413494" lon="135.22702695">
        <ele>254.01</ele>
        <time>2026-10-02T03:21:48Z</time>
      </trkpt>
      <trkpt lat="34.91403935" lon="135.22702601">
        <ele>257.12</ele>
        <time>2026-10-02T03:22:07Z</time>
      </trkpt>
      <trkpt lat="34.91395624" lon="135.22709137">
        <ele>258.02</ele>
        <time>2026-10-02T03:22:17Z</time>
      </trkpt>
      <trkpt lat="34.91387423" lon="135.22715391">
        <ele>260.28</ele>
        <time>2026-10-02T03:22:28Z</time>
      </trkpt>
      <trkpt lat="34.91379351" lon="135.22721736">
        <ele>260.64</ele>
        <time>2026-10-02T03:22:41Z</time>
      </trkpt>
      <trkpt lat="34.91371922" lon="135.22728634">
        <ele>259.54</ele>
        <time>2026-10-02T03:23:08Z</time>
      </trkpt>
      <trkpt lat="34.91370751" lon="135.22740007">
        <ele>258.59</ele>
        <time>2026-10-02T03:23:25Z</time>
      </trkpt>
      <trkpt lat="34.91372496" lon="135.22728537">
        <ele>255.29</ele>
        <time>2026-10-02T03:23:52Z</time>
      </trkpt>
      <trkpt lat="34.9136349" lon="135.22725502">
        <ele>254.47</ele>
        <time>2026-10-02T03:24:09Z</time>
      </trkpt>
      <trkpt lat="34.91356782" lon="135.22733068">
        <ele>253.69</ele>
        <time>2026-10-02T03:24:23Z</time>
      </trkpt>
      <trkpt lat="34.91347375" lon="135.2273627">
        <ele>253.65</ele>
        <time>2026-10-02T03:24:33Z</time>
      </trkpt>
      <trkpt lat="34.91338226" lon="135.22737443">
        <ele>254.71</ele>
        <time>2026-10-02T03:24:42Z</time>
      </trkpt>
      <trkpt lat="34.91342923" lon="135.22727602">
        <ele>253.42</ele>
        <time>2026-10-02T03:25:03Z</time>
      </trkpt>
      <trkpt lat="34.913345" lon="135.22731592">
        <ele>255.51</ele>
        <time>2026-10-02T03:26:42Z</time>
      </trkpt>
      <trkpt lat="34.913254" lon="135.22734596">
        <ele>257.33</ele>
        <time>2026-10-02T03:26:58Z</time>
      </trkpt>
      <trkpt lat="34.91316298" lon="135.22734527">
        <ele>258.13</ele>
        <time>2026-10-02T03:27:11Z</time>
      </trkpt>
      <trkpt lat="34.91307319" lon="135.22730706">
        <ele>257.98</ele>
        <time>2026-10-02T03:28:59Z</time>
      </trkpt>
      <trkpt lat="34.91299162" lon="135.22725987">
        <ele>259.33</ele>
        <time>2026-10-02T03:30:04Z</time>
      </trkpt>
      <trkpt lat="34.91294486" lon="135.22715928">
        <ele>258.15</ele>
        <time>2026-10-02T03:30:19Z</time>
      </trkpt>
      <trkpt lat="34.91292277" lon="135.22704728">
        <ele>257.6</ele>
        <time>2026-10-02T03:30:32Z</time>
      </trkpt>
      <trkpt lat="34.91293305" lon="135.22693749">
        <ele>259.06</ele>
        <time>2026-10-02T03:30:44Z</time>
      </trkpt>
      <trkpt lat="34.91297104" lon="135.22682965">
        <ele>260.76</ele>
        <time>2026-10-02T03:30:55Z</time>
      </trkpt>
      <trkpt lat="34.91305858" lon="135.22679246">
        <ele>261.2</ele>
        <time>2026-10-02T03:31:07Z</time>
      </trkpt>
      <trkpt lat="34.91315259" lon="135.22682336">
        <ele>257.99</ele>
        <time>2026-10-02T03:31:17Z</time>
      </trkpt>
      <trkpt lat="34.91324704" lon="135.22681226">
        <ele>258.82</ele>
        <time>2026-10-02T03:31:29Z</time>
      </trkpt>
      <trkpt lat="34.91333647" lon="135.22678049">
        <ele>253.91</ele>
        <time>2026-10-02T03:31:42Z</time>
      </trkpt>
      <trkpt lat="34.91342531" lon="135.22673269">
        <ele>251.73</ele>
        <time>2026-10-02T03:31:55Z</time>
      </trkpt>
      <trkpt lat="34.91351805" lon="135.22672524">
        <ele>250.55</ele>
        <time>2026-10-02T03:32:05Z</time>
      </trkpt>
      <trkpt lat="34.91358838" lon="135.22665369">
        <ele>252.49</ele>
        <time>2026-10-02T03:32:18Z</time>
      </trkpt>
      <trkpt lat="34.91365265" lon="135.22656935">
        <ele>251.42</ele>
        <time>2026-10-02T03:32:29Z</time>
      </trkpt>
      <trkpt lat="34.91372111" lon="135.22647455">
        <ele>251.6</ele>
        <time>2026-10-02T03:32:44Z</time>
      </trkpt>
      <trkpt lat="34.91369993" lon="135.22635923">
        <ele>253.4</ele>
        <time>2026-10-02T03:32:55Z</time>
      </trkpt>
      <trkpt lat="34.91369119" lon="135.22623898">
        <ele>255.2</ele>
        <time>2026-10-02T03:33:07Z</time>
      </trkpt>
      <trkpt lat="34.91368491" lon="135.22612535">
        <ele>257.27</ele>
        <time>2026-10-02T03:33:20Z</time>
      </trkpt>
      <trkpt lat="34.91367615" lon="135.22601103">
        <ele>255.91</ele>
        <time>2026-10-02T03:33:36Z</time>
      </trkpt>
      <trkpt lat="34.91367242" lon="135.22589307">
        <ele>256.54</ele>
        <time>2026-10-02T03:33:51Z</time>
      </trkpt>
      <trkpt lat="34.91366639" lon="135.22578173">
        <ele>258.72</ele>
        <time>2026-10-02T03:34:03Z</time>
      </trkpt>
      <trkpt lat="34.91365159" lon="135.2256701">
        <ele>256.07</ele>
        <time>2026-10-02T03:34:18Z</time>
      </trkpt>
      <trkpt lat="34.91359786" lon="135.22557487">
        <ele>255.06</ele>
        <time>2026-10-02T03:34:31Z</time>
      </trkpt>
      <trkpt lat="34.91353622" lon="135.22548463">
        <ele>255.41</ele>
        <time>2026-10-02T03:34:43Z</time>
      </trkpt>
      <trkpt lat="34.91345512" lon="135.22542591">
        <ele>255.13</ele>
        <time>2026-10-02T03:34:54Z</time>
      </trkpt>
      <trkpt lat="34.91335814" lon="135.22539654">
        <ele>254.99</ele>
        <time>2026-10-02T03:35:11Z</time>
      </trkpt>
      <trkpt lat="34.91326585" lon="135.22538469">
        <ele>254.93</ele>
        <time>2026-10-02T03:35:29Z</time>
      </trkpt>
      <trkpt lat="34.91322301" lon="135.22528554">
        <ele>251.89</ele>
        <time>2026-10-02T03:35:42Z</time>
      </trkpt>
      <trkpt lat="34.91324923" lon="135.22517124">
        <ele>251.76</ele>
        <time>2026-10-02T03:35:53Z</time>
      </trkpt>
      <trkpt lat="34.91328823" lon="135.22506623">
        <ele>250.8</ele>
        <time>2026-10-02T03:36:04Z</time>
      </trkpt>
      <trkpt lat="34.91335429" lon="135.22498989">
        <ele>248.73</ele>
        <time>2026-10-02T03:36:30Z</time>
      </trkpt>
      <trkpt lat="34.91344518" lon="135.22501478">
        <ele>248.46</ele>
        <time>2026-10-02T03:36:47Z</time>
      </trkpt>
      <trkpt lat="34.91353593" lon="135.22502423">
        <ele>248.06</ele>
        <time>2026-10-02T03:37:54Z</time>
      </trkpt>
      <trkpt lat="34.91363032" lon="135.22502954">
        <ele>246.3</ele>
        <time>2026-10-02T03:38:06Z</time>
      </trkpt>
      <trkpt lat="34.91373578" lon="135.22500603">
        <ele>246.6</ele>
        <time>2026-10-02T03:39:30Z</time>
      </trkpt>
      <trkpt lat="34.91378326" lon="135.22509987">
        <ele>244.43</ele>
        <time>2026-10-02T03:39:44Z</time>
      </trkpt>
      <trkpt lat="34.91387355" lon="135.22513266">
        <ele>245.03</ele>
        <time>2026-10-02T03:39:58Z</time>
      </trkpt>
      <trkpt lat="34.913959" lon="135.2251746">
        <ele>243.28</ele>
        <time>2026-10-02T03:40:19Z</time>
      </trkpt>
      <trkpt lat="34.91405219" lon="135.22517985">
        <ele>242.25</ele>
        <time>2026-10-02T03:40:37Z</time>
      </trkpt>
      <trkpt lat="34.91414933" lon="135.22516777">
        <ele>241.41</ele>
        <time>2026-10-02T03:40:58Z</time>
      </trkpt>
      <trkpt lat="34.91424145" lon="135.22516695">
        <ele>240.92</ele>
        <time>2026-10-02T03:41:13Z</time>
      </trkpt>
      <trkpt lat="34.91434396" lon="135.22517481">
        <ele>240.6</ele>
        <time>2026-10-02T03:41:26Z</time>
      </trkpt>
      <trkpt lat="34.91442595" lon="135.22522262">
        <ele>241.19</ele>
        <time>2026-10-02T03:41:56Z</time>
      </trkpt>
      <trkpt lat="34.91452538" lon="135.22522025">
        <ele>238.32</ele>
        <time>2026-10-02T03:43:01Z</time>
      </trkpt>
      <trkpt lat="34.91463433" lon="135.22524458">
        <ele>237.16</ele>
        <time>2026-10-02T03:43:27Z</time>
      </trkpt>
      <trkpt lat="34.91470648" lon="135.22517819">
        <ele>235.68</ele>
        <time>2026-10-02T03:43:43Z</time>
      </trkpt>
      <trkpt lat="34.91479793" lon="135.22515694">
        <ele>234.82</ele>
        <time>2026-10-02T03:44:04Z</time>
      </trkpt>
      <trkpt lat="34.91489032" lon="135.22519805">
        <ele>234.77</ele>
        <time>2026-10-02T03:44:18Z</time>
      </trkpt>
      <trkpt lat="34.91496268" lon="135.22526809">
        <ele>232.8</ele>
        <time>2026-10-02T03:44:30Z</time>
      </trkpt>
      <trkpt lat="34.91501471" lon="135.22537511">
        <ele>234.53</ele>
        <time>2026-10-02T03:44:44Z</time>
      </trkpt>
      <trkpt lat="34.91501433" lon="135.22533469">
        <ele>235.21</ele>
        <time>2026-10-02T03:46:45Z</time>
      </trkpt>
      <trkpt lat="34.9150118" lon="135.22533416">
        <ele>235.17</ele>
        <time>2026-10-02T03:48:46Z</time>
      </trkpt>
      <trkpt lat="34.91499837" lon="135.22533627">
        <ele>235.96</ele>
        <time>2026-10-02T03:52:44Z</time>
      </trkpt>
      <trkpt lat="34.91503291" lon="135.22523258">
        <ele>235.14</ele>
        <time>2026-10-02T03:53:48Z</time>
      </trkpt>
      <trkpt lat="34.91512044" lon="135.22518084">
        <ele>234.71</ele>
        <time>2026-10-02T03:54:01Z</time>
      </trkpt>
      <trkpt lat="34.91511728" lon="135.22506217">
        <ele>234.02</ele>
        <time>2026-10-02T03:54:20Z</time>
      </trkpt>
      <trkpt lat="34.9150584" lon="135.22496965">
        <ele>230.07</ele>
        <time>2026-10-02T03:54:31Z</time>
      </trkpt>
      <trkpt lat="34.91503387" lon="135.22485735">
        <ele>230.99</ele>
        <time>2026-10-02T03:54:43Z</time>
      </trkpt>
      <trkpt lat="34.91508556" lon="135.22476694">
        <ele>230.97</ele>
        <time>2026-10-02T03:55:12Z</time>
      </trkpt>
      <trkpt lat="34.91505571" lon="135.22480007">
        <ele>231.55</ele>
        <time>2026-10-02T03:57:13Z</time>
      </trkpt>
      <trkpt lat="34.91510077" lon="135.22469608">
        <ele>231.26</ele>
        <time>2026-10-02T03:57:40Z</time>
      </trkpt>
      <trkpt lat="34.91512944" lon="135.2245876">
        <ele>230.81</ele>
        <time>2026-10-02T03:57:53Z</time>
      </trkpt>
      <trkpt lat="34.91506436" lon="135.22449922">
        <ele>234.16</ele>
        <time>2026-10-02T03:58:12Z</time>
      </trkpt>
      <trkpt lat="34.91509578" lon="135.22437498">
        <ele>234.01</ele>
        <time>2026-10-02T03:58:31Z</time>
      </trkpt>
      <trkpt lat="34.91515954" lon="135.22429003">
        <ele>234.28</ele>
        <time>2026-10-02T03:58:45Z</time>
      </trkpt>
      <trkpt lat="34.91516984" lon="135.22427174">
        <ele>233.43</ele>
        <time>2026-10-02T04:00:46Z</time>
      </trkpt>
      <trkpt lat="34.91517014" lon="135.22427059">
        <ele>233.49</ele>
        <time>2026-10-02T04:02:47Z</time>
      </trkpt>
      <trkpt lat="34.91517101" lon="135.22426852">
        <ele>233.58</ele>
        <time>2026-10-02T04:04:48Z</time>
      </trkpt>
      <trkpt lat="34.91517828" lon="135.22426216">
        <ele>233.43</ele>
        <time>2026-10-02T04:06:54Z</time>
      </trkpt>
      <trkpt lat="34.91525836" lon="135.22420575">
        <ele>234.97</ele>
        <time>2026-10-02T04:08:04Z</time>
      </trkpt>
      <trkpt lat="34.91529695" lon="135.22410283">
        <ele>234.67</ele>
        <time>2026-10-02T04:08:17Z</time>
      </trkpt>
      <trkpt lat="34.91532598" lon="135.22399087">
        <ele>234.69</ele>
        <time>2026-10-02T04:08:30Z</time>
      </trkpt>
      <trkpt lat="34.91533733" lon="135.22387239">
        <ele>234.64</ele>
        <time>2026-10-02T04:08:46Z</time>
      </trkpt>
      <trkpt lat="34.91543032" lon="135.22386191">
        <ele>230.1</ele>
        <time>2026-10-02T04:09:07Z</time>
      </trkpt>
      <trkpt lat="34.91552685" lon="135.22386924">
        <ele>230.45</ele>
        <time>2026-10-02T04:09:19Z</time>
      </trkpt>
      <trkpt lat="34.91562201" lon="135.22388557">
        <ele>229.87</ele>
        <time>2026-10-02T04:09:30Z</time>
      </trkpt>
      <trkpt lat="34.91570308" lon="135.22383736">
        <ele>231.4</ele>
        <time>2026-10-02T04:09:41Z</time>
      </trkpt>
      <trkpt lat="34.91577164" lon="135.22373992">
        <ele>231.02</ele>
        <time>2026-10-02T04:09:53Z</time>
      </trkpt>
      <trkpt lat="34.91581874" lon="135.22363699">
        <ele>230.88</ele>
        <time>2026-10-02T04:10:05Z</time>
      </trkpt>
      <trkpt lat="34.91586788" lon="135.22353578">
        <ele>232.02</ele>
        <time>2026-10-02T04:10:15Z</time>
      </trkpt>
      <trkpt lat="34.91591367" lon="135.22343691">
        <ele>232.19</ele>
        <time>2026-10-02T04:10:25Z</time>
      </trkpt>
      <trkpt lat="34.9159659" lon="135.22333544">
        <ele>231.06</ele>
        <time>2026-10-02T04:10:36Z</time>
      </trkpt>
      <trkpt lat="34.9159761" lon="135.22320739">
        <ele>230.7</ele>
        <time>2026-10-02T04:10:48Z</time>
      </trkpt>
      <trkpt lat="34.91594971" lon="135.22309327">
        <ele>229.94</ele>
        <time>2026-10-02T04:10:59Z</time>
      </trkpt>
      <trkpt lat="34.91592327" lon="135.22298489">
        <ele>229.29</ele>
        <time>2026-10-02T04:11:10Z</time>
      </trkpt>
      <trkpt lat="34.91593107" lon="135.2228703">
        <ele>229.61</ele>
        <time>2026-10-02T04:11:22Z</time>
      </trkpt>
      <trkpt lat="34.91594506" lon="135.22275802">
        <ele>227.51</ele>
        <time>2026-10-02T04:11:32Z</time>
      </trkpt>
      <trkpt lat="34.91593184" lon="135.222611">
        <ele>229.35</ele>
        <time>2026-10-02T04:11:46Z</time>
      </trkpt>
      <trkpt lat="34.91591677" lon="135.22249133">
        <ele>231.78</ele>
        <time>2026-10-02T04:11:56Z</time>
      </trkpt>
      <trkpt lat="34.91590317" lon="135.22237577">
        <ele>229.86</ele>
        <time>2026-10-02T04:12:07Z</time>
      </trkpt>
      <trkpt lat="34.91588611" lon="135.22226173">
        <ele>227.63</ele>
        <time>2026-10-02T04:12:18Z</time>
      </trkpt>
      <trkpt lat="34.91588894" lon="135.22215146">
        <ele>226.91</ele>
        <time>2026-10-02T04:12:28Z</time>
      </trkpt>
      <trkpt lat="34.91592151" lon="135.22204455">
        <ele>226.78</ele>
        <time>2026-10-02T04:12:38Z</time>
      </trkpt>
      <trkpt lat="34.91595651" lon="135.22193132">
        <ele>226.38</ele>
        <time>2026-10-02T04:12:48Z</time>
      </trkpt>
      <trkpt lat="34.91600691" lon="135.22183835">
        <ele>224.9</ele>
        <time>2026-10-02T04:12:58Z</time>
      </trkpt>
      <trkpt lat="34.91606489" lon="135.22175133">
        <ele>225.55</ele>
        <time>2026-10-02T04:13:07Z</time>
      </trkpt>
      <trkpt lat="34.91609979" lon="135.22164662">
        <ele>224.81</ele>
        <time>2026-10-02T04:13:17Z</time>
      </trkpt>
      <trkpt lat="34.9161341" lon="135.22154116">
        <ele>225.88</ele>
        <time>2026-10-02T04:13:27Z</time>
      </trkpt>
      <trkpt lat="34.91613609" lon="135.22142417">
        <ele>225.89</ele>
        <time>2026-10-02T04:13:37Z</time>
      </trkpt>
      <trkpt lat="34.91610729" lon="135.22131786">
        <ele>226.02</ele>
        <time>2026-10-02T04:13:48Z</time>
      </trkpt>
      <trkpt lat="34.91602582" lon="135.22126075">
        <ele>224.84</ele>
        <time>2026-10-02T04:14:01Z</time>
      </trkpt>
      <trkpt lat="34.9159913" lon="135.22115827">
        <ele>224.73</ele>
        <time>2026-10-02T04:14:12Z</time>
      </trkpt>
      <trkpt lat="34.9159751" lon="135.22103991">
        <ele>224.72</ele>
        <time>2026-10-02T04:14:23Z</time>
      </trkpt>
      <trkpt lat="34.91597795" lon="135.2209305">
        <ele>222.22</ele>
        <time>2026-10-02T04:14:33Z</time>
      </trkpt>
      <trkpt lat="34.91596523" lon="135.2208163">
        <ele>222.4</ele>
        <time>2026-10-02T04:14:42Z</time>
      </trkpt>
      <trkpt lat="34.91596493" lon="135.22069546">
        <ele>221.7</ele>
        <time>2026-10-02T04:14:52Z</time>
      </trkpt>
      <trkpt lat="34.91593144" lon="135.22058657">
        <ele>220.03</ele>
        <time>2026-10-02T04:15:02Z</time>
      </trkpt>
      <trkpt lat="34.9159321" lon="135.22047705">
        <ele>218.45</ele>
        <time>2026-10-02T04:15:12Z</time>
      </trkpt>
      <trkpt lat="34.91592724" lon="135.22035509">
        <ele>220.5</ele>
        <time>2026-10-02T04:15:22Z</time>
      </trkpt>
      <trkpt lat="34.91591359" lon="135.22024246">
        <ele>220.99</ele>
        <time>2026-10-02T04:15:32Z</time>
      </trkpt>
      <trkpt lat="34.91589495" lon="135.22012802">
        <ele>221.92</ele>
        <time>2026-10-02T04:15:43Z</time>
      </trkpt>
      <trkpt lat="34.91584827" lon="135.22002812">
        <ele>222.36</ele>
        <time>2026-10-02T04:15:53Z</time>
      </trkpt>
      <trkpt lat="34.91580404" lon="135.21992553">
        <ele>224.2</ele>
        <time>2026-10-02T04:16:03Z</time>
      </trkpt>
      <trkpt lat="34.9157559" lon="135.21982424">
        <ele>223.29</ele>
        <time>2026-10-02T04:16:18Z</time>
      </trkpt>
      <trkpt lat="34.9157189" lon="135.21972202">
        <ele>225.35</ele>
        <time>2026-10-02T04:16:30Z</time>
      </trkpt>
      <trkpt lat="34.91566629" lon="135.21962897">
        <ele>225.49</ele>
        <time>2026-10-02T04:17:00Z</time>
      </trkpt>
      <trkpt lat="34.91560186" lon="135.21954205">
        <ele>225.64</ele>
        <time>2026-10-02T04:17:10Z</time>
      </trkpt>
      <trkpt lat="34.91551866" lon="135.21949592">
        <ele>227.7</ele>
        <time>2026-10-02T04:17:19Z</time>
      </trkpt>
      <trkpt lat="34.91542445" lon="135.21950286">
        <ele>226.83</ele>
        <time>2026-10-02T04:18:15Z</time>
      </trkpt>
      <trkpt lat="34.91534159" lon="135.21954623">
        <ele>227.84</ele>
        <time>2026-10-02T04:18:26Z</time>
      </trkpt>
      <trkpt lat="34.9152541" lon="135.21950348">
        <ele>226.95</ele>
        <time>2026-10-02T04:18:39Z</time>
      </trkpt>
      <trkpt lat="34.91523538" lon="135.21938829">
        <ele>222.89</ele>
        <time>2026-10-02T04:18:55Z</time>
      </trkpt>
      <trkpt lat="34.9152613" lon="135.21927867">
        <ele>221.13</ele>
        <time>2026-10-02T04:19:07Z</time>
      </trkpt>
      <trkpt lat="34.91525761" lon="135.21916493">
        <ele>218.89</ele>
        <time>2026-10-02T04:19:22Z</time>
      </trkpt>
      <trkpt lat="34.91530374" lon="135.21906437">
        <ele>218.6</ele>
        <time>2026-10-02T04:19:37Z</time>
      </trkpt>
      <trkpt lat="34.91533025" lon="135.21895496">
        <ele>219.21</ele>
        <time>2026-10-02T04:19:50Z</time>
      </trkpt>
      <trkpt lat="34.91534865" lon="135.21880529">
        <ele>221.28</ele>
        <time>2026-10-02T04:20:04Z</time>
      </trkpt>
      <trkpt lat="34.91532277" lon="135.21869841">
        <ele>219.91</ele>
        <time>2026-10-02T04:20:16Z</time>
      </trkpt>
      <trkpt lat="34.91528072" lon="135.21859891">
        <ele>220.16</ele>
        <time>2026-10-02T04:20:40Z</time>
      </trkpt>
      <trkpt lat="34.91525833" lon="135.21848677">
        <ele>219.5</ele>
        <time>2026-10-02T04:20:53Z</time>
      </trkpt>
      <trkpt lat="34.91522553" lon="135.21838462">
        <ele>219.1</ele>
        <time>2026-10-02T04:21:05Z</time>
      </trkpt>
      <trkpt lat="34.91516912" lon="135.21829518">
        <ele>217.06</ele>
        <time>2026-10-02T04:21:28Z</time>
      </trkpt>
      <trkpt lat="34.91512175" lon="135.21820137">
        <ele>217.14</ele>
        <time>2026-10-02T04:21:40Z</time>
      </trkpt>
      <trkpt lat="34.91507066" lon="135.2181018">
        <ele>217.37</ele>
        <time>2026-10-02T04:21:52Z</time>
      </trkpt>
      <trkpt lat="34.91501619" lon="135.21799894">
        <ele>217.67</ele>
        <time>2026-10-02T04:22:04Z</time>
      </trkpt>
      <trkpt lat="34.91495456" lon="135.21790798">
        <ele>218.64</ele>
        <time>2026-10-02T04:22:14Z</time>
      </trkpt>
      <trkpt lat="34.91488531" lon="135.21783129">
        <ele>220.03</ele>
        <time>2026-10-02T04:22:25Z</time>
      </trkpt>
      <trkpt lat="34.91484068" lon="135.21773043">
        <ele>219.72</ele>
        <time>2026-10-02T04:22:35Z</time>
      </trkpt>
      <trkpt lat="34.91479804" lon="135.2176263">
        <ele>221.08</ele>
        <time>2026-10-02T04:22:45Z</time>
      </trkpt>
      <trkpt lat="34.91479962" lon="135.21751308">
        <ele>219.7</ele>
        <time>2026-10-02T04:22:54Z</time>
      </trkpt>
      <trkpt lat="34.91478065" lon="135.21739671">
        <ele>218.32</ele>
        <time>2026-10-02T04:23:05Z</time>
      </trkpt>
      <trkpt lat="34.91473535" lon="135.21730041">
        <ele>217.34</ele>
        <time>2026-10-02T04:23:16Z</time>
      </trkpt>
      <trkpt lat="34.91468581" lon="135.21720547">
        <ele>215.73</ele>
        <time>2026-10-02T04:23:27Z</time>
      </trkpt>
      <trkpt lat="34.91462114" lon="135.21711495">
        <ele>214.35</ele>
        <time>2026-10-02T04:23:41Z</time>
      </trkpt>
      <trkpt lat="34.91455043" lon="135.21703077">
        <ele>213.33</ele>
        <time>2026-10-02T04:23:52Z</time>
      </trkpt>
      <trkpt lat="34.91450108" lon="135.21693783">
        <ele>212.79</ele>
        <time>2026-10-02T04:24:02Z</time>
      </trkpt>
      <trkpt lat="34.91444535" lon="135.21683336">
        <ele>212.46</ele>
        <time>2026-10-02T04:24:14Z</time>
      </trkpt>
      <trkpt lat="34.91441631" lon="135.2167286">
        <ele>212.53</ele>
        <time>2026-10-02T04:24:26Z</time>
      </trkpt>
      <trkpt lat="34.9144241" lon="135.21661434">
        <ele>211.56</ele>
        <time>2026-10-02T04:24:38Z</time>
      </trkpt>
      <trkpt lat="34.91441636" lon="135.2164941">
        <ele>211.73</ele>
        <time>2026-10-02T04:24:50Z</time>
      </trkpt>
      <trkpt lat="34.91440855" lon="135.21637862">
        <ele>212.27</ele>
        <time>2026-10-02T04:25:01Z</time>
      </trkpt>
      <trkpt lat="34.91440469" lon="135.21626689">
        <ele>212.79</ele>
        <time>2026-10-02T04:25:30Z</time>
      </trkpt>
      <trkpt lat="34.91441251" lon="135.21615227">
        <ele>212.76</ele>
        <time>2026-10-02T04:25:40Z</time>
      </trkpt>
      <trkpt lat="34.91444057" lon="135.21604472">
        <ele>213.86</ele>
        <time>2026-10-02T04:25:52Z</time>
      </trkpt>
      <trkpt lat="34.91447003" lon="135.21593327">
        <ele>213.68</ele>
        <time>2026-10-02T04:26:06Z</time>
      </trkpt>
      <trkpt lat="34.91449299" lon="135.21582646">
        <ele>214.63</ele>
        <time>2026-10-02T04:26:17Z</time>
      </trkpt>
      <trkpt lat="34.91450115" lon="135.21571712">
        <ele>214.18</ele>
        <time>2026-10-02T04:26:28Z</time>
      </trkpt>
      <trkpt lat="34.91449652" lon="135.21560055">
        <ele>214.21</ele>
        <time>2026-10-02T04:26:39Z</time>
      </trkpt>
      <trkpt lat="34.91448337" lon="135.21548311">
        <ele>213.8</ele>
        <time>2026-10-02T04:26:51Z</time>
      </trkpt>
      <trkpt lat="34.91448206" lon="135.21536913">
        <ele>214.39</ele>
        <time>2026-10-02T04:27:02Z</time>
      </trkpt>
      <trkpt lat="34.9144981" lon="135.21523404">
        <ele>213.48</ele>
        <time>2026-10-02T04:27:14Z</time>
      </trkpt>
      <trkpt lat="34.91446787" lon="135.21512536">
        <ele>213.73</ele>
        <time>2026-10-02T04:27:24Z</time>
      </trkpt>
      <trkpt lat="34.91440562" lon="135.21504229">
        <ele>210.35</ele>
        <time>2026-10-02T04:27:37Z</time>
      </trkpt>
      <trkpt lat="34.91433545" lon="135.21496771">
        <ele>209.77</ele>
        <time>2026-10-02T04:27:47Z</time>
      </trkpt>
      <trkpt lat="34.91426413" lon="135.21488714">
        <ele>209.86</ele>
        <time>2026-10-02T04:27:58Z</time>
      </trkpt>
      <trkpt lat="34.91422739" lon="135.21478528">
        <ele>209.56</ele>
        <time>2026-10-02T04:28:09Z</time>
      </trkpt>
      <trkpt lat="34.91422808" lon="135.21467265">
        <ele>209.25</ele>
        <time>2026-10-02T04:28:19Z</time>
      </trkpt>
      <trkpt lat="34.91422943" lon="135.21455665">
        <ele>208.26</ele>
        <time>2026-10-02T04:28:30Z</time>
      </trkpt>
      <trkpt lat="34.91422933" lon="135.21444033">
        <ele>207.51</ele>
        <time>2026-10-02T04:28:41Z</time>
      </trkpt>
      <trkpt lat="34.91423249" lon="135.21432349">
        <ele>207.38</ele>
        <time>2026-10-02T04:28:52Z</time>
      </trkpt>
      <trkpt lat="34.91424238" lon="135.21421147">
        <ele>207.11</ele>
        <time>2026-10-02T04:30:29Z</time>
      </trkpt>
      <trkpt lat="34.91429109" lon="135.21411592">
        <ele>206.31</ele>
        <time>2026-10-02T04:30:41Z</time>
      </trkpt>
      <trkpt lat="34.91431626" lon="135.21400381">
        <ele>204.9</ele>
        <time>2026-10-02T04:30:52Z</time>
      </trkpt>
      <trkpt lat="34.91435637" lon="135.21388189">
        <ele>204.38</ele>
        <time>2026-10-02T04:31:04Z</time>
      </trkpt>
      <trkpt lat="34.9143852" lon="135.21375852">
        <ele>204.14</ele>
        <time>2026-10-02T04:31:15Z</time>
      </trkpt>
      <trkpt lat="34.91437585" lon="135.21363967">
        <ele>205.14</ele>
        <time>2026-10-02T04:31:25Z</time>
      </trkpt>
      <trkpt lat="34.91438153" lon="135.21352776">
        <ele>206.55</ele>
        <time>2026-10-02T04:31:33Z</time>
      </trkpt>
      <trkpt lat="34.91443939" lon="135.21343718">
        <ele>208.16</ele>
        <time>2026-10-02T04:31:41Z</time>
      </trkpt>
      <trkpt lat="34.9145254" lon="135.21338068">
        <ele>209.07</ele>
        <time>2026-10-02T04:31:50Z</time>
      </trkpt>
      <trkpt lat="34.91461264" lon="135.21332362">
        <ele>207.77</ele>
        <time>2026-10-02T04:32:02Z</time>
      </trkpt>
      <trkpt lat="34.91469431" lon="135.21327088">
        <ele>208.64</ele>
        <time>2026-10-02T04:32:13Z</time>
      </trkpt>
      <trkpt lat="34.91476918" lon="135.21320774">
        <ele>208.24</ele>
        <time>2026-10-02T04:32:25Z</time>
      </trkpt>
      <trkpt lat="34.91477224" lon="135.21309151">
        <ele>206</ele>
        <time>2026-10-02T04:32:37Z</time>
      </trkpt>
      <trkpt lat="34.91472537" lon="135.21297214">
        <ele>205.36</ele>
        <time>2026-10-02T04:33:05Z</time>
      </trkpt>
      <trkpt lat="34.91469198" lon="135.21286878">
        <ele>205.22</ele>
        <time>2026-10-02T04:33:50Z</time>
      </trkpt>
      <trkpt lat="34.91473568" lon="135.21277013">
        <ele>204.87</ele>
        <time>2026-10-02T04:33:59Z</time>
      </trkpt>
      <trkpt lat="34.91474036" lon="135.21263712">
        <ele>202.8</ele>
        <time>2026-10-02T04:34:13Z</time>
      </trkpt>
      <trkpt lat="34.9146945" lon="135.2125348">
        <ele>201.28</ele>
        <time>2026-10-02T04:34:21Z</time>
      </trkpt>
      <trkpt lat="34.91470764" lon="135.21242644">
        <ele>200.71</ele>
        <time>2026-10-02T04:34:31Z</time>
      </trkpt>
      <trkpt lat="34.91472655" lon="135.21229639">
        <ele>202.78</ele>
        <time>2026-10-02T04:34:41Z</time>
      </trkpt>
      <trkpt lat="34.91475002" lon="135.21218135">
        <ele>202.63</ele>
        <time>2026-10-02T04:35:11Z</time>
      </trkpt>
      <trkpt lat="34.91475527" lon="135.2120714">
        <ele>201.56</ele>
        <time>2026-10-02T04:35:23Z</time>
      </trkpt>
      <trkpt lat="34.9147695" lon="135.21195516">
        <ele>201.47</ele>
        <time>2026-10-02T04:35:34Z</time>
      </trkpt>
      <trkpt lat="34.91475258" lon="135.21183686">
        <ele>202.23</ele>
        <time>2026-10-02T04:35:46Z</time>
      </trkpt>
      <trkpt lat="34.91473623" lon="135.21172218">
        <ele>202.23</ele>
        <time>2026-10-02T04:35:57Z</time>
      </trkpt>
      <trkpt lat="34.9146398" lon="135.21169585">
        <ele>203.18</ele>
        <time>2026-10-02T04:36:08Z</time>
      </trkpt>
      <trkpt lat="34.91457696" lon="135.21161645">
        <ele>203.86</ele>
        <time>2026-10-02T04:36:20Z</time>
      </trkpt>
      <trkpt lat="34.91450732" lon="135.21153281">
        <ele>203.49</ele>
        <time>2026-10-02T04:36:38Z</time>
      </trkpt>
      <trkpt lat="34.91443552" lon="135.21145661">
        <ele>203.26</ele>
        <time>2026-10-02T04:36:48Z</time>
      </trkpt>
      <trkpt lat="34.9143434" lon="135.21144819">
        <ele>203.36</ele>
        <time>2026-10-02T04:36:59Z</time>
      </trkpt>
      <trkpt lat="34.91425004" lon="135.21149316">
        <ele>202.79</ele>
        <time>2026-10-02T04:37:10Z</time>
      </trkpt>
      <trkpt lat="34.91416305" lon="135.21152673">
        <ele>204.26</ele>
        <time>2026-10-02T04:37:20Z</time>
      </trkpt>
      <trkpt lat="34.91407671" lon="135.21157241">
        <ele>202.55</ele>
        <time>2026-10-02T04:37:31Z</time>
      </trkpt>
      <trkpt lat="34.91399768" lon="135.21163258">
        <ele>199.99</ele>
        <time>2026-10-02T04:37:41Z</time>
      </trkpt>
      <trkpt lat="34.91390621" lon="135.21166571">
        <ele>199.13</ele>
        <time>2026-10-02T04:37:54Z</time>
      </trkpt>
      <trkpt lat="34.91381827" lon="135.21169547">
        <ele>198.66</ele>
        <time>2026-10-02T04:38:03Z</time>
      </trkpt>
      <trkpt lat="34.913764" lon="135.21160662">
        <ele>198.53</ele>
        <time>2026-10-02T04:38:14Z</time>
      </trkpt>
      <trkpt lat="34.91373086" lon="135.21149475">
        <ele>199.95</ele>
        <time>2026-10-02T04:38:23Z</time>
      </trkpt>
      <trkpt lat="34.91369731" lon="135.21138934">
        <ele>200.38</ele>
        <time>2026-10-02T04:38:32Z</time>
      </trkpt>
      <trkpt lat="34.91366662" lon="135.21128189">
        <ele>199.83</ele>
        <time>2026-10-02T04:38:42Z</time>
      </trkpt>
      <trkpt lat="34.9136327" lon="135.21116839">
        <ele>200.82</ele>
        <time>2026-10-02T04:38:53Z</time>
      </trkpt>
      <trkpt lat="34.91360409" lon="135.21105976">
        <ele>200.87</ele>
        <time>2026-10-02T04:39:02Z</time>
      </trkpt>
      <trkpt lat="34.91358141" lon="135.21094602">
        <ele>201.48</ele>
        <time>2026-10-02T04:39:13Z</time>
      </trkpt>
      <trkpt lat="34.91356559" lon="135.21083711">
        <ele>201.04</ele>
        <time>2026-10-02T04:39:22Z</time>
      </trkpt>
      <trkpt lat="34.91352199" lon="135.21073746">
        <ele>202.03</ele>
        <time>2026-10-02T04:39:33Z</time>
      </trkpt>
      <trkpt lat="34.91349172" lon="135.2106337">
        <ele>203.1</ele>
        <time>2026-10-02T04:39:43Z</time>
      </trkpt>
      <trkpt lat="34.91344841" lon="135.21052639">
        <ele>201.18</ele>
        <time>2026-10-02T04:39:55Z</time>
      </trkpt>
      <trkpt lat="34.91342192" lon="135.21041473">
        <ele>200.22</ele>
        <time>2026-10-02T04:40:05Z</time>
      </trkpt>
      <trkpt lat="34.91339277" lon="135.21030489">
        <ele>200.86</ele>
        <time>2026-10-02T04:40:14Z</time>
      </trkpt>
      <trkpt lat="34.91336792" lon="135.21019806">
        <ele>201.13</ele>
        <time>2026-10-02T04:40:24Z</time>
      </trkpt>
      <trkpt lat="34.91333871" lon="135.21008729">
        <ele>201.59</ele>
        <time>2026-10-02T04:40:34Z</time>
      </trkpt>
      <trkpt lat="34.91329914" lon="135.20998054">
        <ele>202.4</ele>
        <time>2026-10-02T04:40:43Z</time>
      </trkpt>
      <trkpt lat="34.91327415" lon="135.20986972">
        <ele>202.68</ele>
        <time>2026-10-02T04:40:52Z</time>
      </trkpt>
      <trkpt lat="34.91325011" lon="135.20976196">
        <ele>202.37</ele>
        <time>2026-10-02T04:41:01Z</time>
      </trkpt>
      <trkpt lat="34.91321602" lon="135.20965519">
        <ele>202.85</ele>
        <time>2026-10-02T04:41:10Z</time>
      </trkpt>
      <trkpt lat="34.91318605" lon="135.20954819">
        <ele>202.95</ele>
        <time>2026-10-02T04:41:19Z</time>
      </trkpt>
      <trkpt lat="34.9131595" lon="135.2094327">
        <ele>202.59</ele>
        <time>2026-10-02T04:41:29Z</time>
      </trkpt>
      <trkpt lat="34.91313038" lon="135.20932213">
        <ele>201.19</ele>
        <time>2026-10-02T04:41:40Z</time>
      </trkpt>
      <trkpt lat="34.9131025" lon="135.20921734">
        <ele>200.94</ele>
        <time>2026-10-02T04:41:50Z</time>
      </trkpt>
      <trkpt lat="34.91307402" lon="135.20910461">
        <ele>200.35</ele>
        <time>2026-10-02T04:42:00Z</time>
      </trkpt>
      <trkpt lat="34.91304735" lon="135.20899882">
        <ele>199.92</ele>
        <time>2026-10-02T04:42:09Z</time>
      </trkpt>
      <trkpt lat="34.91300993" lon="135.20888887">
        <ele>199.65</ele>
        <time>2026-10-02T04:42:19Z</time>
      </trkpt>
      <trkpt lat="34.9129795" lon="135.20877547">
        <ele>199.27</ele>
        <time>2026-10-02T04:42:29Z</time>
      </trkpt>
      <trkpt lat="34.91295144" lon="135.2086707">
        <ele>199.6</ele>
        <time>2026-10-02T04:42:38Z</time>
      </trkpt>
      <trkpt lat="34.91292646" lon="135.20856492">
        <ele>200.33</ele>
        <time>2026-10-02T04:42:47Z</time>
      </trkpt>
      <trkpt lat="34.91289631" lon="135.20845671">
        <ele>201.02</ele>
        <time>2026-10-02T04:42:56Z</time>
      </trkpt>
      <trkpt lat="34.91286183" lon="135.20835247">
        <ele>201.67</ele>
        <time>2026-10-02T04:43:05Z</time>
      </trkpt>
      <trkpt lat="34.91283276" lon="135.20824656">
        <ele>201.8</ele>
        <time>2026-10-02T04:43:14Z</time>
      </trkpt>
      <trkpt lat="34.91280178" lon="135.20813393">
        <ele>201.75</ele>
        <time>2026-10-02T04:43:24Z</time>
      </trkpt>
      <trkpt lat="34.91277137" lon="135.20803022">
        <ele>202.26</ele>
        <time>2026-10-02T04:43:33Z</time>
      </trkpt>
      <trkpt lat="34.91278374" lon="135.20791959">
        <ele>201.71</ele>
        <time>2026-10-02T04:43:43Z</time>
      </trkpt>
      <trkpt lat="34.91281259" lon="135.20781291">
        <ele>201.48</ele>
        <time>2026-10-02T04:43:59Z</time>
      </trkpt>
      <trkpt lat="34.91272274" lon="135.20775867">
        <ele>201.92</ele>
        <time>2026-10-02T04:44:07Z</time>
      </trkpt>
      <trkpt lat="34.9126631" lon="135.20766878">
        <ele>202.25</ele>
        <time>2026-10-02T04:44:16Z</time>
      </trkpt>
      <trkpt lat="34.912638" lon="135.20756157">
        <ele>201.17</ele>
        <time>2026-10-02T04:44:25Z</time>
      </trkpt>
      <trkpt lat="34.91260994" lon="135.20744992">
        <ele>199.4</ele>
        <time>2026-10-02T04:44:35Z</time>
      </trkpt>
      <trkpt lat="34.91257754" lon="135.20734357">
        <ele>199.39</ele>
        <time>2026-10-02T04:44:45Z</time>
      </trkpt>
      <trkpt lat="34.91255585" lon="135.20723351">
        <ele>190.46</ele>
        <time>2026-10-02T04:45:04Z</time>
      </trkpt>
      <trkpt lat="34.91250994" lon="135.20713049">
        <ele>191.97</ele>
        <time>2026-10-02T04:45:09Z</time>
      </trkpt>
      <trkpt lat="34.91246487" lon="135.20703058">
        <ele>193.74</ele>
        <time>2026-10-02T04:45:16Z</time>
      </trkpt>
      <trkpt lat="34.91242379" lon="135.20692665">
        <ele>195.36</ele>
        <time>2026-10-02T04:45:25Z</time>
      </trkpt>
      <trkpt lat="34.91237821" lon="135.20682753">
        <ele>196.71</ele>
        <time>2026-10-02T04:45:35Z</time>
      </trkpt>
      <trkpt lat="34.91228101" lon="135.20680888">
        <ele>199.07</ele>
        <time>2026-10-02T04:45:45Z</time>
      </trkpt>
      <trkpt lat="34.91219177" lon="135.20684504">
        <ele>199.72</ele>
        <time>2026-10-02T04:45:55Z</time>
      </trkpt>
      <trkpt lat="34.91210682" lon="135.20689403">
        <ele>199.99</ele>
        <time>2026-10-02T04:46:05Z</time>
      </trkpt>
      <trkpt lat="34.9120192" lon="135.20694631">
        <ele>200.13</ele>
        <time>2026-10-02T04:46:15Z</time>
      </trkpt>
      <trkpt lat="34.91193434" lon="135.20699068">
        <ele>201.41</ele>
        <time>2026-10-02T04:46:25Z</time>
      </trkpt>
      <trkpt lat="34.91184192" lon="135.20703608">
        <ele>202.59</ele>
        <time>2026-10-02T04:46:36Z</time>
      </trkpt>
      <trkpt lat="34.9117512" lon="135.20707416">
        <ele>202.33</ele>
        <time>2026-10-02T04:46:46Z</time>
      </trkpt>
      <trkpt lat="34.9116664" lon="135.20712256">
        <ele>200.45</ele>
        <time>2026-10-02T04:46:57Z</time>
      </trkpt>
      <trkpt lat="34.91158714" lon="135.20718089">
        <ele>199.5</ele>
        <time>2026-10-02T04:47:07Z</time>
      </trkpt>
      <trkpt lat="34.91150067" lon="135.20721606">
        <ele>198.59</ele>
        <time>2026-10-02T04:47:17Z</time>
      </trkpt>
      <trkpt lat="34.91141373" lon="135.20726034">
        <ele>197.12</ele>
        <time>2026-10-02T04:47:27Z</time>
      </trkpt>
      <trkpt lat="34.91132609" lon="135.20731039">
        <ele>196.07</ele>
        <time>2026-10-02T04:47:37Z</time>
      </trkpt>
      <trkpt lat="34.91125124" lon="135.2073726">
        <ele>196.65</ele>
        <time>2026-10-02T04:47:46Z</time>
      </trkpt>
      <trkpt lat="34.91117221" lon="135.20743987">
        <ele>196.94</ele>
        <time>2026-10-02T04:47:55Z</time>
      </trkpt>
      <trkpt lat="34.91109075" lon="135.20750298">
        <ele>197.14</ele>
        <time>2026-10-02T04:48:04Z</time>
      </trkpt>
      <trkpt lat="34.91100817" lon="135.20755012">
        <ele>197.66</ele>
        <time>2026-10-02T04:48:13Z</time>
      </trkpt>
      <trkpt lat="34.91091977" lon="135.20760367">
        <ele>196.63</ele>
        <time>2026-10-02T04:48:23Z</time>
      </trkpt>
      <trkpt lat="34.91083267" lon="135.20765295">
        <ele>196.85</ele>
        <time>2026-10-02T04:48:32Z</time>
      </trkpt>
      <trkpt lat="34.910741" lon="135.20770114">
        <ele>196.49</ele>
        <time>2026-10-02T04:48:41Z</time>
      </trkpt>
      <trkpt lat="34.91064839" lon="135.2077105">
        <ele>196.2</ele>
        <time>2026-10-02T04:48:50Z</time>
      </trkpt>
      <trkpt lat="34.91055423" lon="135.2077038">
        <ele>196.78</ele>
        <time>2026-10-02T04:48:59Z</time>
      </trkpt>
      <trkpt lat="34.91046834" lon="135.20774829">
        <ele>197.67</ele>
        <time>2026-10-02T04:49:08Z</time>
      </trkpt>
      <trkpt lat="34.91037848" lon="135.207797">
        <ele>198.74</ele>
        <time>2026-10-02T04:49:17Z</time>
      </trkpt>
      <trkpt lat="34.91029096" lon="135.20784427">
        <ele>199.01</ele>
        <time>2026-10-02T04:49:26Z</time>
      </trkpt>
      <trkpt lat="34.91020875" lon="135.20789427">
        <ele>199.62</ele>
        <time>2026-10-02T04:49:35Z</time>
      </trkpt>
    </trkseg>
  </trk>
</gpx>