<?xml version='1.0' encoding='UTF-8' standalone='yes' ?>
<gpx xmlns="http://www.topografix.com/GPX/1/1" xmlns:geotracker="http://ilyabogdanovich.com/gpx/extensions/geotracker" xmlns:xsi="http://www.w3.org/2001/XMLSchema-instance" xsi:schemaLocation="http://www.topografix.com/GPX/1/1 http://www.topografix.com/GPX/1/1/gpx.xsd" version="1.1" creator="Recorded in Geo Tracker for Android from Ilya Bogdanovich">
  <metadata>
    <name>2026/08/31 10:13:32</name>
    <author>
      <name>Recorded in Geo Tracker for Android from Ilya Bogdanovich</name>
      <link href="https://play.google.com/store/apps/details?id=com.ilyabogdanovich.geotracker" />
    </author>
    <link href="https://play.google.com/store/apps/details?id=com.ilyabogdanovich.geotracker" />
    <time>2026-08-31T01:13:32Z</time>
  </metadata>
  <wpt lat="34.73793136" lon="135.1794905">
    <ele>473.63</ele>
    <time>2026-08-31T01:28:03Z</time>
    <name>Stop for ~2 min</name>
    <desc>Elevation: 474 m
Time from start: 00:14:30
Distance from start: 592 m</desc>
    <extensions>
      <geotracker:meta emoji="⏱️" />
    </extensions>
  </wpt>
  <wpt lat="34.73688974" lon="135.18224704">
    <ele>446.95</ele>
    <time>2026-08-31T01:56:43Z</time>
    <name>Stop for ~2 min</name>
    <desc>Elevation: 447 m
Time from start: 00:43:10
Distance from start: 1.23 km</desc>
    <extensions>
      <geotracker:meta emoji="⏱️" />
    </extensions>
  </wpt>
  <wpt lat="34.73510598" lon="135.17818309">
    <ele>449.04</ele>
    <time>2026-08-31T02:17:49Z</time>
    <name>Stop for ~6 min</name>
    <desc>Elevation: 449 m
Time from start: 01:04:16
Distance from start: 1.85 km</desc>
    <extensions>
      <geotracker:meta emoji="⏱️" />
    </extensions>
  </wpt>
  <wpt lat="34.73854884" lon="135.17629312">
    <ele>476.61</ele>
    <time>2026-08-31T03:19:10Z</time>
    <name>Stop for ~9 min</name>
    <desc>Elevation: 477 m
Time from start: 02:05:37
Distance from start: 3.15 km</desc>
    <extensions>
      <geotracker:meta emoji="⏱️" />
    </extensions>
  </wpt>
  <wpt lat="34.73908005" lon="135.17842955">
    <ele>465.1</ele>
    <time>2026-08-31T03:28:18Z</time>
    <name>Stop for ~7 min</name>
    <desc>Elevation: 465 m
Time from start: 02:14:45
Distance from start: 3.38 km</desc>
    <extensions>
      <geotracker:meta emoji="⏱️" />
    </extensions>
  </wpt>
  <trk>
    <name>2026/08/31 10:13:32</name>
    <src>Recorded in Geo Tracker for Android from Ilya Bogdanovich</src>
    <link href="https://play.google.com/store/apps/details?id=com.ilyabogdanovich.geotracker" />
    <extensions>
      <geotracker:meta>
        <geotracker:length>3814.09</geotracker:length>
        <geotracker:duration>9414204</geotracker:duration>
        <geotracker:creationtime>2026-08-31T01:13:32Z</geotracker:creationtime>
        <geotracker:activity>0</geotracker:activity>
      </geotracker:meta>
    </extensions>
    <trkseg>
      <trkpt lat="34.74203142" lon="135.1770595">
        <ele>477.41</ele>
        <time>2026-08-31T01:13:40Z</time>
      </trkpt>
      <trkpt lat="34.7419508" lon="135.1771428">
        <ele>482.35</ele>
        <time>2026-08-31T01:13:54Z</time>
      </trkpt>
      <trkpt lat="34.74185945" lon="135.17714399">
        <ele>482.88</ele>
        <time>2026-08-31T01:14:04Z</time>
      </trkpt>
      <trkpt lat="34.74177864" lon="135.17722239">
        <ele>483.19</ele>
        <time>2026-08-31T01:14:16Z</time>
      </trkpt>
      <trkpt lat="34.74168989" lon="135.1772707">
        <ele>480.77</ele>
        <time>2026-08-31T01:14:27Z</time>
      </trkpt>
      <trkpt lat="34.74163537" lon="135.1773597">
        <ele>481.03</ele>
        <time>2026-08-31T01:14:37Z</time>
      </trkpt>
      <trkpt lat="34.74155267" lon="135.17741024">
        <ele>480.88</ele>
        <time>2026-08-31T01:14:53Z</time>
      </trkpt>
      <trkpt lat="34.74147387" lon="135.1774818">
        <ele>480.95</ele>
        <time>2026-08-31T01:15:06Z</time>
      </trkpt>
      <trkpt lat="34.74139188" lon="135.17754871">
        <ele>483.42</ele>
        <time>2026-08-31T01:15:15Z</time>
      </trkpt>
      <trkpt lat="34.74130996" lon="135.17759692">
        <ele>478.82</ele>
        <time>2026-08-31T01:15:24Z</time>
      </trkpt>
      <trkpt lat="34.74124131" lon="135.17767083">
        <ele>479.95</ele>
        <time>2026-08-31T01:15:34Z</time>
      </trkpt>
      <trkpt lat="34.74116077" lon="135.17773401">
        <ele>481</ele>
        <time>2026-08-31T01:15:42Z</time>
      </trkpt>
      <trkpt lat="34.74105215" lon="135.17775894">
        <ele>482.41</ele>
        <time>2026-08-31T01:15:54Z</time>
      </trkpt>
      <trkpt lat="34.74096" lon="135.17777651">
        <ele>483.92</ele>
        <time>2026-08-31T01:16:04Z</time>
      </trkpt>
      <trkpt lat="34.74086629" lon="135.17780947">
        <ele>478.71</ele>
        <time>2026-08-31T01:16:17Z</time>
      </trkpt>
      <trkpt lat="34.74076854" lon="135.17782601">
        <ele>477.09</ele>
        <time>2026-08-31T01:16:28Z</time>
      </trkpt>
      <trkpt lat="34.7406793" lon="135.17777783">
        <ele>479.37</ele>
        <time>2026-08-31T01:16:37Z</time>
      </trkpt>
      <trkpt lat="34.74058572" lon="135.17778351">
        <ele>479.04</ele>
        <time>2026-08-31T01:18:01Z</time>
      </trkpt>
      <trkpt lat="34.74046441" lon="135.17775156">
        <ele>479.84</ele>
        <time>2026-08-31T01:18:17Z</time>
      </trkpt>
      <trkpt lat="34.74037602" lon="135.17772516">
        <ele>482.21</ele>
        <time>2026-08-31T01:18:29Z</time>
      </trkpt>
      <trkpt lat="34.74028047" lon="135.17772594">
        <ele>481.72</ele>
        <time>2026-08-31T01:18:39Z</time>
      </trkpt>
      <trkpt lat="34.74019004" lon="135.17771762">
        <ele>480.34</ele>
        <time>2026-08-31T01:18:51Z</time>
      </trkpt>
      <trkpt lat="34.74008202" lon="135.17771738">
        <ele>481.36</ele>
        <time>2026-08-31T01:19:04Z</time>
      </trkpt>
      <trkpt lat="34.73999167" lon="135.17774229">
        <ele>481.65</ele>
        <time>2026-08-31T01:19:16Z</time>
      </trkpt>
      <trkpt lat="34.73990037" lon="135.17777193">
        <ele>480.25</ele>
        <time>2026-08-31T01:19:30Z</time>
      </trkpt>
      <trkpt lat="34.7398088" lon="135.1777768">
        <ele>479.56</ele>
        <time>2026-08-31T01:19:42Z</time>
      </trkpt>
      <trkpt lat="34.73971647" lon="135.1777778">
        <ele>478.38</ele>
        <time>2026-08-31T01:19:54Z</time>
      </trkpt>
      <trkpt lat="34.73962249" lon="135.177801">
        <ele>475.19</ele>
        <time>2026-08-31T01:20:08Z</time>
      </trkpt>
      <trkpt lat="34.7395438" lon="135.17785563">
        <ele>471.4</ele>
        <time>2026-08-31T01:20:20Z</time>
      </trkpt>
      <trkpt lat="34.73945939" lon="135.17790595">
        <ele>471.32</ele>
        <time>2026-08-31T01:20:31Z</time>
      </trkpt>
      <trkpt lat="34.73939118" lon="135.17798873">
        <ele>469.77</ele>
        <time>2026-08-31T01:20:42Z</time>
      </trkpt>
      <trkpt lat="34.73932108" lon="135.17805963">
        <ele>468.69</ele>
        <time>2026-08-31T01:20:52Z</time>
      </trkpt>
      <trkpt lat="34.73925442" lon="135.17815003">
        <ele>470.27</ele>
        <time>2026-08-31T01:21:03Z</time>
      </trkpt>
      <trkpt lat="34.73922417" lon="135.17825839">
        <ele>468.57</ele>
        <time>2026-08-31T01:21:17Z</time>
      </trkpt>
      <trkpt lat="34.73919687" lon="135.17836586">
        <ele>465.11</ele>
        <time>2026-08-31T01:21:27Z</time>
      </trkpt>
      <trkpt lat="34.73924222" lon="135.17846195">
        <ele>467.11</ele>
        <time>2026-08-31T01:21:38Z</time>
      </trkpt>
      <trkpt lat="34.73917072" lon="135.1785341">
        <ele>467.72</ele>
        <time>2026-08-31T01:22:24Z</time>
      </trkpt>
      <trkpt lat="34.73906537" lon="135.17845888">
        <ele>467.31</ele>
        <time>2026-08-31T01:22:50Z</time>
      </trkpt>
      <trkpt lat="34.73897146" lon="135.17850644">
        <ele>469.82</ele>
        <time>2026-08-31T01:23:02Z</time>
      </trkpt>
      <trkpt lat="34.73887711" lon="135.17853244">
        <ele>469.94</ele>
        <time>2026-08-31T01:23:14Z</time>
      </trkpt>
      <trkpt lat="34.73878504" lon="135.17855823">
        <ele>470.48</ele>
        <time>2026-08-31T01:23:25Z</time>
      </trkpt>
      <trkpt lat="34.73869296" lon="135.17858586">
        <ele>470.9</ele>
        <time>2026-08-31T01:23:42Z</time>
      </trkpt>
      <trkpt lat="34.73860654" lon="135.1786319">
        <ele>472.85</ele>
        <time>2026-08-31T01:23:53Z</time>
      </trkpt>
      <trkpt lat="34.73851976" lon="135.17867969">
        <ele>470.55</ele>
        <time>2026-08-31T01:24:07Z</time>
      </trkpt>
      <trkpt lat="34.7384309" lon="135.17871672">
        <ele>471.79</ele>
        <time>2026-08-31T01:24:19Z</time>
      </trkpt>
      <trkpt lat="34.73834223" lon="135.17876851">
        <ele>471.62</ele>
        <time>2026-08-31T01:24:31Z</time>
      </trkpt>
      <trkpt lat="34.73827406" lon="135.17884386">
        <ele>472.81</ele>
        <time>2026-08-31T01:24:42Z</time>
      </trkpt>
      <trkpt lat="34.73823649" lon="135.17894879">
        <ele>470.43</ele>
        <time>2026-08-31T01:24:56Z</time>
      </trkpt>
      <trkpt lat="34.73822023" lon="135.17906323">
        <ele>469.48</ele>
        <time>2026-08-31T01:25:08Z</time>
      </trkpt>
      <trkpt lat="34.73818545" lon="135.17916953">
        <ele>471.25</ele>
        <time>2026-08-31T01:25:19Z</time>
      </trkpt>
      <trkpt lat="34.73812418" lon="135.17926068">
        <ele>471.13</ele>
        <time>2026-08-31T01:25:29Z</time>
      </trkpt>
      <trkpt lat="34.73805667" lon="135.17935244">
        <ele>472.03</ele>
        <time>2026-08-31T01:25:48Z</time>
      </trkpt>
      <trkpt lat="34.73799328" lon="135.17943501">
        <ele>473.35</ele>
        <time>2026-08-31T01:26:01Z</time>
      </trkpt>
      <trkpt lat="34.73791023" lon="135.1794894">
        <ele>475.09</ele>
        <time>2026-08-31T01:26:38Z</time>
      </trkpt>
      <trkpt lat="34.73781935" lon="135.17951866">
        <ele>476.1</ele>
        <time>2026-08-31T01:27:05Z</time>
      </trkpt>
      <trkpt lat="34.73793136" lon="135.1794905">
        <ele>473.63</ele>
        <time>2026-08-31T01:28:03Z</time>
      </trkpt>
      <trkpt lat="34.73782789" lon="135.17948434">
        <ele>476.16</ele>
        <time>2026-08-31T01:29:20Z</time>
      </trkpt>
      <trkpt lat="34.73792503" lon="135.17947097">
        <ele>476.26</ele>
        <time>2026-08-31T01:32:33Z</time>
      </trkpt>
      <trkpt lat="34.73784417" lon="135.17954468">
        <ele>472.29</ele>
        <time>2026-08-31T01:33:37Z</time>
      </trkpt>
      <trkpt lat="34.73775141" lon="135.17955256">
        <ele>473.22</ele>
        <time>2026-08-31T01:33:48Z</time>
      </trkpt>
      <trkpt lat="34.73766051" lon="135.17952193">
        <ele>475.2</ele>
        <time>2026-08-31T01:33:57Z</time>
      </trkpt>
      <trkpt lat="34.73757679" lon="135.17947507">
        <ele>475.31</ele>
        <time>2026-08-31T01:34:08Z</time>
      </trkpt>
      <trkpt lat="34.7375993" lon="135.17936527">
        <ele>474.03</ele>
        <time>2026-08-31T01:34:20Z</time>
      </trkpt>
      <trkpt lat="34.7375048" lon="135.17939062">
        <ele>471.88</ele>
        <time>2026-08-31T01:35:18Z</time>
      </trkpt>
      <trkpt lat="34.7374228" lon="135.17933619">
        <ele>471.35</ele>
        <time>2026-08-31T01:35:28Z</time>
      </trkpt>
      <trkpt lat="34.73733607" lon="135.17928267">
        <ele>472.49</ele>
        <time>2026-08-31T01:35:39Z</time>
      </trkpt>
      <trkpt lat="34.73724708" lon="135.17924984">
        <ele>474.23</ele>
        <time>2026-08-31T01:35:49Z</time>
      </trkpt>
      <trkpt lat="34.73715158" lon="135.17924144">
        <ele>476.7</ele>
        <time>2026-08-31T01:36:03Z</time>
      </trkpt>
      <trkpt lat="34.73707266" lon="135.17929498">
        <ele>475.02</ele>
        <time>2026-08-31T01:36:15Z</time>
      </trkpt>
      <trkpt lat="34.73706103" lon="135.17940549">
        <ele>473.21</ele>
        <time>2026-08-31T01:37:00Z</time>
      </trkpt>
      <trkpt lat="34.73709414" lon="135.17951447">
        <ele>472.97</ele>
        <time>2026-08-31T01:37:09Z</time>
      </trkpt>
      <trkpt lat="34.73711696" lon="135.17963018">
        <ele>473.13</ele>
        <time>2026-08-31T01:37:20Z</time>
      </trkpt>
      <trkpt lat="34.73715452" lon="135.17973455">
        <ele>472.54</ele>
        <time>2026-08-31T01:37:30Z</time>
      </trkpt>
      <trkpt lat="34.73718045" lon="135.17984611">
        <ele>471.85</ele>
        <time>2026-08-31T01:37:41Z</time>
      </trkpt>
      <trkpt lat="34.73719745" lon="135.17995382">
        <ele>470.9</ele>
        <time>2026-08-31T01:37:52Z</time>
      </trkpt>
      <trkpt lat="34.73722832" lon="135.18006241">
        <ele>470.09</ele>
        <time>2026-08-31T01:38:03Z</time>
      </trkpt>
      <trkpt lat="34.7372512" lon="135.18017067">
        <ele>471.67</ele>
        <time>2026-08-31T01:38:13Z</time>
      </trkpt>
      <trkpt lat="34.73727855" lon="135.1802769">
        <ele>471.58</ele>
        <time>2026-08-31T01:38:24Z</time>
      </trkpt>
      <trkpt lat="34.73730081" lon="135.18038354">
        <ele>470.43</ele>
        <time>2026-08-31T01:38:34Z</time>
      </trkpt>
      <trkpt lat="34.73733038" lon="135.18049613">
        <ele>469.27</ele>
        <time>2026-08-31T01:38:45Z</time>
      </trkpt>
      <trkpt lat="34.7373597" lon="135.18060748">
        <ele>467.84</ele>
        <time>2026-08-31T01:38:56Z</time>
      </trkpt>
      <trkpt lat="34.73738598" lon="135.18072202">
        <ele>468.4</ele>
        <time>2026-08-31T01:39:07Z</time>
      </trkpt>
      <trkpt lat="34.73733666" lon="135.18081962">
        <ele>467.17</ele>
        <time>2026-08-31T01:39:20Z</time>
      </trkpt>
      <trkpt lat="34.73735812" lon="135.18092883">
        <ele>467.92</ele>
        <time>2026-08-31T01:39:41Z</time>
      </trkpt>
      <trkpt lat="34.73743208" lon="135.18101858">
        <ele>467.59</ele>
        <time>2026-08-31T01:39:53Z</time>
      </trkpt>
      <trkpt lat="34.73749477" lon="135.18110476">
        <ele>467.02</ele>
        <time>2026-08-31T01:40:04Z</time>
      </trkpt>
      <trkpt lat="34.73756707" lon="135.18118234">
        <ele>465.86</ele>
        <time>2026-08-31T01:40:17Z</time>
      </trkpt>
      <trkpt lat="34.73764203" lon="135.18125205">
        <ele>463.75</ele>
        <time>2026-08-31T01:40:51Z</time>
      </trkpt>
      <trkpt lat="34.73771188" lon="135.18132858">
        <ele>463.73</ele>
        <time>2026-08-31T01:41:07Z</time>
      </trkpt>
      <trkpt lat="34.73776989" lon="135.18127515">
        <ele>463.65</ele>
        <time>2026-08-31T01:43:08Z</time>
      </trkpt>
      <trkpt lat="34.73775395" lon="135.18138405">
        <ele>462.54</ele>
        <time>2026-08-31T01:44:26Z</time>
      </trkpt>
      <trkpt lat="34.7377932" lon="135.18148588">
        <ele>461.61</ele>
        <time>2026-08-31T01:44:40Z</time>
      </trkpt>
      <trkpt lat="34.73779495" lon="135.18159566">
        <ele>461.72</ele>
        <time>2026-08-31T01:44:52Z</time>
      </trkpt>
      <trkpt lat="34.73776923" lon="135.18170899">
        <ele>461.26</ele>
        <time>2026-08-31T01:45:11Z</time>
      </trkpt>
      <trkpt lat="34.73771539" lon="135.18183248">
        <ele>460.5</ele>
        <time>2026-08-31T01:45:23Z</time>
      </trkpt>
      <trkpt lat="34.73762902" lon="135.18186385">
        <ele>458.65</ele>
        <time>2026-08-31T01:45:33Z</time>
      </trkpt>
      <trkpt lat="34.73753605" lon="135.18185681">
        <ele>457.9</ele>
        <time>2026-08-31T01:45:45Z</time>
      </trkpt>
      <trkpt lat="34.73744082" lon="135.18187515">
        <ele>459.08</ele>
        <time>2026-08-31T01:45:55Z</time>
      </trkpt>
      <trkpt lat="34.73736811" lon="135.18195095">
        <ele>458.81</ele>
        <time>2026-08-31T01:46:48Z</time>
      </trkpt>
      <trkpt lat="34.73730834" lon="135.182051">
        <ele>458.86</ele>
        <time>2026-08-31T01:47:24Z</time>
      </trkpt>
      <trkpt lat="34.73728033" lon="135.1821589">
        <ele>457.94</ele>
        <time>2026-08-31T01:47:35Z</time>
      </trkpt>
      <trkpt lat="34.73726971" lon="135.18226957">
        <ele>457.58</ele>
        <time>2026-08-31T01:47:47Z</time>
      </trkpt>
      <trkpt lat="34.73726066" lon="135.18238125">
        <ele>457.98</ele>
        <time>2026-08-31T01:47:57Z</time>
      </trkpt>
      <trkpt lat="34.7372552" lon="135.1824918">
        <ele>456.76</ele>
        <time>2026-08-31T01:48:08Z</time>
      </trkpt>
      <trkpt lat="34.73725841" lon="135.18260364">
        <ele>455.64</ele>
        <time>2026-08-31T01:48:19Z</time>
      </trkpt>
      <trkpt lat="34.73726815" lon="135.18273315">
        <ele>453.78</ele>
        <time>2026-08-31T01:48:32Z</time>
      </trkpt>
      <trkpt lat="34.7372775" lon="135.182851">
        <ele>454.21</ele>
        <time>2026-08-31T01:48:45Z</time>
      </trkpt>
      <trkpt lat="34.73719599" lon="135.18290753">
        <ele>451.06</ele>
        <time>2026-08-31T01:50:35Z</time>
      </trkpt>
      <trkpt lat="34.73715427" lon="135.18280071">
        <ele>449.82</ele>
        <time>2026-08-31T01:51:20Z</time>
      </trkpt>
      <trkpt lat="34.7371058" lon="135.18266703">
        <ele>449.33</ele>
        <time>2026-08-31T01:51:36Z</time>
      </trkpt>
      <trkpt lat="34.7370528" lon="135.18257529">
        <ele>449.34</ele>
        <time>2026-08-31T01:51:48Z</time>
      </trkpt>
      <trkpt lat="34.73699999" lon="135.1824818">
        <ele>449.13</ele>
        <time>2026-08-31T01:52:00Z</time>
      </trkpt>
      <trkpt lat="34.73692949" lon="135.18240285">
        <ele>449.52</ele>
        <time>2026-08-31T01:52:11Z</time>
      </trkpt>
      <trkpt lat="34.73685796" lon="135.18230564">
        <ele>448.41</ele>
        <time>2026-08-31T01:52:31Z</time>
      </trkpt>
      <trkpt lat="34.73683229" lon="135.18219481">
        <ele>446.93</ele>
        <time>2026-08-31T01:52:45Z</time>
      </trkpt>
      <trkpt lat="34.73681335" lon="135.18218747">
        <ele>446.88</ele>
        <time>2026-08-31T01:54:46Z</time>
      </trkpt>
      <trkpt lat="34.73688974" lon="135.18224704">
        <ele>446.95</ele>
        <time>2026-08-31T01:56:43Z</time>
      </trkpt>
      <trkpt lat="34.73678585" lon="135.18216115">
        <ele>447.65</ele>
        <time>2026-08-31T01:57:23Z</time>
      </trkpt>
      <trkpt lat="34.73669692" lon="135.18218387">
        <ele>446.62</ele>
        <time>2026-08-31T01:57:52Z</time>
      </trkpt>
      <trkpt lat="34.73663493" lon="135.18226473">
        <ele>446.86</ele>
        <time>2026-08-31T01:58:04Z</time>
      </trkpt>
      <trkpt lat="34.73654403" lon="135.18224926">
        <ele>442.52</ele>
        <time>2026-08-31T01:58:16Z</time>
      </trkpt>
      <trkpt lat="34.73646528" lon="135.18217885">
        <ele>442.25</ele>
        <time>2026-08-31T01:58:30Z</time>
      </trkpt>
      <trkpt lat="34.73640828" lon="135.1820853">
        <ele>442.23</ele>
        <time>2026-08-31T01:58:42Z</time>
      </trkpt>
      <trkpt lat="34.73636834" lon="135.18197632">
        <ele>442.42</ele>
        <time>2026-08-31T01:58:54Z</time>
      </trkpt>
      <trkpt lat="34.73633711" lon="135.18185991">
        <ele>443.46</ele>
        <time>2026-08-31T01:59:06Z</time>
      </trkpt>
      <trkpt lat="34.73638805" lon="135.18175267">
        <ele>440.64</ele>
        <time>2026-08-31T01:59:19Z</time>
      </trkpt>
      <trkpt lat="34.73641778" lon="135.18164891">
        <ele>439.48</ele>
        <time>2026-08-31T01:59:30Z</time>
      </trkpt>
      <trkpt lat="34.73645839" lon="135.1815159">
        <ele>436.47</ele>
        <time>2026-08-31T01:59:44Z</time>
      </trkpt>
      <trkpt lat="34.73655205" lon="135.18149509">
        <ele>436.3</ele>
        <time>2026-08-31T01:59:54Z</time>
      </trkpt>
      <trkpt lat="34.73664239" lon="135.18147602">
        <ele>436.57</ele>
        <time>2026-08-31T02:00:04Z</time>
      </trkpt>
      <trkpt lat="34.7367303" lon="135.1814511">
        <ele>436</ele>
        <time>2026-08-31T02:00:14Z</time>
      </trkpt>
      <trkpt lat="34.73676663" lon="135.18134037">
        <ele>436.75</ele>
        <time>2026-08-31T02:00:29Z</time>
      </trkpt>
      <trkpt lat="34.73672174" lon="135.18123841">
        <ele>436.35</ele>
        <time>2026-08-31T02:00:52Z</time>
      </trkpt>
      <trkpt lat="34.73665896" lon="135.18114463">
        <ele>436.75</ele>
        <time>2026-08-31T02:01:03Z</time>
      </trkpt>
      <trkpt lat="34.73660064" lon="135.1810503">
        <ele>438.15</ele>
        <time>2026-08-31T02:01:15Z</time>
      </trkpt>
      <trkpt lat="34.73654216" lon="135.18096294">
        <ele>441.05</ele>
        <time>2026-08-31T02:01:27Z</time>
      </trkpt>
      <trkpt lat="34.7364691" lon="135.1808903">
        <ele>441.01</ele>
        <time>2026-08-31T02:01:38Z</time>
      </trkpt>
      <trkpt lat="34.7364062" lon="135.1808103">
        <ele>442.58</ele>
        <time>2026-08-31T02:01:52Z</time>
      </trkpt>
      <trkpt lat="34.73635244" lon="135.18071652">
        <ele>441.9</ele>
        <time>2026-08-31T02:02:07Z</time>
      </trkpt>
      <trkpt lat="34.73626055" lon="135.18072276">
        <ele>440.45</ele>
        <time>2026-08-31T02:02:24Z</time>
      </trkpt>
      <trkpt lat="34.73622513" lon="135.18082572">
        <ele>440.83</ele>
        <time>2026-08-31T02:02:47Z</time>
      </trkpt>
      <trkpt lat="34.73613476" lon="135.18084161">
        <ele>441.72</ele>
        <time>2026-08-31T02:03:04Z</time>
      </trkpt>
      <trkpt lat="34.7360467" lon="135.18087376">
        <ele>444.27</ele>
        <time>2026-08-31T02:03:24Z</time>
      </trkpt>
      <trkpt lat="34.73603624" lon="135.18090884">
        <ele>446.03</ele>
        <time>2026-08-31T02:05:25Z</time>
      </trkpt>
      <trkpt lat="34.73606127" lon="135.18079403">
        <ele>442.9</ele>
        <time>2026-08-31T02:05:41Z</time>
      </trkpt>
      <trkpt lat="34.73605711" lon="135.18064512">
        <ele>440.18</ele>
        <time>2026-08-31T02:05:57Z</time>
      </trkpt>
      <trkpt lat="34.73606886" lon="135.18053089">
        <ele>437.33</ele>
        <time>2026-08-31T02:06:09Z</time>
      </trkpt>
      <trkpt lat="34.73602249" lon="135.18042492">
        <ele>440.93</ele>
        <time>2026-08-31T02:06:16Z</time>
      </trkpt>
      <trkpt lat="34.73593696" lon="135.18038327">
        <ele>434.61</ele>
        <time>2026-08-31T02:06:31Z</time>
      </trkpt>
      <trkpt lat="34.73585689" lon="135.18033087">
        <ele>436.81</ele>
        <time>2026-08-31T02:06:44Z</time>
      </trkpt>
      <trkpt lat="34.73581211" lon="135.18022964">
        <ele>438.64</ele>
        <time>2026-08-31T02:06:59Z</time>
      </trkpt>
      <trkpt lat="34.7357894" lon="135.18012141">
        <ele>438.52</ele>
        <time>2026-08-31T02:07:11Z</time>
      </trkpt>
      <trkpt lat="34.7357799" lon="135.18000448">
        <ele>441.02</ele>
        <time>2026-08-31T02:07:23Z</time>
      </trkpt>
      <trkpt lat="34.73583591" lon="135.17990813">
        <ele>441.45</ele>
        <time>2026-08-31T02:07:34Z</time>
      </trkpt>
      <trkpt lat="34.73591653" lon="135.17982753">
        <ele>441.34</ele>
        <time>2026-08-31T02:07:47Z</time>
      </trkpt>
      <trkpt lat="34.7359893" lon="135.17972783">
        <ele>441.21</ele>
        <time>2026-08-31T02:08:01Z</time>
      </trkpt>
      <trkpt lat="34.73601645" lon="135.17960971">
        <ele>441.73</ele>
        <time>2026-08-31T02:08:16Z</time>
      </trkpt>
      <trkpt lat="34.73593495" lon="135.17954753">
        <ele>440.67</ele>
        <time>2026-08-31T02:08:30Z</time>
      </trkpt>
      <trkpt lat="34.73585037" lon="135.17949491">
        <ele>440.04</ele>
        <time>2026-08-31T02:08:42Z</time>
      </trkpt>
      <trkpt lat="34.73576382" lon="135.17945149">
        <ele>440.88</ele>
        <time>2026-08-31T02:08:53Z</time>
      </trkpt>
      <trkpt lat="34.73568337" lon="135.17937489">
        <ele>440.46</ele>
        <time>2026-08-31T02:09:05Z</time>
      </trkpt>
      <trkpt lat="34.7356423" lon="135.17927188">
        <ele>442.42</ele>
        <time>2026-08-31T02:09:16Z</time>
      </trkpt>
      <trkpt lat="34.73561027" lon="135.17916504">
        <ele>443.18</ele>
        <time>2026-08-31T02:09:27Z</time>
      </trkpt>
      <trkpt lat="34.73562672" lon="135.17905062">
        <ele>443.03</ele>
        <time>2026-08-31T02:09:39Z</time>
      </trkpt>
      <trkpt lat="34.73566584" lon="135.17895016">
        <ele>444.93</ele>
        <time>2026-08-31T02:09:50Z</time>
      </trkpt>
      <trkpt lat="34.73561304" lon="135.17886123">
        <ele>442.68</ele>
        <time>2026-08-31T02:10:08Z</time>
      </trkpt>
      <trkpt lat="34.73551839" lon="135.17885333">
        <ele>442.22</ele>
        <time>2026-08-31T02:10:33Z</time>
      </trkpt>
      <trkpt lat="34.73543201" lon="135.1788085">
        <ele>441.93</ele>
        <time>2026-08-31T02:11:03Z</time>
      </trkpt>
      <trkpt lat="34.73540641" lon="135.17869299">
        <ele>444.82</ele>
        <time>2026-08-31T02:11:32Z</time>
      </trkpt>
      <trkpt lat="34.73538573" lon="135.17857932">
        <ele>447.79</ele>
        <time>2026-08-31T02:12:12Z</time>
      </trkpt>
      <trkpt lat="34.73538308" lon="135.17846233">
        <ele>451.08</ele>
        <time>2026-08-31T02:12:39Z</time>
      </trkpt>
      <trkpt lat="34.73532692" lon="135.17837512">
        <ele>451.8</ele>
        <time>2026-08-31T02:12:53Z</time>
      </trkpt>
      <trkpt lat="34.73523706" lon="135.17833368">
        <ele>450.12</ele>
        <time>2026-08-31T02:13:10Z</time>
      </trkpt>
      <trkpt lat="34.73514678" lon="135.17830935">
        <ele>451.7</ele>
        <time>2026-08-31T02:13:26Z</time>
      </trkpt>
      <trkpt lat="34.73508466" lon="135.17823021">
        <ele>449.56</ele>
        <time>2026-08-31T02:13:47Z</time>
      </trkpt>
      <trkpt lat="34.73510343" lon="135.17818222">
        <ele>449.16</ele>
        <time>2026-08-31T02:15:48Z</time>
      </trkpt>
      <trkpt lat="34.73510598" lon="135.17818309">
        <ele>449.04</ele>
        <time>2026-08-31T02:17:49Z</time>
      </trkpt>
      <trkpt lat="34.73510991" lon="135.17818592">
        <ele>449.34</ele>
        <time>2026-08-31T02:21:51Z</time>
      </trkpt>
      <trkpt lat="34.73511224" lon="135.17818731">
        <ele>449.56</ele>
        <time>2026-08-31T02:23:52Z</time>
      </trkpt>
      <trkpt lat="34.73511563" lon="135.1781879">
        <ele>449.51</ele>
        <time>2026-08-31T02:25:53Z</time>
      </trkpt>
      <trkpt lat="34.73511775" lon="135.17819088">
        <ele>449.73</ele>
        <time>2026-08-31T02:27:54Z</time>
      </trkpt>
      <trkpt lat="34.7351206" lon="135.17819223">
        <ele>449.82</ele>
        <time>2026-08-31T02:29:55Z</time>
      </trkpt>
      <trkpt lat="34.73512249" lon="135.17819419">
        <ele>450.84</ele>
        <time>2026-08-31T02:31:56Z</time>
      </trkpt>
      <trkpt lat="34.73511883" lon="135.17820891">
        <ele>452.19</ele>
        <time>2026-08-31T02:33:57Z</time>
      </trkpt>
      <trkpt lat="34.73511553" lon="135.1782441">
        <ele>452.58</ele>
        <time>2026-08-31T02:35:59Z</time>
      </trkpt>
      <trkpt lat="34.73501464" lon="135.17826833">
        <ele>452.85</ele>
        <time>2026-08-31T02:36:21Z</time>
      </trkpt>
      <trkpt lat="34.73491383" lon="135.17819466">
        <ele>449.68</ele>
        <time>2026-08-31T02:36:35Z</time>
      </trkpt>
      <trkpt lat="34.73484758" lon="135.178114">
        <ele>449.61</ele>
        <time>2026-08-31T02:36:45Z</time>
      </trkpt>
      <trkpt lat="34.73479237" lon="135.17801452">
        <ele>449.3</ele>
        <time>2026-08-31T02:36:56Z</time>
      </trkpt>
      <trkpt lat="34.73475424" lon="135.17810083">
        <ele>450.44</ele>
        <time>2026-08-31T02:38:57Z</time>
      </trkpt>
      <trkpt lat="34.73466937" lon="135.17815429">
        <ele>454.68</ele>
        <time>2026-08-31T02:39:08Z</time>
      </trkpt>
      <trkpt lat="34.73458142" lon="135.17811653">
        <ele>457.44</ele>
        <time>2026-08-31T02:39:20Z</time>
      </trkpt>
      <trkpt lat="34.73449379" lon="135.17806182">
        <ele>454.92</ele>
        <time>2026-08-31T02:39:38Z</time>
      </trkpt>
      <trkpt lat="34.73440928" lon="135.17801718">
        <ele>456.26</ele>
        <time>2026-08-31T02:40:42Z</time>
      </trkpt>
      <trkpt lat="34.73432217" lon="135.17796589">
        <ele>458.51</ele>
        <time>2026-08-31T02:41:10Z</time>
      </trkpt>
      <trkpt lat="34.73425384" lon="135.17788646">
        <ele>457.27</ele>
        <time>2026-08-31T02:41:46Z</time>
      </trkpt>
      <trkpt lat="34.73421301" lon="135.17778457">
        <ele>457.73</ele>
        <time>2026-08-31T02:41:59Z</time>
      </trkpt>
      <trkpt lat="34.73413716" lon="135.17772435">
        <ele>463.3</ele>
        <time>2026-08-31T02:43:09Z</time>
      </trkpt>
      <trkpt lat="34.73405317" lon="135.17767346">
        <ele>467.57</ele>
        <time>2026-08-31T02:43:23Z</time>
      </trkpt>
      <trkpt lat="34.7339956" lon="135.17758784">
        <ele>467.94</ele>
        <time>2026-08-31T02:43:38Z</time>
      </trkpt>
      <trkpt lat="34.73396482" lon="135.17748129">
        <ele>469.94</ele>
        <time>2026-08-31T02:43:56Z</time>
      </trkpt>
      <trkpt lat="34.73391471" lon="135.17738215">
        <ele>471.61</ele>
        <time>2026-08-31T02:44:22Z</time>
      </trkpt>
      <trkpt lat="34.73384306" lon="135.1773057">
        <ele>481.28</ele>
        <time>2026-08-31T02:44:35Z</time>
      </trkpt>
      <trkpt lat="34.73376025" lon="135.17725154">
        <ele>476.76</ele>
        <time>2026-08-31T02:44:51Z</time>
      </trkpt>
      <trkpt lat="34.73369028" lon="135.17718239">
        <ele>480.23</ele>
        <time>2026-08-31T02:45:08Z</time>
      </trkpt>
      <trkpt lat="34.73358205" lon="135.17619592">
        <ele>465.1</ele>
        <time>2026-08-31T02:46:42Z</time>
      </trkpt>
      <trkpt lat="34.73361785" lon="135.17606597">
        <ele>478.87</ele>
        <time>2026-08-31T02:47:01Z</time>
      </trkpt>
      <trkpt lat="34.73364122" lon="135.17595883">
        <ele>473.89</ele>
        <time>2026-08-31T02:47:15Z</time>
      </trkpt>
      <trkpt lat="34.73366047" lon="135.17585037">
        <ele>471.99</ele>
        <time>2026-08-31T02:47:30Z</time>
      </trkpt>
      <trkpt lat="34.73367485" lon="135.17573443">
        <ele>473.98</ele>
        <time>2026-08-31T02:47:42Z</time>
      </trkpt>
      <trkpt lat="34.73369776" lon="135.1756259">
        <ele>470.77</ele>
        <time>2026-08-31T02:47:54Z</time>
      </trkpt>
      <trkpt lat="34.7337537" lon="135.17552899">
        <ele>464.74</ele>
        <time>2026-08-31T02:48:11Z</time>
      </trkpt>
      <trkpt lat="34.73379602" lon="135.17542977">
        <ele>461.68</ele>
        <time>2026-08-31T02:48:25Z</time>
      </trkpt>
      <trkpt lat="34.73383596" lon="135.17532683">
        <ele>460.47</ele>
        <time>2026-08-31T02:48:57Z</time>
      </trkpt>
      <trkpt lat="34.73390698" lon="135.17525744">
        <ele>461.14</ele>
        <time>2026-08-31T02:49:37Z</time>
      </trkpt>
      <trkpt lat="34.73384654" lon="135.17517055">
        <ele>457.91</ele>
        <time>2026-08-31T02:49:54Z</time>
      </trkpt>
      <trkpt lat="34.73385908" lon="135.17504637">
        <ele>461.57</ele>
        <time>2026-08-31T02:50:07Z</time>
      </trkpt>
      <trkpt lat="34.7338827" lon="135.17493581">
        <ele>462.59</ele>
        <time>2026-08-31T02:50:19Z</time>
      </trkpt>
      <trkpt lat="34.73390184" lon="135.17482033">
        <ele>463.5</ele>
        <time>2026-08-31T02:50:32Z</time>
      </trkpt>
      <trkpt lat="34.73390826" lon="135.17470634">
        <ele>465.92</ele>
        <time>2026-08-31T02:50:43Z</time>
      </trkpt>
      <trkpt lat="34.7339157" lon="135.17458695">
        <ele>466.96</ele>
        <time>2026-08-31T02:50:54Z</time>
      </trkpt>
      <trkpt lat="34.73397782" lon="135.17446183">
        <ele>466.22</ele>
        <time>2026-08-31T02:51:10Z</time>
      </trkpt>
      <trkpt lat="34.73402546" lon="135.17436877">
        <ele>467.83</ele>
        <time>2026-08-31T02:51:21Z</time>
      </trkpt>
      <trkpt lat="34.73409269" lon="135.17428147">
        <ele>465.97</ele>
        <time>2026-08-31T02:51:33Z</time>
      </trkpt>
      <trkpt lat="34.73412943" lon="135.17417544">
        <ele>461.84</ele>
        <time>2026-08-31T02:51:47Z</time>
      </trkpt>
      <trkpt lat="34.73412636" lon="135.17406466">
        <ele>461.32</ele>
        <time>2026-08-31T02:51:59Z</time>
      </trkpt>
      <trkpt lat="34.73414308" lon="135.17395397">
        <ele>463.39</ele>
        <time>2026-08-31T02:52:10Z</time>
      </trkpt>
      <trkpt lat="34.73417256" lon="135.1738397">
        <ele>463.9</ele>
        <time>2026-08-31T02:52:21Z</time>
      </trkpt>
      <trkpt lat="34.73420248" lon="135.17372793">
        <ele>461.73</ele>
        <time>2026-08-31T02:52:33Z</time>
      </trkpt>
      <trkpt lat="34.73422013" lon="135.17361468">
        <ele>458.6</ele>
        <time>2026-08-31T02:52:45Z</time>
      </trkpt>
      <trkpt lat="34.73426012" lon="135.1735081">
        <ele>459.19</ele>
        <time>2026-08-31T02:53:00Z</time>
      </trkpt>
      <trkpt lat="34.73432385" lon="135.17342507">
        <ele>455.96</ele>
        <time>2026-08-31T02:53:25Z</time>
      </trkpt>
      <trkpt lat="34.73441398" lon="135.17344643">
        <ele>453.9</ele>
        <time>2026-08-31T02:53:36Z</time>
      </trkpt>
      <trkpt lat="34.73450767" lon="135.17349766">
        <ele>451.83</ele>
        <time>2026-08-31T02:53:48Z</time>
      </trkpt>
      <trkpt lat="34.73458774" lon="135.17354977">
        <ele>450.62</ele>
        <time>2026-08-31T02:53:59Z</time>
      </trkpt>
      <trkpt lat="34.734673" lon="135.1736006">
        <ele>451.33</ele>
        <time>2026-08-31T02:54:11Z</time>
      </trkpt>
      <trkpt lat="34.73475917" lon="135.17364783">
        <ele>451.06</ele>
        <time>2026-08-31T02:54:26Z</time>
      </trkpt>
      <trkpt lat="34.73484067" lon="135.17370817">
        <ele>455.99</ele>
        <time>2026-08-31T02:54:41Z</time>
      </trkpt>
      <trkpt lat="34.73492204" lon="135.17375571">
        <ele>457.41</ele>
        <time>2026-08-31T02:54:54Z</time>
      </trkpt>
      <trkpt lat="34.73500092" lon="135.17381012">
        <ele>459.28</ele>
        <time>2026-08-31T02:55:08Z</time>
      </trkpt>
      <trkpt lat="34.73508271" lon="135.17385837">
        <ele>460.29</ele>
        <time>2026-08-31T02:55:21Z</time>
      </trkpt>
      <trkpt lat="34.73517217" lon="135.17392225">
        <ele>461.58</ele>
        <time>2026-08-31T02:55:44Z</time>
      </trkpt>
      <trkpt lat="34.73525564" lon="135.17397339">
        <ele>462.33</ele>
        <time>2026-08-31T02:55:59Z</time>
      </trkpt>
      <trkpt lat="34.73534683" lon="135.17402362">
        <ele>463.63</ele>
        <time>2026-08-31T02:56:13Z</time>
      </trkpt>
      <trkpt lat="34.73543625" lon="135.17405326">
        <ele>463.92</ele>
        <time>2026-08-31T02:56:27Z</time>
      </trkpt>
      <trkpt lat="34.73552684" lon="135.17407556">
        <ele>465.42</ele>
        <time>2026-08-31T02:56:42Z</time>
      </trkpt>
      <trkpt lat="34.73561907" lon="135.17410917">
        <ele>464.93</ele>
        <time>2026-08-31T02:56:56Z</time>
      </trkpt>
      <trkpt lat="34.73572712" lon="135.17411805">
        <ele>465.24</ele>
        <time>2026-08-31T02:57:12Z</time>
      </trkpt>
      <trkpt lat="34.73582263" lon="135.17414232">
        <ele>466.96</ele>
        <time>2026-08-31T02:57:27Z</time>
      </trkpt>
      <trkpt lat="34.73590744" lon="135.17419501">
        <ele>467.24</ele>
        <time>2026-08-31T02:57:40Z</time>
      </trkpt>
      <trkpt lat="34.73598927" lon="135.17424897">
        <ele>459.16</ele>
        <time>2026-08-31T02:58:08Z</time>
      </trkpt>
      <trkpt lat="34.73606245" lon="135.17431803">
        <ele>459.02</ele>
        <time>2026-08-31T02:58:36Z</time>
      </trkpt>
      <trkpt lat="34.73614115" lon="135.17437251">
        <ele>459.79</ele>
        <time>2026-08-31T02:58:46Z</time>
      </trkpt>
      <trkpt lat="34.73622566" lon="135.17441059">
        <ele>463.37</ele>
        <time>2026-08-31T02:58:56Z</time>
      </trkpt>
      <trkpt lat="34.73630477" lon="135.17447935">
        <ele>462.94</ele>
        <time>2026-08-31T02:59:08Z</time>
      </trkpt>
      <trkpt lat="34.73626842" lon="135.17461383">
        <ele>461.42</ele>
        <time>2026-08-31T02:59:23Z</time>
      </trkpt>
      <trkpt lat="34.73620038" lon="135.17469409">
        <ele>466.18</ele>
        <time>2026-08-31T02:59:37Z</time>
      </trkpt>
      <trkpt lat="34.73616089" lon="135.17479743">
        <ele>466.55</ele>
        <time>2026-08-31T02:59:52Z</time>
      </trkpt>
      <trkpt lat="34.73616921" lon="135.17491459">
        <ele>466.7</ele>
        <time>2026-08-31T03:00:09Z</time>
      </trkpt>
      <trkpt lat="34.73617742" lon="135.1748036">
        <ele>466.37</ele>
        <time>2026-08-31T03:01:59Z</time>
      </trkpt>
      <trkpt lat="34.73619035" lon="135.17469091">
        <ele>467.05</ele>
        <time>2026-08-31T03:02:11Z</time>
      </trkpt>
      <trkpt lat="34.73622375" lon="135.17458054">
        <ele>467.99</ele>
        <time>2026-08-31T03:02:24Z</time>
      </trkpt>
      <trkpt lat="34.73628259" lon="135.17446766">
        <ele>465.67</ele>
        <time>2026-08-31T03:02:37Z</time>
      </trkpt>
      <trkpt lat="34.73637774" lon="135.1744906">
        <ele>459.05</ele>
        <time>2026-08-31T03:02:48Z</time>
      </trkpt>
      <trkpt lat="34.73645758" lon="135.17454861">
        <ele>461.25</ele>
        <time>2026-08-31T03:02:57Z</time>
      </trkpt>
      <trkpt lat="34.73654918" lon="135.17456607">
        <ele>459.68</ele>
        <time>2026-08-31T03:03:09Z</time>
      </trkpt>
      <trkpt lat="34.73664097" lon="135.17457">
        <ele>460.53</ele>
        <time>2026-08-31T03:03:19Z</time>
      </trkpt>
      <trkpt lat="34.73672512" lon="135.17462624">
        <ele>464.17</ele>
        <time>2026-08-31T03:03:37Z</time>
      </trkpt>
      <trkpt lat="34.73680575" lon="135.17467825">
        <ele>464.34</ele>
        <time>2026-08-31T03:03:49Z</time>
      </trkpt>
      <trkpt lat="34.73686362" lon="135.17476355">
        <ele>459.59</ele>
        <time>2026-08-31T03:04:56Z</time>
      </trkpt>
      <trkpt lat="34.73694208" lon="135.1748261">
        <ele>462.48</ele>
        <time>2026-08-31T03:05:07Z</time>
      </trkpt>
      <trkpt lat="34.73703454" lon="135.17487399">
        <ele>473.01</ele>
        <time>2026-08-31T03:05:23Z</time>
      </trkpt>
      <trkpt lat="34.73712517" lon="135.17485698">
        <ele>473.92</ele>
        <time>2026-08-31T03:05:38Z</time>
      </trkpt>
      <trkpt lat="34.73722206" lon="135.17485512">
        <ele>479.12</ele>
        <time>2026-08-31T03:05:51Z</time>
      </trkpt>
      <trkpt lat="34.73731362" lon="135.17484072">
        <ele>479.08</ele>
        <time>2026-08-31T03:06:04Z</time>
      </trkpt>
      <trkpt lat="34.73740434" lon="135.17484569">
        <ele>481.67</ele>
        <time>2026-08-31T03:06:16Z</time>
      </trkpt>
      <trkpt lat="34.73750245" lon="135.17485279">
        <ele>480.75</ele>
        <time>2026-08-31T03:06:28Z</time>
      </trkpt>
      <trkpt lat="34.73759124" lon="135.17487416">
        <ele>481.07</ele>
        <time>2026-08-31T03:06:38Z</time>
      </trkpt>
      <trkpt lat="34.73767179" lon="135.17493716">
        <ele>481.52</ele>
        <time>2026-08-31T03:07:14Z</time>
      </trkpt>
      <trkpt lat="34.73775355" lon="135.17499977">
        <ele>482.01</ele>
        <time>2026-08-31T03:07:37Z</time>
      </trkpt>
      <trkpt lat="34.73783372" lon="135.1750558">
        <ele>481.08</ele>
        <time>2026-08-31T03:07:57Z</time>
      </trkpt>
      <trkpt lat="34.73789876" lon="135.17513175">
        <ele>480.18</ele>
        <time>2026-08-31T03:09:47Z</time>
      </trkpt>
      <trkpt lat="34.7379919" lon="135.17516191">
        <ele>478.32</ele>
        <time>2026-08-31T03:10:40Z</time>
      </trkpt>
      <trkpt lat="34.73806293" lon="135.17523712">
        <ele>480.56</ele>
        <time>2026-08-31T03:10:52Z</time>
      </trkpt>
      <trkpt lat="34.7381298" lon="135.17531626">
        <ele>478.18</ele>
        <time>2026-08-31T03:11:05Z</time>
      </trkpt>
      <trkpt lat="34.73817438" lon="135.17541586">
        <ele>477.34</ele>
        <time>2026-08-31T03:11:18Z</time>
      </trkpt>
      <trkpt lat="34.73820032" lon="135.17552213">
        <ele>478.84</ele>
        <time>2026-08-31T03:11:44Z</time>
      </trkpt>
      <trkpt lat="34.73819897" lon="135.17563264">
        <ele>478.4</ele>
        <time>2026-08-31T03:12:13Z</time>
      </trkpt>
      <trkpt lat="34.73820627" lon="135.17574939">
        <ele>479.3</ele>
        <time>2026-08-31T03:12:27Z</time>
      </trkpt>
      <trkpt lat="34.73818287" lon="135.17585703">
        <ele>477.82</ele>
        <time>2026-08-31T03:12:39Z</time>
      </trkpt>
      <trkpt lat="34.73811329" lon="135.17594719">
        <ele>475.99</ele>
        <time>2026-08-31T03:12:52Z</time>
      </trkpt>
      <trkpt lat="34.73804615" lon="135.17603114">
        <ele>475.49</ele>
        <time>2026-08-31T03:13:03Z</time>
      </trkpt>
      <trkpt lat="34.73801873" lon="135.1761387">
        <ele>476.41</ele>
        <time>2026-08-31T03:13:16Z</time>
      </trkpt>
      <trkpt lat="34.73808192" lon="135.17622819">
        <ele>476.18</ele>
        <time>2026-08-31T03:13:38Z</time>
      </trkpt>
      <trkpt lat="34.73816956" lon="135.17627825">
        <ele>476.84</ele>
        <time>2026-08-31T03:13:58Z</time>
      </trkpt>
      <trkpt lat="34.73827537" lon="135.17631456">
        <ele>478.8</ele>
        <time>2026-08-31T03:14:16Z</time>
      </trkpt>
      <trkpt lat="34.73837436" lon="135.17633342">
        <ele>478.67</ele>
        <time>2026-08-31T03:14:29Z</time>
      </trkpt>
      <trkpt lat="34.73846226" lon="135.17630322">
        <ele>478.37</ele>
        <time>2026-08-31T03:14:42Z</time>
      </trkpt>
      <trkpt lat="34.73855495" lon="135.17627976">
        <ele>477.55</ele>
        <time>2026-08-31T03:14:57Z</time>
      </trkpt>
      <trkpt lat="34.73854825" lon="135.1762918">
        <ele>476.61</ele>
        <time>2026-08-31T03:16:58Z</time>
      </trkpt>
      <trkpt lat="34.73854884" lon="135.17629312">
        <ele>476.61</ele>
        <time>2026-08-31T03:19:10Z</time>
      </trkpt>
      <trkpt lat="34.73908638" lon="135.17854918">
        <ele>483.6</ele>
        <time>2026-08-31T03:26:13Z</time>
      </trkpt>
      <trkpt lat="34.73910881" lon="135.1784381">
        <ele>465.25</ele>
        <time>2026-08-31T03:26:17Z</time>
      </trkpt>
      <trkpt lat="34.73908005" lon="135.17842955">
        <ele>465.1</ele>
        <time>2026-08-31T03:28:18Z</time>
      </trkpt>
      <trkpt lat="34.73908372" lon="135.17842964">
        <ele>465.97</ele>
        <time>2026-08-31T03:30:45Z</time>
      </trkpt>
      <trkpt lat="34.73908573" lon="135.17842429">
        <ele>467.01</ele>
        <time>2026-08-31T03:34:13Z</time>
      </trkpt>
      <trkpt lat="34.73908889" lon="135.17842234">
        <ele>467.49</ele>
        <time>2026-08-31T03:36:14Z</time>
      </trkpt>
      <trkpt lat="34.73914059" lon="135.17831964">
        <ele>464.18</ele>
        <time>2026-08-31T03:37:36Z</time>
      </trkpt>
      <trkpt lat="34.73918562" lon="135.17821707">
        <ele>462.32</ele>
        <time>2026-08-31T03:37:48Z</time>
      </trkpt>
      <trkpt lat="34.73922175" lon="135.17811593">
        <ele>464.24</ele>
        <time>2026-08-31T03:37:59Z</time>
      </trkpt>
      <trkpt lat="34.73929259" lon="135.17804172">
        <ele>462.52</ele>
        <time>2026-08-31T03:38:09Z</time>
      </trkpt>
      <trkpt lat="34.73936473" lon="135.17797129">
        <ele>463.31</ele>
        <time>2026-08-31T03:38:20Z</time>
      </trkpt>
      <trkpt lat="34.73944295" lon="135.17791459">
        <ele>464.91</ele>
        <time>2026-08-31T03:38:31Z</time>
      </trkpt>
      <trkpt lat="34.73952534" lon="135.17786479">
        <ele>467.41</ele>
        <time>2026-08-31T03:38:40Z</time>
      </trkpt>
      <trkpt lat="34.73961751" lon="135.17783899">
        <ele>464.84</ele>
        <time>2026-08-31T03:38:51Z</time>
      </trkpt>
      <trkpt lat="34.73971164" lon="135.17781731">
        <ele>462.82</ele>
        <time>2026-08-31T03:39:03Z</time>
      </trkpt>
      <trkpt lat="34.73982063" lon="135.17780534">
        <ele>462.08</ele>
        <time>2026-08-31T03:39:15Z</time>
      </trkpt>
      <trkpt lat="34.73991219" lon="135.17778576">
        <ele>461.37</ele>
        <time>2026-08-31T03:39:25Z</time>
      </trkpt>
      <trkpt lat="34.74001646" lon="135.17776857">
        <ele>462.37</ele>
        <time>2026-08-31T03:39:40Z</time>
      </trkpt>
      <trkpt lat="34.74010973" lon="135.17778579">
        <ele>464.26</ele>
        <time>2026-08-31T03:39:52Z</time>
      </trkpt>
      <trkpt lat="34.74020005" lon="135.17777651">
        <ele>467.58</ele>
        <time>2026-08-31T03:40:01Z</time>
      </trkpt>
      <trkpt lat="34.7402924" lon="135.17775983">
        <ele>470.37</ele>
        <time>2026-08-31T03:40:10Z</time>
      </trkpt>
      <trkpt lat="34.74038622" lon="135.17776181">
        <ele>470.74</ele>
        <time>2026-08-31T03:40:20Z</time>
      </trkpt>
      <trkpt lat="34.7404787" lon="135.1777479">
        <ele>473.37</ele>
        <time>2026-08-31T03:40:33Z</time>
      </trkpt>
      <trkpt lat="34.74057101" lon="135.17777048">
        <ele>474.28</ele>
        <time>2026-08-31T03:40:43Z</time>
      </trkpt>
      <trkpt lat="34.74066237" lon="135.17779855">
        <ele>475.63</ele>
        <time>2026-08-31T03:40:54Z</time>
      </trkpt>
      <trkpt lat="34.74076799" lon="135.17779248">
        <ele>476.23</ele>
        <time>2026-08-31T03:42:37Z</time>
      </trkpt>
      <trkpt lat="34.7408536" lon="135.17784583">
        <ele>477.51</ele>
        <time>2026-08-31T03:42:47Z</time>
      </trkpt>
      <trkpt lat="34.74094746" lon="135.17786136">
        <ele>476.84</ele>
        <time>2026-08-31T03:42:59Z</time>
      </trkpt>
      <trkpt lat="34.7410316" lon="135.17781854">
        <ele>473.75</ele>
        <time>2026-08-31T03:43:08Z</time>
      </trkpt>
      <trkpt lat="34.74112297" lon="135.17780215">
        <ele>470.37</ele>
        <time>2026-08-31T03:43:21Z</time>
      </trkpt>
      <trkpt lat="34.74121739" lon="135.17777157">
        <ele>468.9</ele>
        <time>2026-08-31T03:43:32Z</time>
      </trkpt>
      <trkpt lat="34.74127529" lon="135.17767556">
        <ele>469.14</ele>
        <time>2026-08-31T03:43:43Z</time>
      </trkpt>
      <trkpt lat="34.74134732" lon="135.1775906">
        <ele>468.12</ele>
        <time>2026-08-31T03:43:53Z</time>
      </trkpt>
      <trkpt lat="34.7414055" lon="135.17750339">
        <ele>469.83</ele>
        <time>2026-08-31T03:44:03Z</time>
      </trkpt>
      <trkpt lat="34.74149207" lon="135.17743777">
        <ele>471.98</ele>
        <time>2026-08-31T03:44:13Z</time>
      </trkpt>
      <trkpt lat="34.7415565" lon="135.17735624">
        <ele>472.98</ele>
        <time>2026-08-31T03:44:23Z</time>
      </trkpt>
      <trkpt lat="34.74163257" lon="135.17727823">
        <ele>472.07</ele>
        <time>2026-08-31T03:44:34Z</time>
      </trkpt>
      <trkpt lat="34.74172392" lon="135.17724201">
        <ele>471.6</ele>
        <time>2026-08-31T03:44:45Z</time>
      </trkpt>
      <trkpt lat="34.74181556" lon="135.17720268">
        <ele>470.43</ele>
        <time>2026-08-31T03:44:56Z</time>
      </trkpt>
      <trkpt lat="34.74190334" lon="135.17715795">
        <ele>473.48</ele>
        <time>2026-08-31T03:45:06Z</time>
      </trkpt>
    </trkseg>
  </trk>
</gpx>